<?xml version="1.0" encoding="utf-8" ?>
<kml xmlns="http://www.opengis.net/kml/2.2">
<Document id="root_doc">
<Schema name="11000_voltage_line" id="11000_voltage_line">
	<SimpleField name="Description" type="string"></SimpleField>
	<SimpleField name="full_id" type="string"></SimpleField>
	<SimpleField name="osm_id" type="string"></SimpleField>
	<SimpleField name="osm_type" type="string"></SimpleField>
	<SimpleField name="power" type="string"></SimpleField>
	<SimpleField name="floating" type="string"></SimpleField>
	<SimpleField name="site" type="string"></SimpleField>
	<SimpleField name="level" type="string"></SimpleField>
	<SimpleField name="generator_" type="string"></SimpleField>
	<SimpleField name="layer" type="string"></SimpleField>
	<SimpleField name="width" type="string"></SimpleField>
	<SimpleField name="colour" type="string"></SimpleField>
	<SimpleField name="operator_w" type="string"></SimpleField>
	<SimpleField name="operator_s" type="string"></SimpleField>
	<SimpleField name="ref" type="string"></SimpleField>
	<SimpleField name="plant_type" type="string"></SimpleField>
	<SimpleField name="wikipedia" type="string"></SimpleField>
	<SimpleField name="wikidata" type="string"></SimpleField>
	<SimpleField name="plant_sour" type="string"></SimpleField>
	<SimpleField name="plant_outp" type="string"></SimpleField>
	<SimpleField name="plant_meth" type="string"></SimpleField>
	<SimpleField name="wires" type="string"></SimpleField>
	<SimpleField name="line" type="string"></SimpleField>
	<SimpleField name="generato_1" type="string"></SimpleField>
	<SimpleField name="generato_2" type="string"></SimpleField>
	<SimpleField name="generato_3" type="string"></SimpleField>
	<SimpleField name="generato_4" type="string"></SimpleField>
	<SimpleField name="operator" type="string"></SimpleField>
	<SimpleField name="barrier" type="string"></SimpleField>
	<SimpleField name="location" type="string"></SimpleField>
	<SimpleField name="frequency" type="string"></SimpleField>
	<SimpleField name="circuits" type="string"></SimpleField>
	<SimpleField name="cables" type="string"></SimpleField>
	<SimpleField name="substation" type="string"></SimpleField>
	<SimpleField name="voltage" type="string"></SimpleField>
</Schema>
<Folder><name>11000_voltage_line</name>
  <Placemark>
	<Style><LineStyle><color>ff0000ff</color></LineStyle><PolyStyle><fill>0</fill></PolyStyle></Style>
	<ExtendedData><SchemaData schemaUrl="#11000_voltage_line">
		<SimpleData name="full_id">w1351233476</SimpleData>
		<SimpleData name="osm_id">1351233476</SimpleData>
		<SimpleData name="osm_type">way</SimpleData>
		<SimpleData name="power">line</SimpleData>
		<SimpleData name="cables">3</SimpleData>
		<SimpleData name="voltage">11000</SimpleData>
	</SchemaData></ExtendedData>
      <LineString><coordinates>69.5498078,22.8240252 69.5498129,22.8241984 69.5497847,22.824586</coordinates></LineString>
  </Placemark>
  <Placemark>
	<Style><LineStyle><color>ff0000ff</color></LineStyle><PolyStyle><fill>0</fill></PolyStyle></Style>
	<ExtendedData><SchemaData schemaUrl="#11000_voltage_line">
		<SimpleData name="full_id">w1355027076</SimpleData>
		<SimpleData name="osm_id">1355027076</SimpleData>
		<SimpleData name="osm_type">way</SimpleData>
		<SimpleData name="power">line</SimpleData>
		<SimpleData name="cables">3</SimpleData>
		<SimpleData name="voltage">11000</SimpleData>
	</SchemaData></ExtendedData>
      <LineString><coordinates>72.6757703,23.2494217 72.6760738,23.2494934</coordinates></LineString>
  </Placemark>
  <Placemark>
	<Style><LineStyle><color>ff0000ff</color></LineStyle><PolyStyle><fill>0</fill></PolyStyle></Style>
	<ExtendedData><SchemaData schemaUrl="#11000_voltage_line">
		<SimpleData name="full_id">w1351233477</SimpleData>
		<SimpleData name="osm_id">1351233477</SimpleData>
		<SimpleData name="osm_type">way</SimpleData>
		<SimpleData name="power">line</SimpleData>
		<SimpleData name="cables">3</SimpleData>
		<SimpleData name="voltage">11000</SimpleData>
	</SchemaData></ExtendedData>
      <LineString><coordinates>69.5505053,22.8240301 69.5505053,22.8242036 69.5505143,22.8245909</coordinates></LineString>
  </Placemark>
  <Placemark>
	<Style><LineStyle><color>ff0000ff</color></LineStyle><PolyStyle><fill>0</fill></PolyStyle></Style>
	<ExtendedData><SchemaData schemaUrl="#11000_voltage_line">
		<SimpleData name="full_id">w1355027077</SimpleData>
		<SimpleData name="osm_id">1355027077</SimpleData>
		<SimpleData name="osm_type">way</SimpleData>
		<SimpleData name="power">line</SimpleData>
		<SimpleData name="cables">3</SimpleData>
		<SimpleData name="voltage">11000</SimpleData>
	</SchemaData></ExtendedData>
      <LineString><coordinates>72.6759874,23.2487737 72.676283,23.2488478</coordinates></LineString>
  </Placemark>
  <Placemark>
	<Style><LineStyle><color>ff0000ff</color></LineStyle><PolyStyle><fill>0</fill></PolyStyle></Style>
	<ExtendedData><SchemaData schemaUrl="#11000_voltage_line">
		<SimpleData name="full_id">w1351233478</SimpleData>
		<SimpleData name="osm_id">1351233478</SimpleData>
		<SimpleData name="osm_type">way</SimpleData>
		<SimpleData name="power">line</SimpleData>
		<SimpleData name="cables">3</SimpleData>
		<SimpleData name="voltage">11000</SimpleData>
	</SchemaData></ExtendedData>
      <LineString><coordinates>69.550736,22.8240326 69.550725,22.8242065 69.5507127,22.8245761</coordinates></LineString>
  </Placemark>
  <Placemark>
	<Style><LineStyle><color>ff0000ff</color></LineStyle><PolyStyle><fill>0</fill></PolyStyle></Style>
	<ExtendedData><SchemaData schemaUrl="#11000_voltage_line">
		<SimpleData name="full_id">w1355027078</SimpleData>
		<SimpleData name="osm_id">1355027078</SimpleData>
		<SimpleData name="osm_type">way</SimpleData>
		<SimpleData name="power">line</SimpleData>
		<SimpleData name="cables">3</SimpleData>
		<SimpleData name="voltage">11000</SimpleData>
	</SchemaData></ExtendedData>
      <LineString><coordinates>72.6761986,23.2481434 72.6765029,23.2482218</coordinates></LineString>
  </Placemark>
  <Placemark>
	<Style><LineStyle><color>ff0000ff</color></LineStyle><PolyStyle><fill>0</fill></PolyStyle></Style>
	<ExtendedData><SchemaData schemaUrl="#11000_voltage_line">
		<SimpleData name="full_id">w1351233479</SimpleData>
		<SimpleData name="osm_id">1351233479</SimpleData>
		<SimpleData name="osm_type">way</SimpleData>
		<SimpleData name="power">line</SimpleData>
		<SimpleData name="cables">3</SimpleData>
		<SimpleData name="voltage">11000</SimpleData>
	</SchemaData></ExtendedData>
      <LineString><coordinates>69.5510149,22.8240347 69.5509987,22.8242087 69.5510078,22.8246008</coordinates></LineString>
  </Placemark>
  <Placemark>
	<Style><LineStyle><color>ff0000ff</color></LineStyle><PolyStyle><fill>0</fill></PolyStyle></Style>
	<ExtendedData><SchemaData schemaUrl="#11000_voltage_line">
		<SimpleData name="full_id">w1355027079</SimpleData>
		<SimpleData name="osm_id">1355027079</SimpleData>
		<SimpleData name="osm_type">way</SimpleData>
		<SimpleData name="power">line</SimpleData>
		<SimpleData name="cables">3</SimpleData>
		<SimpleData name="voltage">11000</SimpleData>
	</SchemaData></ExtendedData>
      <LineString><coordinates>72.6755583,23.2495085 72.6757262,23.2495533</coordinates></LineString>
  </Placemark>
  <Placemark>
	<Style><LineStyle><color>ff0000ff</color></LineStyle><PolyStyle><fill>0</fill></PolyStyle></Style>
	<ExtendedData><SchemaData schemaUrl="#11000_voltage_line">
		<SimpleData name="full_id">w1378894854</SimpleData>
		<SimpleData name="osm_id">1378894854</SimpleData>
		<SimpleData name="osm_type">way</SimpleData>
		<SimpleData name="power">line</SimpleData>
		<SimpleData name="cables">3</SimpleData>
		<SimpleData name="voltage">11000</SimpleData>
	</SchemaData></ExtendedData>
      <LineString><coordinates>72.9787958,21.7805592 72.9789206,21.780568 72.9790426,21.7805766 72.9791838,21.7805853 72.979324,21.7805939 72.9794673,21.7806038 72.9796081,21.7806135</coordinates></LineString>
  </Placemark>
  <Placemark>
	<Style><LineStyle><color>ff0000ff</color></LineStyle><PolyStyle><fill>0</fill></PolyStyle></Style>
	<ExtendedData><SchemaData schemaUrl="#11000_voltage_line">
		<SimpleData name="full_id">w1351233480</SimpleData>
		<SimpleData name="osm_id">1351233480</SimpleData>
		<SimpleData name="osm_type">way</SimpleData>
		<SimpleData name="power">line</SimpleData>
		<SimpleData name="cables">3</SimpleData>
		<SimpleData name="voltage">11000</SimpleData>
	</SchemaData></ExtendedData>
      <LineString><coordinates>69.5514279,22.8240359 69.5514279,22.8242086 69.5514155,22.8245662</coordinates></LineString>
  </Placemark>
  <Placemark>
	<Style><LineStyle><color>ff0000ff</color></LineStyle><PolyStyle><fill>0</fill></PolyStyle></Style>
	<ExtendedData><SchemaData schemaUrl="#11000_voltage_line">
		<SimpleData name="full_id">w1351233481</SimpleData>
		<SimpleData name="osm_id">1351233481</SimpleData>
		<SimpleData name="osm_type">way</SimpleData>
		<SimpleData name="power">line</SimpleData>
		<SimpleData name="cables">3</SimpleData>
		<SimpleData name="voltage">11000</SimpleData>
	</SchemaData></ExtendedData>
      <LineString><coordinates>69.552415,22.8240336 69.5523774,22.8242084 69.5523542,22.8245959</coordinates></LineString>
  </Placemark>
  <Placemark>
	<Style><LineStyle><color>ff0000ff</color></LineStyle><PolyStyle><fill>0</fill></PolyStyle></Style>
	<ExtendedData><SchemaData schemaUrl="#11000_voltage_line">
		<SimpleData name="full_id">w1378894855</SimpleData>
		<SimpleData name="osm_id">1378894855</SimpleData>
		<SimpleData name="osm_type">way</SimpleData>
		<SimpleData name="power">line</SimpleData>
		<SimpleData name="cables">3</SimpleData>
		<SimpleData name="voltage">11000</SimpleData>
	</SchemaData></ExtendedData>
      <LineString><coordinates>72.9794673,21.7806038 72.979468,21.7806602 72.9794518,21.7807509</coordinates></LineString>
  </Placemark>
  <Placemark>
	<Style><LineStyle><color>ff0000ff</color></LineStyle><PolyStyle><fill>0</fill></PolyStyle></Style>
	<ExtendedData><SchemaData schemaUrl="#11000_voltage_line">
		<SimpleData name="full_id">w1355027080</SimpleData>
		<SimpleData name="osm_id">1355027080</SimpleData>
		<SimpleData name="osm_type">way</SimpleData>
		<SimpleData name="power">line</SimpleData>
		<SimpleData name="cables">3</SimpleData>
		<SimpleData name="voltage">11000</SimpleData>
	</SchemaData></ExtendedData>
      <LineString><coordinates>72.6757407,23.2487987 72.6759589,23.2488589</coordinates></LineString>
  </Placemark>
  <Placemark>
	<Style><LineStyle><color>ff0000ff</color></LineStyle><PolyStyle><fill>0</fill></PolyStyle></Style>
	<ExtendedData><SchemaData schemaUrl="#11000_voltage_line">
		<SimpleData name="full_id">w1351233482</SimpleData>
		<SimpleData name="osm_id">1351233482</SimpleData>
		<SimpleData name="osm_type">way</SimpleData>
		<SimpleData name="power">line</SimpleData>
		<SimpleData name="cables">3</SimpleData>
		<SimpleData name="voltage">11000</SimpleData>
	</SchemaData></ExtendedData>
      <LineString><coordinates>69.5534234,22.8240301 69.5534342,22.8242064 69.5534486,22.8245563</coordinates></LineString>
  </Placemark>
  <Placemark>
	<Style><LineStyle><color>ff0000ff</color></LineStyle><PolyStyle><fill>0</fill></PolyStyle></Style>
	<ExtendedData><SchemaData schemaUrl="#11000_voltage_line">
		<SimpleData name="full_id">w1378894856</SimpleData>
		<SimpleData name="osm_id">1378894856</SimpleData>
		<SimpleData name="osm_type">way</SimpleData>
		<SimpleData name="power">line</SimpleData>
		<SimpleData name="cables">3</SimpleData>
		<SimpleData name="voltage">11000</SimpleData>
	</SchemaData></ExtendedData>
      <LineString><coordinates>72.9791838,21.7805853 72.9791834,21.7806416 72.9791755,21.7807484</coordinates></LineString>
  </Placemark>
  <Placemark>
	<Style><LineStyle><color>ff0000ff</color></LineStyle><PolyStyle><fill>0</fill></PolyStyle></Style>
	<ExtendedData><SchemaData schemaUrl="#11000_voltage_line">
		<SimpleData name="full_id">w1355027081</SimpleData>
		<SimpleData name="osm_id">1355027081</SimpleData>
		<SimpleData name="osm_type">way</SimpleData>
		<SimpleData name="power">line</SimpleData>
		<SimpleData name="cables">3</SimpleData>
		<SimpleData name="voltage">11000</SimpleData>
	</SchemaData></ExtendedData>
      <LineString><coordinates>72.6759553,23.2481777 72.6761682,23.2482341</coordinates></LineString>
  </Placemark>
  <Placemark>
	<Style><LineStyle><color>ff0000ff</color></LineStyle><PolyStyle><fill>0</fill></PolyStyle></Style>
	<ExtendedData><SchemaData schemaUrl="#11000_voltage_line">
		<SimpleData name="full_id">w1351233483</SimpleData>
		<SimpleData name="osm_id">1351233483</SimpleData>
		<SimpleData name="osm_type">way</SimpleData>
		<SimpleData name="power">line</SimpleData>
		<SimpleData name="cables">3</SimpleData>
		<SimpleData name="voltage">11000</SimpleData>
	</SchemaData></ExtendedData>
      <LineString><coordinates>69.5544642,22.8240268 69.5544534,22.8242086 69.5545322,22.8245464</coordinates></LineString>
  </Placemark>
  <Placemark>
	<Style><LineStyle><color>ff0000ff</color></LineStyle><PolyStyle><fill>0</fill></PolyStyle></Style>
	<ExtendedData><SchemaData schemaUrl="#11000_voltage_line">
		<SimpleData name="full_id">w1378894857</SimpleData>
		<SimpleData name="osm_id">1378894857</SimpleData>
		<SimpleData name="osm_type">way</SimpleData>
		<SimpleData name="power">line</SimpleData>
		<SimpleData name="cables">3</SimpleData>
		<SimpleData name="voltage">11000</SimpleData>
	</SchemaData></ExtendedData>
      <LineString><coordinates>72.9789206,21.780568 72.9789177,21.7806238 72.9789127,21.780736</coordinates></LineString>
  </Placemark>
  <Placemark>
	<Style><LineStyle><color>ff0000ff</color></LineStyle><PolyStyle><fill>0</fill></PolyStyle></Style>
	<ExtendedData><SchemaData schemaUrl="#11000_voltage_line">
		<SimpleData name="full_id">w1351233470</SimpleData>
		<SimpleData name="osm_id">1351233470</SimpleData>
		<SimpleData name="osm_type">way</SimpleData>
		<SimpleData name="power">line</SimpleData>
		<SimpleData name="cables">6</SimpleData>
		<SimpleData name="voltage">11000</SimpleData>
	</SchemaData></ExtendedData>
      <LineString><coordinates>69.5490017,22.8240299 69.5495826,22.8240265 69.5498078,22.8240252 69.5499619,22.8240243 69.5505053,22.8240301 69.550736,22.8240326 69.5508975,22.8240344 69.5510149,22.8240347 69.5514279,22.8240359 69.551847,22.8240371 69.552415,22.8240336 69.552633,22.8240322</coordinates></LineString>
  </Placemark>
  <Placemark>
	<Style><LineStyle><color>ff0000ff</color></LineStyle><PolyStyle><fill>0</fill></PolyStyle></Style>
	<ExtendedData><SchemaData schemaUrl="#11000_voltage_line">
		<SimpleData name="full_id">w1351233471</SimpleData>
		<SimpleData name="osm_id">1351233471</SimpleData>
		<SimpleData name="osm_type">way</SimpleData>
		<SimpleData name="power">line</SimpleData>
		<SimpleData name="cables">6</SimpleData>
		<SimpleData name="voltage">11000</SimpleData>
	</SchemaData></ExtendedData>
      <LineString><coordinates>69.5530514,22.8240318 69.5534234,22.8240301 69.5537896,22.8240285 69.5539263,22.8240279 69.5541523,22.8240268 69.5544642,22.8240268 69.5551361,22.8240268</coordinates></LineString>
  </Placemark>
  <Placemark>
	<Style><LineStyle><color>ff0000ff</color></LineStyle><PolyStyle><fill>0</fill></PolyStyle></Style>
	<ExtendedData><SchemaData schemaUrl="#11000_voltage_line">
		<SimpleData name="full_id">w1351233472</SimpleData>
		<SimpleData name="osm_id">1351233472</SimpleData>
		<SimpleData name="osm_type">way</SimpleData>
		<SimpleData name="power">line</SimpleData>
		<SimpleData name="cables">6</SimpleData>
		<SimpleData name="voltage">11000</SimpleData>
	</SchemaData></ExtendedData>
      <LineString><coordinates>69.555568,22.8240367 69.5558482,22.8240354 69.5560735,22.8240344 69.5563149,22.8240333 69.5566553,22.8240318 69.5569157,22.8240318 69.5576025,22.8240318 69.5578384,22.824033 69.5585308,22.8240367</coordinates></LineString>
  </Placemark>
  <Placemark>
	<Style><LineStyle><color>ff0000ff</color></LineStyle><PolyStyle><fill>0</fill></PolyStyle></Style>
	<ExtendedData><SchemaData schemaUrl="#11000_voltage_line">
		<SimpleData name="full_id">w1351233473</SimpleData>
		<SimpleData name="osm_id">1351233473</SimpleData>
		<SimpleData name="osm_type">way</SimpleData>
		<SimpleData name="power">line</SimpleData>
		<SimpleData name="layer">-1</SimpleData>
		<SimpleData name="cables">6</SimpleData>
		<SimpleData name="voltage">11000</SimpleData>
	</SchemaData></ExtendedData>
      <LineString><coordinates>69.552633,22.8240322 69.5530514,22.8240318</coordinates></LineString>
  </Placemark>
  <Placemark>
	<Style><LineStyle><color>ff0000ff</color></LineStyle><PolyStyle><fill>0</fill></PolyStyle></Style>
	<ExtendedData><SchemaData schemaUrl="#11000_voltage_line">
		<SimpleData name="full_id">w1351233474</SimpleData>
		<SimpleData name="osm_id">1351233474</SimpleData>
		<SimpleData name="osm_type">way</SimpleData>
		<SimpleData name="power">line</SimpleData>
		<SimpleData name="layer">-1</SimpleData>
		<SimpleData name="cables">6</SimpleData>
		<SimpleData name="voltage">11000</SimpleData>
	</SchemaData></ExtendedData>
      <LineString><coordinates>69.5551361,22.8240268 69.555568,22.8240367</coordinates></LineString>
  </Placemark>
  <Placemark>
	<Style><LineStyle><color>ff0000ff</color></LineStyle><PolyStyle><fill>0</fill></PolyStyle></Style>
	<ExtendedData><SchemaData schemaUrl="#11000_voltage_line">
		<SimpleData name="full_id">w1351233475</SimpleData>
		<SimpleData name="osm_id">1351233475</SimpleData>
		<SimpleData name="osm_type">way</SimpleData>
		<SimpleData name="power">line</SimpleData>
		<SimpleData name="cables">3</SimpleData>
		<SimpleData name="voltage">11000</SimpleData>
	</SchemaData></ExtendedData>
      <LineString><coordinates>69.5495826,22.8240265 69.5495769,22.8242015 69.5496077,22.8246008</coordinates></LineString>
  </Placemark>
  <Placemark>
	<Style><LineStyle><color>ff0000ff</color></LineStyle><PolyStyle><fill>0</fill></PolyStyle></Style>
	<ExtendedData><SchemaData schemaUrl="#11000_voltage_line">
		<SimpleData name="full_id">w1355027075</SimpleData>
		<SimpleData name="osm_id">1355027075</SimpleData>
		<SimpleData name="osm_type">way</SimpleData>
		<SimpleData name="power">line</SimpleData>
		<SimpleData name="cables">6</SimpleData>
		<SimpleData name="voltage">11000</SimpleData>
	</SchemaData></ExtendedData>
      <LineString><coordinates>72.6756124,23.2498927 72.6757262,23.2495533 72.6757703,23.2494217 72.6759589,23.2488589 72.6759874,23.2487737 72.6761682,23.2482341 72.6761986,23.2481434 72.6762401,23.2480197</coordinates></LineString>
  </Placemark>
  <Placemark>
	<Style><LineStyle><color>ff0000ff</color></LineStyle><PolyStyle><fill>0</fill></PolyStyle></Style>
	<ExtendedData><SchemaData schemaUrl="#11000_voltage_line">
		<SimpleData name="full_id">w1351215357</SimpleData>
		<SimpleData name="osm_id">1351215357</SimpleData>
		<SimpleData name="osm_type">way</SimpleData>
		<SimpleData name="power">line</SimpleData>
		<SimpleData name="voltage">11000</SimpleData>
	</SchemaData></ExtendedData>
      <LineString><coordinates>73.3573648,22.8738805 73.357321,22.8739133 73.357185,22.8740194</coordinates></LineString>
  </Placemark>
  <Placemark>
	<Style><LineStyle><color>ff0000ff</color></LineStyle><PolyStyle><fill>0</fill></PolyStyle></Style>
	<ExtendedData><SchemaData schemaUrl="#11000_voltage_line">
		<SimpleData name="full_id">w1351215358</SimpleData>
		<SimpleData name="osm_id">1351215358</SimpleData>
		<SimpleData name="osm_type">way</SimpleData>
		<SimpleData name="power">line</SimpleData>
		<SimpleData name="voltage">11000</SimpleData>
	</SchemaData></ExtendedData>
      <LineString><coordinates>73.3586893,22.8753672 73.3586508,22.8754 73.3584671,22.8755399</coordinates></LineString>
  </Placemark>
  <Placemark>
	<Style><LineStyle><color>ff0000ff</color></LineStyle><PolyStyle><fill>0</fill></PolyStyle></Style>
	<ExtendedData><SchemaData schemaUrl="#11000_voltage_line">
		<SimpleData name="full_id">w1351215359</SimpleData>
		<SimpleData name="osm_id">1351215359</SimpleData>
		<SimpleData name="osm_type">way</SimpleData>
		<SimpleData name="power">line</SimpleData>
		<SimpleData name="voltage">11000</SimpleData>
	</SchemaData></ExtendedData>
      <LineString><coordinates>73.3582685,22.8748949 73.3582313,22.874931 73.3580486,22.8750703</coordinates></LineString>
  </Placemark>
  <Placemark>
	<Style><LineStyle><color>ff0000ff</color></LineStyle><PolyStyle><fill>0</fill></PolyStyle></Style>
	<ExtendedData><SchemaData schemaUrl="#11000_voltage_line">
		<SimpleData name="full_id">w1351215347</SimpleData>
		<SimpleData name="osm_id">1351215347</SimpleData>
		<SimpleData name="osm_type">way</SimpleData>
		<SimpleData name="power">line</SimpleData>
		<SimpleData name="voltage">11000</SimpleData>
	</SchemaData></ExtendedData>
      <LineString><coordinates>73.3573852,22.8737065 73.3572854,22.8737914</coordinates></LineString>
  </Placemark>
  <Placemark>
	<Style><LineStyle><color>ff0000ff</color></LineStyle><PolyStyle><fill>0</fill></PolyStyle></Style>
	<ExtendedData><SchemaData schemaUrl="#11000_voltage_line">
		<SimpleData name="full_id">w1351215348</SimpleData>
		<SimpleData name="osm_id">1351215348</SimpleData>
		<SimpleData name="osm_type">way</SimpleData>
		<SimpleData name="power">line</SimpleData>
		<SimpleData name="voltage">11000</SimpleData>
	</SchemaData></ExtendedData>
      <LineString><coordinates>73.3578902,22.8742696 73.3577824,22.8743493</coordinates></LineString>
  </Placemark>
  <Placemark>
	<Style><LineStyle><color>ff0000ff</color></LineStyle><PolyStyle><fill>0</fill></PolyStyle></Style>
	<ExtendedData><SchemaData schemaUrl="#11000_voltage_line">
		<SimpleData name="full_id">w1351215349</SimpleData>
		<SimpleData name="osm_id">1351215349</SimpleData>
		<SimpleData name="osm_type">way</SimpleData>
		<SimpleData name="power">line</SimpleData>
		<SimpleData name="voltage">11000</SimpleData>
	</SchemaData></ExtendedData>
      <LineString><coordinates>73.3582618,22.8746913 73.3581567,22.8747695</coordinates></LineString>
  </Placemark>
  <Placemark>
	<Style><LineStyle><color>ff0000ff</color></LineStyle><PolyStyle><fill>0</fill></PolyStyle></Style>
	<ExtendedData><SchemaData schemaUrl="#11000_voltage_line">
		<SimpleData name="full_id">w1351215350</SimpleData>
		<SimpleData name="osm_id">1351215350</SimpleData>
		<SimpleData name="osm_type">way</SimpleData>
		<SimpleData name="power">line</SimpleData>
		<SimpleData name="voltage">11000</SimpleData>
	</SchemaData></ExtendedData>
      <LineString><coordinates>73.3585875,22.8750473 73.3584801,22.8751324</coordinates></LineString>
  </Placemark>
  <Placemark>
	<Style><LineStyle><color>ff0000ff</color></LineStyle><PolyStyle><fill>0</fill></PolyStyle></Style>
	<ExtendedData><SchemaData schemaUrl="#11000_voltage_line">
		<SimpleData name="full_id">w1351215351</SimpleData>
		<SimpleData name="osm_id">1351215351</SimpleData>
		<SimpleData name="osm_type">way</SimpleData>
		<SimpleData name="power">line</SimpleData>
		<SimpleData name="voltage">11000</SimpleData>
	</SchemaData></ExtendedData>
      <LineString><coordinates>73.3591247,22.8756464 73.3590147,22.8757324</coordinates></LineString>
  </Placemark>
  <Placemark>
	<Style><LineStyle><color>ff0000ff</color></LineStyle><PolyStyle><fill>0</fill></PolyStyle></Style>
	<ExtendedData><SchemaData schemaUrl="#11000_voltage_line">
		<SimpleData name="full_id">w1351215352</SimpleData>
		<SimpleData name="osm_id">1351215352</SimpleData>
		<SimpleData name="osm_type">way</SimpleData>
		<SimpleData name="power">line</SimpleData>
		<SimpleData name="voltage">11000</SimpleData>
	</SchemaData></ExtendedData>
      <LineString><coordinates>73.3591188,22.8758494 73.3590818,22.8758819 73.3589284,22.8760013</coordinates></LineString>
  </Placemark>
  <Placemark>
	<Style><LineStyle><color>ff0000ff</color></LineStyle><PolyStyle><fill>0</fill></PolyStyle></Style>
	<ExtendedData><SchemaData schemaUrl="#11000_voltage_line">
		<SimpleData name="full_id">w1351215355</SimpleData>
		<SimpleData name="osm_id">1351215355</SimpleData>
		<SimpleData name="osm_type">way</SimpleData>
		<SimpleData name="power">line</SimpleData>
		<SimpleData name="voltage">11000</SimpleData>
	</SchemaData></ExtendedData>
      <LineString><coordinates>73.356525,22.8729379 73.3564812,22.8729744 73.3563454,22.8730828</coordinates></LineString>
  </Placemark>
  <Placemark>
	<Style><LineStyle><color>ff0000ff</color></LineStyle><PolyStyle><fill>0</fill></PolyStyle></Style>
	<ExtendedData><SchemaData schemaUrl="#11000_voltage_line">
		<SimpleData name="full_id">w1351215356</SimpleData>
		<SimpleData name="osm_id">1351215356</SimpleData>
		<SimpleData name="osm_type">way</SimpleData>
		<SimpleData name="power">line</SimpleData>
		<SimpleData name="voltage">11000</SimpleData>
	</SchemaData></ExtendedData>
      <LineString><coordinates>73.3569464,22.8734109 73.3569021,22.873445 73.3567612,22.8735548</coordinates></LineString>
  </Placemark>
  <Placemark>
	<Style><LineStyle><color>ff0000ff</color></LineStyle><PolyStyle><fill>0</fill></PolyStyle></Style>
	<ExtendedData><SchemaData schemaUrl="#11000_voltage_line">
		<SimpleData name="full_id">w1354439083</SimpleData>
		<SimpleData name="osm_id">1354439083</SimpleData>
		<SimpleData name="osm_type">way</SimpleData>
		<SimpleData name="power">line</SimpleData>
		<SimpleData name="cables">3</SimpleData>
		<SimpleData name="voltage">11000</SimpleData>
	</SchemaData></ExtendedData>
      <LineString><coordinates>73.3551573,21.2392675 73.3550794,21.2393594</coordinates></LineString>
  </Placemark>
  <Placemark>
	<Style><LineStyle><color>ff0000ff</color></LineStyle><PolyStyle><fill>0</fill></PolyStyle></Style>
	<ExtendedData><SchemaData schemaUrl="#11000_voltage_line">
		<SimpleData name="full_id">w1354439084</SimpleData>
		<SimpleData name="osm_id">1354439084</SimpleData>
		<SimpleData name="osm_type">way</SimpleData>
		<SimpleData name="power">line</SimpleData>
		<SimpleData name="cables">6</SimpleData>
		<SimpleData name="voltage">11000</SimpleData>
	</SchemaData></ExtendedData>
      <LineString><coordinates>73.3554534,21.2389177 73.3553307,21.2390627</coordinates></LineString>
  </Placemark>
  <Placemark>
	<Style><LineStyle><color>ff0000ff</color></LineStyle><PolyStyle><fill>0</fill></PolyStyle></Style>
	<ExtendedData><SchemaData schemaUrl="#11000_voltage_line">
		<SimpleData name="full_id">w1379138307</SimpleData>
		<SimpleData name="osm_id">1379138307</SimpleData>
		<SimpleData name="osm_type">way</SimpleData>
		<SimpleData name="power">line</SimpleData>
		<SimpleData name="cables">3</SimpleData>
		<SimpleData name="voltage">11000</SimpleData>
	</SchemaData></ExtendedData>
      <LineString><coordinates>69.7105042,22.3038027 69.7106162,22.3036374 69.7111239,22.3029515</coordinates></LineString>
  </Placemark>
  <Placemark>
	<Style><LineStyle><color>ff0000ff</color></LineStyle><PolyStyle><fill>0</fill></PolyStyle></Style>
	<ExtendedData><SchemaData schemaUrl="#11000_voltage_line">
		<SimpleData name="full_id">w1379138308</SimpleData>
		<SimpleData name="osm_id">1379138308</SimpleData>
		<SimpleData name="osm_type">way</SimpleData>
		<SimpleData name="power">line</SimpleData>
		<SimpleData name="cables">3</SimpleData>
		<SimpleData name="voltage">11000</SimpleData>
	</SchemaData></ExtendedData>
      <LineString><coordinates>69.7114661,22.3043984 69.7115987,22.3042442 69.7121109,22.303557</coordinates></LineString>
  </Placemark>
  <Placemark>
	<Style><LineStyle><color>ff0000ff</color></LineStyle><PolyStyle><fill>0</fill></PolyStyle></Style>
	<ExtendedData><SchemaData schemaUrl="#11000_voltage_line">
		<SimpleData name="full_id">w1379138309</SimpleData>
		<SimpleData name="osm_id">1379138309</SimpleData>
		<SimpleData name="osm_type">way</SimpleData>
		<SimpleData name="power">line</SimpleData>
		<SimpleData name="cables">6</SimpleData>
		<SimpleData name="voltage">11000</SimpleData>
	</SchemaData></ExtendedData>
      <LineString><coordinates>69.7097931,22.3033624 69.7105042,22.3038027 69.7105611,22.303838 69.7114661,22.3043984 69.711528,22.3044367 69.7118085,22.3046104</coordinates></LineString>
  </Placemark>
  <Placemark>
	<Style><LineStyle><color>ff0000ff</color></LineStyle><PolyStyle><fill>0</fill></PolyStyle></Style>
	<ExtendedData><SchemaData schemaUrl="#11000_voltage_line">
		<SimpleData name="full_id">w1379138310</SimpleData>
		<SimpleData name="osm_id">1379138310</SimpleData>
		<SimpleData name="osm_type">way</SimpleData>
		<SimpleData name="power">line</SimpleData>
		<SimpleData name="cables">3</SimpleData>
		<SimpleData name="voltage">11000</SimpleData>
	</SchemaData></ExtendedData>
      <LineString><coordinates>69.7112024,22.3049195 69.7112544,22.3048237 69.7113353,22.3047138 69.7114099,22.3045955 69.7114493,22.3045408 69.711528,22.3044367</coordinates></LineString>
  </Placemark>
  <Placemark>
	<Style><LineStyle><color>ff0000ff</color></LineStyle><PolyStyle><fill>0</fill></PolyStyle></Style>
	<ExtendedData><SchemaData schemaUrl="#11000_voltage_line">
		<SimpleData name="full_id">w1379138311</SimpleData>
		<SimpleData name="osm_id">1379138311</SimpleData>
		<SimpleData name="osm_type">way</SimpleData>
		<SimpleData name="power">line</SimpleData>
		<SimpleData name="cables">3</SimpleData>
		<SimpleData name="voltage">11000</SimpleData>
	</SchemaData></ExtendedData>
      <LineString><coordinates>69.7102207,22.3043388 69.7102864,22.3042339 69.7103612,22.3041228 69.7104418,22.3040081 69.7104854,22.3039455 69.7105611,22.303838</coordinates></LineString>
  </Placemark>
  <Placemark>
	<Style><LineStyle><color>ff0000ff</color></LineStyle><PolyStyle><fill>0</fill></PolyStyle></Style>
	<ExtendedData><SchemaData schemaUrl="#11000_voltage_line">
		<SimpleData name="full_id">w1354439075</SimpleData>
		<SimpleData name="osm_id">1354439075</SimpleData>
		<SimpleData name="osm_type">way</SimpleData>
		<SimpleData name="power">line</SimpleData>
		<SimpleData name="cables">6</SimpleData>
		<SimpleData name="voltage">11000</SimpleData>
	</SchemaData></ExtendedData>
      <LineString><coordinates>73.3553307,21.2390627 73.3548445,21.2387288</coordinates></LineString>
  </Placemark>
  <Placemark>
	<Style><LineStyle><color>ff0000ff</color></LineStyle><PolyStyle><fill>0</fill></PolyStyle></Style>
	<ExtendedData><SchemaData schemaUrl="#11000_voltage_line">
		<SimpleData name="full_id">w1354439076</SimpleData>
		<SimpleData name="osm_id">1354439076</SimpleData>
		<SimpleData name="osm_type">way</SimpleData>
		<SimpleData name="power">line</SimpleData>
		<SimpleData name="cables">3</SimpleData>
		<SimpleData name="voltage">11000</SimpleData>
	</SchemaData></ExtendedData>
      <LineString><coordinates>73.3551573,21.2392675 73.3549024,21.2390944 73.3548327,21.2392094</coordinates></LineString>
  </Placemark>
  <Placemark>
	<Style><LineStyle><color>ff0000ff</color></LineStyle><PolyStyle><fill>0</fill></PolyStyle></Style>
	<ExtendedData><SchemaData schemaUrl="#11000_voltage_line">
		<SimpleData name="full_id">w1354439077</SimpleData>
		<SimpleData name="osm_id">1354439077</SimpleData>
		<SimpleData name="osm_type">way</SimpleData>
		<SimpleData name="power">line</SimpleData>
		<SimpleData name="cables">3</SimpleData>
		<SimpleData name="voltage">11000</SimpleData>
	</SchemaData></ExtendedData>
      <LineString><coordinates>73.3548445,21.2387288 73.3547763,21.2388069</coordinates></LineString>
  </Placemark>
  <Placemark>
	<Style><LineStyle><color>ff0000ff</color></LineStyle><PolyStyle><fill>0</fill></PolyStyle></Style>
	<ExtendedData><SchemaData schemaUrl="#11000_voltage_line">
		<SimpleData name="full_id">w1354439082</SimpleData>
		<SimpleData name="osm_id">1354439082</SimpleData>
		<SimpleData name="osm_type">way</SimpleData>
		<SimpleData name="power">line</SimpleData>
		<SimpleData name="cables">3</SimpleData>
		<SimpleData name="voltage">11000</SimpleData>
	</SchemaData></ExtendedData>
      <LineString><coordinates>73.3548445,21.2387288 73.3547361,21.2386544 73.3546664,21.2387444</coordinates></LineString>
  </Placemark>
  <Placemark>
	<Style><LineStyle><color>ff0000ff</color></LineStyle><PolyStyle><fill>0</fill></PolyStyle></Style>
	<ExtendedData><SchemaData schemaUrl="#11000_voltage_line">
		<SimpleData name="full_id">w1354439070</SimpleData>
		<SimpleData name="osm_id">1354439070</SimpleData>
		<SimpleData name="osm_type">way</SimpleData>
		<SimpleData name="power">line</SimpleData>
		<SimpleData name="cables">3</SimpleData>
		<SimpleData name="voltage">11000</SimpleData>
	</SchemaData></ExtendedData>
      <LineString><coordinates>73.3494781,21.2370254 73.3493717,21.2371494</coordinates></LineString>
  </Placemark>
  <Placemark>
	<Style><LineStyle><color>ff0000ff</color></LineStyle><PolyStyle><fill>0</fill></PolyStyle></Style>
	<ExtendedData><SchemaData schemaUrl="#11000_voltage_line">
		<SimpleData name="full_id">w1354439071</SimpleData>
		<SimpleData name="osm_id">1354439071</SimpleData>
		<SimpleData name="osm_type">way</SimpleData>
		<SimpleData name="power">line</SimpleData>
		<SimpleData name="cables">3</SimpleData>
		<SimpleData name="voltage">11000</SimpleData>
	</SchemaData></ExtendedData>
      <LineString><coordinates>73.3503397,21.2376214 73.3502407,21.2377244</coordinates></LineString>
  </Placemark>
  <Placemark>
	<Style><LineStyle><color>ff0000ff</color></LineStyle><PolyStyle><fill>0</fill></PolyStyle></Style>
	<ExtendedData><SchemaData schemaUrl="#11000_voltage_line">
		<SimpleData name="full_id">w1378750293</SimpleData>
		<SimpleData name="osm_id">1378750293</SimpleData>
		<SimpleData name="osm_type">way</SimpleData>
		<SimpleData name="power">line</SimpleData>
		<SimpleData name="cables">3</SimpleData>
		<SimpleData name="voltage">11000</SimpleData>
	</SchemaData></ExtendedData>
      <LineString><coordinates>72.6126069,21.7050241 72.6123069,21.7050246 72.6123069,21.7051741 72.6120386,21.7051791</coordinates></LineString>
  </Placemark>
  <Placemark>
	<Style><LineStyle><color>ff0000ff</color></LineStyle><PolyStyle><fill>0</fill></PolyStyle></Style>
	<ExtendedData><SchemaData schemaUrl="#11000_voltage_line">
		<SimpleData name="full_id">w1378750294</SimpleData>
		<SimpleData name="osm_id">1378750294</SimpleData>
		<SimpleData name="osm_type">way</SimpleData>
		<SimpleData name="power">line</SimpleData>
		<SimpleData name="cables">3</SimpleData>
		<SimpleData name="voltage">11000</SimpleData>
	</SchemaData></ExtendedData>
      <LineString><coordinates>72.6126311,21.7057166 72.612323,21.7057224 72.6123176,21.7058669 72.6120386,21.7058669</coordinates></LineString>
  </Placemark>
  <Placemark>
	<Style><LineStyle><color>ff0000ff</color></LineStyle><PolyStyle><fill>0</fill></PolyStyle></Style>
	<ExtendedData><SchemaData schemaUrl="#11000_voltage_line">
		<SimpleData name="full_id">w1354439074</SimpleData>
		<SimpleData name="osm_id">1354439074</SimpleData>
		<SimpleData name="osm_type">way</SimpleData>
		<SimpleData name="power">line</SimpleData>
		<SimpleData name="cables">6</SimpleData>
		<SimpleData name="voltage">11000</SimpleData>
	</SchemaData></ExtendedData>
      <LineString><coordinates>73.3553307,21.2390627 73.3551573,21.2392675</coordinates></LineString>
  </Placemark>
  <Placemark>
	<Style><LineStyle><color>ff0000ff</color></LineStyle><PolyStyle><fill>0</fill></PolyStyle></Style>
	<ExtendedData><SchemaData schemaUrl="#11000_voltage_line">
		<SimpleData name="full_id">w1378750295</SimpleData>
		<SimpleData name="osm_id">1378750295</SimpleData>
		<SimpleData name="osm_type">way</SimpleData>
		<SimpleData name="power">line</SimpleData>
		<SimpleData name="cables">3</SimpleData>
		<SimpleData name="voltage">11000</SimpleData>
	</SchemaData></ExtendedData>
      <LineString><coordinates>72.6126552,21.7064047 72.6123498,21.7064052 72.6123525,21.7065497 72.6120547,21.7065547</coordinates></LineString>
  </Placemark>
  <Placemark>
	<Style><LineStyle><color>ff0000ff</color></LineStyle><PolyStyle><fill>0</fill></PolyStyle></Style>
	<ExtendedData><SchemaData schemaUrl="#11000_voltage_line">
		<SimpleData name="full_id">w1354997409</SimpleData>
		<SimpleData name="osm_id">1354997409</SimpleData>
		<SimpleData name="osm_type">way</SimpleData>
		<SimpleData name="power">line</SimpleData>
		<SimpleData name="cables">3</SimpleData>
		<SimpleData name="voltage">11000</SimpleData>
	</SchemaData></ExtendedData>
      <LineString><coordinates>73.5594625,21.2111752 73.5600397,21.2115001 73.5602186,21.2116008 73.5602886,21.2116403</coordinates></LineString>
  </Placemark>
  <Placemark>
	<Style><LineStyle><color>ff0000ff</color></LineStyle><PolyStyle><fill>0</fill></PolyStyle></Style>
	<ExtendedData><SchemaData schemaUrl="#11000_voltage_line">
		<SimpleData name="full_id">w1354997410</SimpleData>
		<SimpleData name="osm_id">1354997410</SimpleData>
		<SimpleData name="osm_type">way</SimpleData>
		<SimpleData name="power">line</SimpleData>
		<SimpleData name="cables">3</SimpleData>
		<SimpleData name="voltage">11000</SimpleData>
	</SchemaData></ExtendedData>
      <LineString><coordinates>73.5600972,21.2114146 73.5600397,21.2115001</coordinates></LineString>
  </Placemark>
  <Placemark>
	<Style><LineStyle><color>ff0000ff</color></LineStyle><PolyStyle><fill>0</fill></PolyStyle></Style>
	<ExtendedData><SchemaData schemaUrl="#11000_voltage_line">
		<SimpleData name="full_id">w1354997412</SimpleData>
		<SimpleData name="osm_id">1354997412</SimpleData>
		<SimpleData name="osm_type">way</SimpleData>
		<SimpleData name="power">line</SimpleData>
		<SimpleData name="cables">3</SimpleData>
		<SimpleData name="voltage">11000</SimpleData>
	</SchemaData></ExtendedData>
      <LineString><coordinates>73.5602186,21.2116008 73.5601733,21.2116726 73.5600794,21.2118203</coordinates></LineString>
  </Placemark>
  <Placemark>
	<Style><LineStyle><color>ff0000ff</color></LineStyle><PolyStyle><fill>0</fill></PolyStyle></Style>
	<ExtendedData><SchemaData schemaUrl="#11000_voltage_line">
		<SimpleData name="full_id">w1443360203</SimpleData>
		<SimpleData name="osm_id">1443360203</SimpleData>
		<SimpleData name="osm_type">way</SimpleData>
		<SimpleData name="power">line</SimpleData>
		<SimpleData name="cables">3</SimpleData>
		<SimpleData name="voltage">11000</SimpleData>
	</SchemaData></ExtendedData>
      <LineString><coordinates>73.1138595,21.8240036 73.113783,21.8239768 73.1137256,21.8239566 73.1135189,21.8238692</coordinates></LineString>
  </Placemark>
  <Placemark>
	<Style><LineStyle><color>ff0000ff</color></LineStyle><PolyStyle><fill>0</fill></PolyStyle></Style>
	<ExtendedData><SchemaData schemaUrl="#11000_voltage_line">
		<SimpleData name="full_id">w1354997401</SimpleData>
		<SimpleData name="osm_id">1354997401</SimpleData>
		<SimpleData name="osm_type">way</SimpleData>
		<SimpleData name="power">line</SimpleData>
		<SimpleData name="cables">3</SimpleData>
		<SimpleData name="voltage">11000</SimpleData>
	</SchemaData></ExtendedData>
      <LineString><coordinates>73.5565551,21.2107866 73.556498,21.2108771 73.5564343,21.2109776</coordinates></LineString>
  </Placemark>
  <Placemark>
	<Style><LineStyle><color>ff0000ff</color></LineStyle><PolyStyle><fill>0</fill></PolyStyle></Style>
	<ExtendedData><SchemaData schemaUrl="#11000_voltage_line">
		<SimpleData name="full_id">w1354997402</SimpleData>
		<SimpleData name="osm_id">1354997402</SimpleData>
		<SimpleData name="osm_type">way</SimpleData>
		<SimpleData name="power">line</SimpleData>
		<SimpleData name="cables">3</SimpleData>
		<SimpleData name="voltage">11000</SimpleData>
	</SchemaData></ExtendedData>
      <LineString><coordinates>73.555916,21.2104245 73.5558563,21.2105129 73.5557986,21.2106076</coordinates></LineString>
  </Placemark>
  <Placemark>
	<Style><LineStyle><color>ff0000ff</color></LineStyle><PolyStyle><fill>0</fill></PolyStyle></Style>
	<ExtendedData><SchemaData schemaUrl="#11000_voltage_line">
		<SimpleData name="full_id">w1443358667</SimpleData>
		<SimpleData name="osm_id">1443358667</SimpleData>
		<SimpleData name="osm_type">way</SimpleData>
		<SimpleData name="power">line</SimpleData>
		<SimpleData name="cables">3</SimpleData>
		<SimpleData name="voltage">11000</SimpleData>
	</SchemaData></ExtendedData>
      <LineString><coordinates>73.3562703,21.2378179 73.3563914,21.2376658 73.3566069,21.2373595 73.3564567,21.2372445</coordinates></LineString>
  </Placemark>
  <Placemark>
	<Style><LineStyle><color>ff0000ff</color></LineStyle><PolyStyle><fill>0</fill></PolyStyle></Style>
	<ExtendedData><SchemaData schemaUrl="#11000_voltage_line">
		<SimpleData name="full_id">w1443358668</SimpleData>
		<SimpleData name="osm_id">1443358668</SimpleData>
		<SimpleData name="osm_type">way</SimpleData>
		<SimpleData name="power">line</SimpleData>
		<SimpleData name="cables">3</SimpleData>
		<SimpleData name="voltage">11000</SimpleData>
	</SchemaData></ExtendedData>
      <LineString><coordinates>73.3558446,21.2373081 73.3559632,21.2371495</coordinates></LineString>
  </Placemark>
  <Placemark>
	<Style><LineStyle><color>ff0000ff</color></LineStyle><PolyStyle><fill>0</fill></PolyStyle></Style>
	<ExtendedData><SchemaData schemaUrl="#11000_voltage_line">
		<SimpleData name="full_id">w1351215343</SimpleData>
		<SimpleData name="osm_id">1351215343</SimpleData>
		<SimpleData name="osm_type">way</SimpleData>
		<SimpleData name="power">line</SimpleData>
		<SimpleData name="voltage">11000</SimpleData>
	</SchemaData></ExtendedData>
      <LineString><coordinates>73.3562435,22.8726219 73.356447,22.8728503 73.356525,22.8729379 73.3569155,22.8733761 73.3569464,22.8734109 73.3572854,22.8737914 73.3573648,22.8738805 73.3577824,22.8743493 73.3581567,22.8747695 73.3582685,22.8748949 73.3584801,22.8751324 73.3586893,22.8753672 73.3590147,22.8757324 73.3591188,22.8758494</coordinates></LineString>
  </Placemark>
  <Placemark>
	<Style><LineStyle><color>ff0000ff</color></LineStyle><PolyStyle><fill>0</fill></PolyStyle></Style>
	<ExtendedData><SchemaData schemaUrl="#11000_voltage_line">
		<SimpleData name="full_id">w1351215345</SimpleData>
		<SimpleData name="osm_id">1351215345</SimpleData>
		<SimpleData name="osm_type">way</SimpleData>
		<SimpleData name="power">line</SimpleData>
		<SimpleData name="voltage">11000</SimpleData>
	</SchemaData></ExtendedData>
      <LineString><coordinates>73.3565497,22.8727747 73.356447,22.8728503</coordinates></LineString>
  </Placemark>
  <Placemark>
	<Style><LineStyle><color>ff0000ff</color></LineStyle><PolyStyle><fill>0</fill></PolyStyle></Style>
	<ExtendedData><SchemaData schemaUrl="#11000_voltage_line">
		<SimpleData name="full_id">w1351215346</SimpleData>
		<SimpleData name="osm_id">1351215346</SimpleData>
		<SimpleData name="osm_type">way</SimpleData>
		<SimpleData name="power">line</SimpleData>
		<SimpleData name="voltage">11000</SimpleData>
	</SchemaData></ExtendedData>
      <LineString><coordinates>73.3570178,22.8732967 73.3569155,22.8733761</coordinates></LineString>
  </Placemark>
  <Placemark>
	<Style><LineStyle><color>ff0000ff</color></LineStyle><PolyStyle><fill>0</fill></PolyStyle></Style>
	<ExtendedData><SchemaData schemaUrl="#11000_voltage_line">
		<SimpleData name="full_id">w1443360200</SimpleData>
		<SimpleData name="osm_id">1443360200</SimpleData>
		<SimpleData name="osm_type">way</SimpleData>
		<SimpleData name="power">line</SimpleData>
		<SimpleData name="cables">6</SimpleData>
		<SimpleData name="voltage">11000</SimpleData>
	</SchemaData></ExtendedData>
      <LineString><coordinates>73.1135779,21.8244767 73.113641,21.8243229 73.1137103,21.824154 73.113783,21.8239768 73.1138769,21.8237481</coordinates></LineString>
  </Placemark>
  <Placemark>
	<Style><LineStyle><color>ff0000ff</color></LineStyle><PolyStyle><fill>0</fill></PolyStyle></Style>
	<ExtendedData><SchemaData schemaUrl="#11000_voltage_line">
		<SimpleData name="full_id">w1354997396</SimpleData>
		<SimpleData name="osm_id">1354997396</SimpleData>
		<SimpleData name="osm_type">way</SimpleData>
		<SimpleData name="power">line</SimpleData>
		<SimpleData name="cables">6</SimpleData>
		<SimpleData name="voltage">11000</SimpleData>
	</SchemaData></ExtendedData>
      <LineString><coordinates>73.5553963,21.21013 73.5557855,21.2103505 73.555916,21.2104245 73.5564489,21.2107265 73.5565551,21.2107866 73.5570378,21.2110602 73.5571644,21.2111319 73.5573114,21.2112152</coordinates></LineString>
  </Placemark>
  <Placemark>
	<Style><LineStyle><color>ff0000ff</color></LineStyle><PolyStyle><fill>0</fill></PolyStyle></Style>
	<ExtendedData><SchemaData schemaUrl="#11000_voltage_line">
		<SimpleData name="full_id">w1351233484</SimpleData>
		<SimpleData name="osm_id">1351233484</SimpleData>
		<SimpleData name="osm_type">way</SimpleData>
		<SimpleData name="power">line</SimpleData>
		<SimpleData name="cables">3</SimpleData>
		<SimpleData name="voltage">11000</SimpleData>
	</SchemaData></ExtendedData>
      <LineString><coordinates>69.5578384,22.824033 69.5578437,22.8241893 69.557842,22.8245415</coordinates></LineString>
  </Placemark>
  <Placemark>
	<Style><LineStyle><color>ff0000ff</color></LineStyle><PolyStyle><fill>0</fill></PolyStyle></Style>
	<ExtendedData><SchemaData schemaUrl="#11000_voltage_line">
		<SimpleData name="full_id">w1443360201</SimpleData>
		<SimpleData name="osm_id">1443360201</SimpleData>
		<SimpleData name="osm_type">way</SimpleData>
		<SimpleData name="power">line</SimpleData>
		<SimpleData name="cables">3</SimpleData>
		<SimpleData name="voltage">11000</SimpleData>
	</SchemaData></ExtendedData>
      <LineString><coordinates>73.1137173,21.8243522 73.113641,21.8243229 73.1135832,21.824302 73.1133794,21.8242302</coordinates></LineString>
  </Placemark>
  <Placemark>
	<Style><LineStyle><color>ff0000ff</color></LineStyle><PolyStyle><fill>0</fill></PolyStyle></Style>
	<ExtendedData><SchemaData schemaUrl="#11000_voltage_line">
		<SimpleData name="full_id">w1354997397</SimpleData>
		<SimpleData name="osm_id">1354997397</SimpleData>
		<SimpleData name="osm_type">way</SimpleData>
		<SimpleData name="power">line</SimpleData>
		<SimpleData name="cables">3</SimpleData>
		<SimpleData name="voltage">11000</SimpleData>
	</SchemaData></ExtendedData>
      <LineString><coordinates>73.5571039,21.2109545 73.5570378,21.2110602</coordinates></LineString>
  </Placemark>
  <Placemark>
	<Style><LineStyle><color>ff0000ff</color></LineStyle><PolyStyle><fill>0</fill></PolyStyle></Style>
	<ExtendedData><SchemaData schemaUrl="#11000_voltage_line">
		<SimpleData name="full_id">w1351233485</SimpleData>
		<SimpleData name="osm_id">1351233485</SimpleData>
		<SimpleData name="osm_type">way</SimpleData>
		<SimpleData name="power">line</SimpleData>
		<SimpleData name="cables">3</SimpleData>
		<SimpleData name="voltage">11000</SimpleData>
	</SchemaData></ExtendedData>
      <LineString><coordinates>69.5569157,22.8240318 69.5569157,22.8241916 69.5569157,22.8244562 69.5568604,22.8245365</coordinates></LineString>
  </Placemark>
  <Placemark>
	<Style><LineStyle><color>ff0000ff</color></LineStyle><PolyStyle><fill>0</fill></PolyStyle></Style>
	<ExtendedData><SchemaData schemaUrl="#11000_voltage_line">
		<SimpleData name="full_id">w1443360202</SimpleData>
		<SimpleData name="osm_id">1443360202</SimpleData>
		<SimpleData name="osm_type">way</SimpleData>
		<SimpleData name="power">line</SimpleData>
		<SimpleData name="cables">3</SimpleData>
		<SimpleData name="voltage">11000</SimpleData>
	</SchemaData></ExtendedData>
      <LineString><coordinates>73.113779,21.8241804 73.1137103,21.824154 73.1136515,21.8241364 73.1134303,21.8240584</coordinates></LineString>
  </Placemark>
  <Placemark>
	<Style><LineStyle><color>ff0000ff</color></LineStyle><PolyStyle><fill>0</fill></PolyStyle></Style>
	<ExtendedData><SchemaData schemaUrl="#11000_voltage_line">
		<SimpleData name="full_id">w1354997398</SimpleData>
		<SimpleData name="osm_id">1354997398</SimpleData>
		<SimpleData name="osm_type">way</SimpleData>
		<SimpleData name="power">line</SimpleData>
		<SimpleData name="cables">3</SimpleData>
		<SimpleData name="voltage">11000</SimpleData>
	</SchemaData></ExtendedData>
      <LineString><coordinates>73.5565191,21.2106144 73.5564489,21.2107265</coordinates></LineString>
  </Placemark>
  <Placemark>
	<Style><LineStyle><color>ff0000ff</color></LineStyle><PolyStyle><fill>0</fill></PolyStyle></Style>
	<ExtendedData><SchemaData schemaUrl="#11000_voltage_line">
		<SimpleData name="full_id">w1351233486</SimpleData>
		<SimpleData name="osm_id">1351233486</SimpleData>
		<SimpleData name="osm_type">way</SimpleData>
		<SimpleData name="power">line</SimpleData>
		<SimpleData name="cables">3</SimpleData>
		<SimpleData name="voltage">11000</SimpleData>
	</SchemaData></ExtendedData>
      <LineString><coordinates>69.5563149,22.8240333 69.5563149,22.8241919 69.5563346,22.8245612</coordinates></LineString>
  </Placemark>
  <Placemark>
	<Style><LineStyle><color>ff0000ff</color></LineStyle><PolyStyle><fill>0</fill></PolyStyle></Style>
	<ExtendedData><SchemaData schemaUrl="#11000_voltage_line">
		<SimpleData name="full_id">w1354997399</SimpleData>
		<SimpleData name="osm_id">1354997399</SimpleData>
		<SimpleData name="osm_type">way</SimpleData>
		<SimpleData name="power">line</SimpleData>
		<SimpleData name="cables">3</SimpleData>
		<SimpleData name="voltage">11000</SimpleData>
	</SchemaData></ExtendedData>
      <LineString><coordinates>73.5558486,21.2102494 73.5557855,21.2103505</coordinates></LineString>
  </Placemark>
  <Placemark>
	<Style><LineStyle><color>ff0000ff</color></LineStyle><PolyStyle><fill>0</fill></PolyStyle></Style>
	<ExtendedData><SchemaData schemaUrl="#11000_voltage_line">
		<SimpleData name="full_id">w1351233487</SimpleData>
		<SimpleData name="osm_id">1351233487</SimpleData>
		<SimpleData name="osm_type">way</SimpleData>
		<SimpleData name="power">line</SimpleData>
		<SimpleData name="cables">3</SimpleData>
		<SimpleData name="voltage">11000</SimpleData>
	</SchemaData></ExtendedData>
      <LineString><coordinates>69.5560735,22.8240344 69.5560681,22.8241915 69.5560718,22.8245514</coordinates></LineString>
  </Placemark>
  <Placemark>
	<Style><LineStyle><color>ff0000ff</color></LineStyle><PolyStyle><fill>0</fill></PolyStyle></Style>
	<ExtendedData><SchemaData schemaUrl="#11000_voltage_line">
		<SimpleData name="full_id">w1354997400</SimpleData>
		<SimpleData name="osm_id">1354997400</SimpleData>
		<SimpleData name="osm_type">way</SimpleData>
		<SimpleData name="power">line</SimpleData>
		<SimpleData name="cables">3</SimpleData>
		<SimpleData name="voltage">11000</SimpleData>
	</SchemaData></ExtendedData>
      <LineString><coordinates>73.5571644,21.2111319 73.557103,21.2112205 73.5570298,21.2113327</coordinates></LineString>
  </Placemark>
  <Placemark>
	<Style><LineStyle><color>ff0000ff</color></LineStyle><PolyStyle><fill>0</fill></PolyStyle></Style>
	<ExtendedData><SchemaData schemaUrl="#11000_voltage_line">
		<SimpleData name="full_id">w1351233488</SimpleData>
		<SimpleData name="osm_id">1351233488</SimpleData>
		<SimpleData name="osm_type">way</SimpleData>
		<SimpleData name="power">line</SimpleData>
		<SimpleData name="cables">3</SimpleData>
		<SimpleData name="voltage">11000</SimpleData>
	</SchemaData></ExtendedData>
      <LineString><coordinates>69.5558482,22.8240354 69.5558482,22.8241911 69.5558374,22.824471 69.5557446,22.8245563</coordinates></LineString>
  </Placemark>
</Folder>
</Document></kml>
