<?xml version="1.0" encoding="utf-8" ?>
<kml xmlns="http://www.opengis.net/kml/2.2">
<Document id="root_doc">
<Schema name="500000_voltage_line" id="500000_voltage_line">
	<SimpleField name="Description" type="string"></SimpleField>
	<SimpleField name="full_id" type="string"></SimpleField>
	<SimpleField name="osm_id" type="string"></SimpleField>
	<SimpleField name="osm_type" type="string"></SimpleField>
	<SimpleField name="power" type="string"></SimpleField>
	<SimpleField name="floating" type="string"></SimpleField>
	<SimpleField name="site" type="string"></SimpleField>
	<SimpleField name="level" type="string"></SimpleField>
	<SimpleField name="generator_" type="string"></SimpleField>
	<SimpleField name="layer" type="string"></SimpleField>
	<SimpleField name="width" type="string"></SimpleField>
	<SimpleField name="colour" type="string"></SimpleField>
	<SimpleField name="operator_w" type="string"></SimpleField>
	<SimpleField name="operator_s" type="string"></SimpleField>
	<SimpleField name="ref" type="string"></SimpleField>
	<SimpleField name="plant_type" type="string"></SimpleField>
	<SimpleField name="wikipedia" type="string"></SimpleField>
	<SimpleField name="wikidata" type="string"></SimpleField>
	<SimpleField name="plant_sour" type="string"></SimpleField>
	<SimpleField name="plant_outp" type="string"></SimpleField>
	<SimpleField name="plant_meth" type="string"></SimpleField>
	<SimpleField name="wires" type="string"></SimpleField>
	<SimpleField name="line" type="string"></SimpleField>
	<SimpleField name="generato_1" type="string"></SimpleField>
	<SimpleField name="generato_2" type="string"></SimpleField>
	<SimpleField name="generato_3" type="string"></SimpleField>
	<SimpleField name="generato_4" type="string"></SimpleField>
	<SimpleField name="operator" type="string"></SimpleField>
	<SimpleField name="barrier" type="string"></SimpleField>
	<SimpleField name="location" type="string"></SimpleField>
	<SimpleField name="frequency" type="string"></SimpleField>
	<SimpleField name="circuits" type="string"></SimpleField>
	<SimpleField name="cables" type="string"></SimpleField>
	<SimpleField name="substation" type="string"></SimpleField>
	<SimpleField name="voltage" type="string"></SimpleField>
</Schema>
<Folder><name>500000_voltage_line</name>
  <Placemark>
	<Style><LineStyle><color>ff0000ff</color></LineStyle><PolyStyle><fill>0</fill></PolyStyle></Style>
	<ExtendedData><SchemaData schemaUrl="#500000_voltage_line">
		<SimpleData name="full_id">w1351229727</SimpleData>
		<SimpleData name="osm_id">1351229727</SimpleData>
		<SimpleData name="osm_type">way</SimpleData>
		<SimpleData name="power">line</SimpleData>
		<SimpleData name="cables">1</SimpleData>
		<SimpleData name="voltage">500000</SimpleData>
	</SchemaData></ExtendedData>
      <LineString><coordinates>69.5565775,22.8297167 69.5565801,22.8296158 69.5565797,22.8295569</coordinates></LineString>
  </Placemark>
  <Placemark>
	<name>Mundra - Mahendragarh HVDC line</name>
	<Style><LineStyle><color>ff0000ff</color></LineStyle><PolyStyle><fill>0</fill></PolyStyle></Style>
	<ExtendedData><SchemaData schemaUrl="#500000_voltage_line">
		<SimpleData name="full_id">w1351229712</SimpleData>
		<SimpleData name="osm_id">1351229712</SimpleData>
		<SimpleData name="osm_type">way</SimpleData>
		<SimpleData name="power">line</SimpleData>
		<SimpleData name="wires">quad</SimpleData>
		<SimpleData name="operator">Adani</SimpleData>
		<SimpleData name="frequency">0</SimpleData>
		<SimpleData name="cables">1</SimpleData>
		<SimpleData name="voltage">500000</SimpleData>
	</SchemaData></ExtendedData>
      <LineString><coordinates>69.5557906,22.8297092 69.5557878,22.8298146 69.5557771,22.8301828 69.5557771,22.8303124 69.5557391,22.8308101 69.5557211,22.8310298</coordinates></LineString>
  </Placemark>
  <Placemark>
	<Style><LineStyle><color>ff0000ff</color></LineStyle><PolyStyle><fill>0</fill></PolyStyle></Style>
	<ExtendedData><SchemaData schemaUrl="#500000_voltage_line">
		<SimpleData name="full_id">w1351229721</SimpleData>
		<SimpleData name="osm_id">1351229721</SimpleData>
		<SimpleData name="osm_type">way</SimpleData>
		<SimpleData name="power">line</SimpleData>
		<SimpleData name="cables">1</SimpleData>
		<SimpleData name="voltage">500000</SimpleData>
	</SchemaData></ExtendedData>
      <LineString><coordinates>69.5556556,22.8295545 69.5556986,22.8296087 69.5557906,22.8297092</coordinates></LineString>
  </Placemark>
  <Placemark>
	<name>Mundra - Mahendragarh HVDC line</name>
	<Style><LineStyle><color>ff0000ff</color></LineStyle><PolyStyle><fill>0</fill></PolyStyle></Style>
	<ExtendedData><SchemaData schemaUrl="#500000_voltage_line">
		<SimpleData name="full_id">w728805460</SimpleData>
		<SimpleData name="osm_id">728805460</SimpleData>
		<SimpleData name="osm_type">way</SimpleData>
		<SimpleData name="power">line</SimpleData>
		<SimpleData name="wires">quad</SimpleData>
		<SimpleData name="operator">Adani</SimpleData>
		<SimpleData name="frequency">0</SimpleData>
		<SimpleData name="cables">2</SimpleData>
		<SimpleData name="voltage">500000</SimpleData>
	</SchemaData></ExtendedData>
      <LineString><coordinates>69.5557211,22.8310298 69.5552023,22.8321768 69.5550575,22.8348229 69.5548692,22.8378063 69.5562973,22.8392852 69.5582333,22.8412984 69.5603639,22.8435713 69.5604117,22.8453142 69.5602467,22.8465164 69.5596469,22.8476392 69.5587809,22.8504444 69.5580761,22.8526761 69.5571502,22.8541719 69.5560443,22.8564416 69.555122,22.858345 69.5538662,22.8608736 69.552689,22.8633055 69.5524244,22.865941 69.5501407,22.8685362 69.5494922,22.8714092 69.5496502,22.8746421 69.5479616,22.8762911 69.5487536,22.8799998 69.5493987,22.8829626 69.5494413,22.884686 69.5479764,22.88788 69.5463284,22.8913776 69.5450892,22.8940483 69.5453578,22.8965636 69.5455491,22.899435 69.5456264,22.9010768 69.5463181,22.9033184 69.5475508,22.9073132 69.5498339,22.9107201 69.5515699,22.9133107 69.5540087,22.9177154 69.5570373,22.9204607 69.5593945,22.9227554 69.5600519,22.9260856 69.5623052,22.9276432 69.5650885,22.9292985 69.5681985,22.9310015 69.5709068,22.932581 69.5725169,22.9351438 69.5726525,22.9368361 69.573672,22.9393222 69.5747338,22.941898 69.5757869,22.9444736 69.5777855,22.9471346 69.5799762,22.9500754 69.5821026,22.9529521 69.5842902,22.9558609 69.5865129,22.9588261 69.5888012,22.9619684 69.5906082,22.9643171 69.5929752,22.9674674 69.5951191,22.9703518 69.5972456,22.9732441 69.6001726,22.9748997 69.6030822,22.9766198 69.60646,22.9773006 69.6089145,22.9779088 69.6111372,22.9791052 69.6139636,22.9797618 69.6178314,22.98066 69.6212516,22.9814154 69.6250903,22.9822958 69.62884,22.9831559 69.6326392,22.9840503 69.6356526,22.9847338 69.6387835,22.985463 69.6419578,22.9861465 69.6452125,22.9868301 69.6479041,22.9886928 69.65067,22.9905212 69.6538566,22.9926117 69.656672,22.99448 69.6595987,22.9963995 69.6626121,22.9983817 69.6656935,23.0004777 69.668676,23.0024143 69.6718007,23.0023402 69.6749379,23.0022947 69.6787866,23.0027389 69.681899,23.0042369 69.6851431,23.0057501 69.6879213,23.0071056 69.6906748,23.0084326 69.6918629,23.01009 69.693614,23.012613 69.6954208,23.015079 69.6967202,23.0169242 69.695625,23.0198286 69.6944741,23.0229722 69.6932056,23.0265143 69.6928962,23.029988 69.6926425,23.0330629 69.6923455,23.0366446 69.6920237,23.0396796 69.6917577,23.0422761 69.6914792,23.0457664 69.6911884,23.0489891 69.69091,23.0522288 69.6906748,23.054398 69.6929395,23.056106 69.6958265,23.0584032 69.6987055,23.0606174 69.7015669,23.0628556 69.7043934,23.0650335 69.7064673,23.0666759 69.708388,23.0681492 69.7122908,23.06763 69.7158481,23.0671507 69.719471,23.0667009 69.7227535,23.0662341 69.7260175,23.0658185 69.7275458,23.0669742 69.7297641,23.0690692 69.7332168,23.0702931 69.7364282,23.0709165 69.7400665,23.0716138 69.7433738,23.0722429 69.7453291,23.0746252 69.7467739,23.0764013 69.7491376,23.0792817 69.7510805,23.0816383 69.7527017,23.0836249 69.7543971,23.0856855 69.7561544,23.0878399 69.7565504,23.0907258 69.7568598,23.0930537 69.7572867,23.0955638 69.757627,23.0977636 69.7580323,23.1002025 69.7584778,23.1030169 69.7609467,23.1043743 69.7641673,23.1061244 69.7671602,23.1077458 69.7695272,23.1090014 69.7719118,23.1109048 69.7738063,23.1124179 69.7759064,23.1140276 69.7779234,23.1156372 69.7806668,23.1175204 69.783502,23.1195324 69.7861972,23.1213955 69.7888945,23.1232105 69.7918955,23.1252705 69.7955957,23.1254526 69.7986338,23.1254127 69.8021979,23.1253388 69.8061085,23.1251567 69.810019,23.1249973 69.8133696,23.1250002 69.8151795,23.1251367 69.8187971,23.1251505 69.8200309,23.1247602 69.8229755,23.123547 69.8262031,23.1221239 69.8292133,23.1208009 69.8320417,23.1195603 69.8346484,23.1184344 69.838466,23.1177152 69.8422604,23.1170446 69.844877,23.1170628 69.8477476,23.1170264 69.8505291,23.1171296 69.8531325,23.1182584 69.8551155,23.1191658 69.8556533,23.1219757 69.8563278,23.1252043 69.8569298,23.1281824 69.8575224,23.1310489 69.8580683,23.1338553 69.8594449,23.1369491 69.8603922,23.1403432 69.8621187,23.1427075 69.8641532,23.1456423 69.866267,23.1485471 69.8679748,23.1510313 69.8707933,23.1519752 69.8732571,23.1528462 69.8764115,23.1540217 69.8795705,23.1551287 69.8822161,23.1560914 69.8857779,23.1574305 69.8895605,23.1588778 69.8929755,23.1602171 69.8963691,23.1615319 69.9000349,23.1628859 69.9033699,23.1641172 69.9066168,23.1653136 69.9103333,23.1666829 69.9136203,23.1685569 69.9167898,23.1703817 69.9200127,23.1721968 69.9234757,23.1740952 69.9247244,23.1766264 69.92545,23.1785002 69.9259249,23.1804132 69.9266613,23.1831552 69.9277373,23.1851321 69.9301295,23.186679 69.9327405,23.188323 69.9350647,23.1898629 69.9375172,23.1914999 69.9400301,23.1931854 69.9426712,23.1948432 69.9451841,23.1965287 69.9476668,23.1981795 69.9500665,23.1997539 69.952451,23.2012452 69.954896,23.2028543 69.9575481,23.204626 69.9600722,23.2054778 69.9633596,23.2066102 69.966865,23.2078177 69.9705231,23.2091154 69.9739086,23.2102779 69.9772943,23.2114157 69.9809353,23.2127423 69.9842559,23.2139004 69.9877177,23.2150678 69.9911577,23.2162903 69.9947504,23.2175579 69.9982995,23.2187603 70.0012325,23.2197724 70.0041382,23.2217764 70.0072893,23.2239758 70.0103641,23.2261551 70.013357,23.2282542 70.0165854,23.2304584 70.0195433,23.2325344 70.0225943,23.2346745 70.0257462,23.2368575 70.0288128,23.2390118 70.0318949,23.2411447 70.0350934,23.2433704 70.0381367,23.2454747 70.0412576,23.2476717 70.0442854,23.2497831 70.0473519,23.2519158 70.0503952,23.2540914 70.0535316,23.2562597 70.0567845,23.2584565 70.0596725,23.2605392 70.0627624,23.2626361 70.065829,23.2647758 70.0686781,23.2667871 70.0718301,23.2689124 70.0745163,23.2715156 70.0772723,23.2742185 70.0800749,23.276843 70.0826601,23.2793176 70.0852298,23.2807296 70.0883274,23.2823769 70.0919607,23.2835179 70.0956251,23.2845947 70.0992584,23.2857143 70.102915,23.2868339 70.1066026,23.2879249 70.1097235,23.2888591 70.113054,23.2905705 70.1163457,23.2922462 70.1196374,23.2939932 70.1227583,23.2955905 70.126283,23.2974016 70.1296057,23.2991272 70.1328897,23.3007886 70.1361969,23.3024713 70.1394187,23.3041683 70.1426017,23.3058296 70.1458624,23.3074623 70.1491774,23.3092377 70.152407,23.310906 70.1557996,23.3126243 70.1585944,23.3140645 70.1620958,23.3137864 70.1658688,23.3134656 70.1696185,23.3127954 70.1728481,23.3121823 70.1766289,23.3114693 70.1804641,23.3109203 70.1831502,23.3104996 70.1867292,23.3099578 70.1905643,23.3094302 70.1942442,23.3088812 70.1979707,23.3083322 70.2013711,23.3078331 70.2050432,23.307883 70.2087852,23.3079828 70.2125194,23.3088598 70.2162769,23.3097082 70.2195764,23.3104854 70.223101,23.3112697 70.226152,23.3124247 70.2294592,23.3136153 70.2328208,23.3148701 70.2362212,23.3161606 70.2398545,23.3175437 70.2433015,23.3188412 70.2466786,23.3201173 70.2493725,23.3211154 70.2534405,23.3226125 70.2563829,23.3249366 70.2593796,23.3273248 70.2616155,23.3291213 70.2639057,23.3308892 70.2662037,23.3327355 70.2686259,23.3346744 70.2709782,23.3365492 70.2729967,23.3392294 70.2748133,23.3416031 70.2767464,23.3442334 70.2773364,23.3462862 70.2806514,23.3477474 70.2839587,23.349287 70.2874367,23.3509121 70.2906508,23.352359 70.2942452,23.3539555 70.2973506,23.3553952 70.3006967,23.3569632 70.3040971,23.3585455 70.3073888,23.3600137 70.3107659,23.3615175 70.3139877,23.3630355 70.3173338,23.3645322 70.320672,23.3660716 70.3239094,23.3675397 70.3272632,23.3691004 70.3309431,23.3701551 70.3346618,23.3712811 70.3383339,23.3722931 70.3419672,23.3733621 70.3453916,23.3743326 70.3492423,23.3754799 70.352961,23.3765132 70.3566642,23.3775679 70.360344,23.3786297 70.3641016,23.3796914 70.367797,23.3807603 70.3715234,23.3818506 70.3752033,23.3829195 70.3785416,23.3838601 70.3820118,23.3844159 70.3858625,23.3850145 70.3892474,23.385556 70.3928884,23.3861332 70.396382,23.3866962 70.4001473,23.3872805 70.4039669,23.3878933 70.4078098,23.3884989 70.4116682,23.3891331 70.4155655,23.3897317 70.4194006,23.3903231 70.4232435,23.3909074 70.4269234,23.391513 70.430875,23.3921472 70.4346713,23.392703 70.4383124,23.3932587 70.4421864,23.3938287 70.4459283,23.3943988 70.4498023,23.3949545 70.4535055,23.3955388 70.4567428,23.3960732 70.4596619,23.3961159 70.4632564,23.3962371 70.4670993,23.3964508 70.4709189,23.3966361 70.4747385,23.3968498 70.4781622,23.3974911 70.4811356,23.3980825 70.4828232,23.4001442 70.4846291,23.4028697 70.4866864,23.4058906 70.4885108,23.4087689 70.4904827,23.4118181 70.492509,23.4148602 70.4944964,23.4179093 70.4964451,23.4208728 70.4984325,23.4238861 70.5002802,23.4268282 70.5035797,23.4279751 70.5064599,23.429008 70.5098215,23.4301904 70.5132219,23.4314299 70.5161254,23.4323986 70.5193317,23.4335526 70.5226807,23.4347486 70.5256615,23.435766 70.5289333,23.4369345 70.5321941,23.4380879 70.5351311,23.4391254 70.5387652,23.4403846 70.5421907,23.4415984 70.5459675,23.4429028 70.5479712,23.4452196 70.5505568,23.4471133 70.5540372,23.4472895 70.5577152,23.446111 70.5596586,23.4458894 70.562881,23.4464233 70.5666029,23.4470176 70.570506,23.4476824 70.5744091,23.4484277 70.5776974,23.4488961 70.5811448,23.4495206 70.5849711,23.4502156 70.5885283,23.4507796 70.5923052,23.4514293 70.596071,23.4520689 70.5996228,23.4526682 70.6033173,23.4532725 70.6060346,23.4544258 70.6094327,23.4558308 70.6126166,23.4571502 70.6162727,23.4587265 70.6198849,23.4601466 70.6234421,23.461612 70.6270607,23.4630669 70.6306086,23.4645339 70.634141,23.4659867 70.637588,23.4673611 70.6407555,23.4687284 70.6440239,23.4700957 70.6472923,23.4713775 70.6505472,23.4727672 70.653177,23.4749593 70.6555992,23.4768179 70.6584872,23.4791891 70.661251,23.4814819 70.6640225,23.4837533 70.6669261,23.48616 70.6697908,23.4885026 70.672671,23.4908024 70.6755668,23.4931306 70.6784005,23.4954517 70.681335,23.4978653 70.6838582,23.4998588 70.6875148,23.4998303 70.6912567,23.4998374 70.6945019,23.4998232 70.6979488,23.4997876 70.701652,23.4997733 70.7053474,23.4997164 70.7094853,23.4996808 70.7127848,23.4997093 70.716224,23.4996737 70.7201057,23.4996238 70.7239021,23.4996025 70.7274732,23.5008057 70.7312075,23.5019804 70.73467,23.5031907 70.7383033,23.5043511 70.7419754,23.5055685 70.7457562,23.5067717 70.7493662,23.5080104 70.7532091,23.5092776 70.7568269,23.5104522 70.7603825,23.511634 70.7636665,23.5126947 70.7671833,23.5138622 70.7701955,23.5148659 70.7741859,23.5161758 70.7777028,23.5175639 70.7799619,23.5184324 70.7833468,23.5202547 70.7867627,23.5220984 70.790233,23.5240702 70.7936256,23.5259351 70.797026,23.5277858 70.800473,23.5297006 70.8039355,23.5316011 70.8071884,23.5334375 70.8104881,23.5352341 70.8138973,23.537096 70.8172498,23.538963 70.8204435,23.5404815 70.8239492,23.5420885 70.8276023,23.5438358 70.8311987,23.5455259 70.8346306,23.5471068 70.8381419,23.5487917 70.8412108,23.5510797 70.8441662,23.5532221 70.8472294,23.5555361 70.8503096,23.5578084 70.8533161,23.5600547 70.8564303,23.562275 70.8602366,23.5633513 70.864111,23.5643184 70.867923,23.5654363 70.8716215,23.566419 70.8753484,23.5674329 70.8790242,23.5683844 70.8829326,23.5693619 70.8863475,23.5701834 70.8898985,23.5709321 70.8934382,23.5717172 70.8968701,23.5724763 70.9003928,23.5732458 70.9039949,23.5740204 70.9075005,23.5748107 70.9111594,23.5755698 70.9148068,23.5763548 70.9179267,23.5770099 70.9213473,23.5787308 70.9244218,23.5801709 70.927451,23.5817098 70.9308999,23.5833942 70.9343545,23.5850838 70.9378488,23.5867318 70.9410709,23.5882342 70.9445028,23.5900173 70.9480084,23.5916964 70.95148,23.5933963 70.9548325,23.5951118 70.9576405,23.5946127 70.9611802,23.5940253 70.9650091,23.5933599 70.9679248,23.5928609 70.9707838,23.5947323 70.9711128,23.5981476 70.9722076,23.6010325 70.9733866,23.6041881 70.9746567,23.6074865 70.975899,23.6109015 70.977181,23.6143215 70.9783949,23.6174764 70.9796655,23.6209794 70.9809218,23.6243843 70.9822134,23.6277431 70.9834649,23.6311092 70.9847346,23.6344561 70.9859936,23.6378204 70.9872578,23.6411982 70.9885197,23.6445699 70.9897823,23.6479433 70.9910512,23.6513387 70.9922761,23.6546974 70.9935851,23.658056 70.994878,23.6614585 70.9960589,23.6648352 70.9983606,23.6675886 71.0000979,23.6696784 71.0024596,23.6725196 71.0048254,23.6754049 71.0072352,23.678224 71.0096009,23.6811018 71.0119666,23.6839171 71.0143391,23.6867531 71.0166516,23.689541 71.0189358,23.6922948 71.0212546,23.6950772 71.0235408,23.6978205 71.0258423,23.7005819 71.0281463,23.7033464 71.0304457,23.7061126 71.0327465,23.7088804 71.035038,23.7116369 71.0373455,23.7144127 71.0396495,23.7171596 71.0419901,23.7199585 71.0442916,23.7227104 71.0466069,23.7255246 71.0488865,23.72826 71.0511722,23.7310027 71.0535029,23.7337923 71.055789,23.7365284 71.0581347,23.7393133 71.0604124,23.7421164 71.0627701,23.7448462 71.0651039,23.7476419 71.0676737,23.7499941 71.0702516,23.7523134 71.0727775,23.754629 71.0754635,23.7570764 71.0781695,23.7595347 71.080831,23.7619396 71.0834085,23.7642903 71.0859202,23.766581 71.0887503,23.769193 71.0912801,23.7714387 71.0939341,23.7738271 71.09644,23.7761863 71.0988403,23.778334 71.1018604,23.7805641 71.1047787,23.7827321 71.1076996,23.7848873 71.1106253,23.7870839 71.1135955,23.7893073 71.1166178,23.7915489 71.119688,23.7938198 71.122406,23.7958416 71.1247317,23.7975814 71.1274217,23.7995884 71.1301437,23.8015955 71.1338705,23.8011963 71.1376453,23.8008117 71.141376,23.8003942 71.1451908,23.7999913 71.1488735,23.7995884 71.1527684,23.7991489 71.15659,23.7987261 71.1589999,23.7984688 71.160472,23.7974221 71.1621598,23.7963839 71.1645321,23.7967529 71.1682931,23.79662 71.1722315,23.7964986 71.1758252,23.7963955 71.1795183,23.7962802 71.1832247,23.796171 71.1869775,23.7960436 71.1907634,23.7959344 71.1945361,23.795801 71.1983552,23.7956675 71.2019687,23.7955826 71.2057547,23.7954248 71.2094743,23.7953399 71.2132271,23.7952064 71.2169268,23.7950669 71.220726,23.794982 71.2244125,23.7948424 71.2281454,23.7947272 71.2320176,23.794618 71.2356377,23.7944784 71.2383496,23.7966382 71.2411409,23.7989132 71.2437599,23.8010728 71.2465712,23.8033174 71.2492963,23.8055316 71.2520612,23.8078125 71.2547398,23.8100145 71.2574516,23.8122347 71.2602099,23.8144427 71.2631206,23.8168022 71.2669662,23.8169114 71.2707522,23.8170085 71.2746508,23.8171601 71.2786025,23.8172632 71.282236,23.8173785 71.2861081,23.8174695 71.2899802,23.8175847 71.2928512,23.8189313 71.2962393,23.8205387 71.2995213,23.8220975 71.3026243,23.8235593 71.3057406,23.8250271 71.3090226,23.8265495 71.3123495,23.8281005 71.3153544,23.8295013 71.318724,23.8311229 71.3216989,23.8325424 71.3248196,23.8340167 71.3267828,23.8368477 71.3287375,23.8396943 71.3306665,23.842533 71.3326469,23.8453873 71.3346016,23.8482415 71.3365735,23.8511271 71.3385367,23.8539655 71.3404143,23.8567411 71.3424976,23.8596892 71.344478,23.8625902 71.3464327,23.8654676 71.3484388,23.8683292 71.3503764,23.8711516 71.3523739,23.8740601 71.3523225,23.8775252 71.3523053,23.8810765 71.3522282,23.8846198 71.352211,23.8881473 71.3522025,23.8915728 71.3521253,23.8950609 71.3520824,23.8984706 71.352031,23.9020056 71.3520053,23.9055013 71.3519538,23.9090831 71.3519195,23.912657 71.351851,23.9162072 71.3518595,23.9198044 71.3518338,23.9233232 71.352674,23.9265362 71.3535056,23.9296629 71.35432,23.9327425 71.3551602,23.9358456 71.3561033,23.9393169 71.356309,23.9417616 71.3562662,23.9435951 71.3565491,23.9453972 71.3570091,23.9475522 71.3575656,23.9502933 71.3582641,23.9535573 71.3590054,23.9570175 71.3597532,23.9604347 71.3604732,23.9638875 71.3612043,23.9673351 71.3645474,23.9690129 71.367885,23.9706296 71.3712337,23.9723329 71.3745321,23.9740158 71.3778864,23.9756579 71.3812518,23.9773662 71.3845559,23.979044 71.3879436,23.9807013 71.3912812,23.9823688 71.3946912,23.9840617 71.39793,23.9856885 71.4012564,23.98731 71.4046497,23.9889825 71.4078924,23.9907111 71.4111797,23.9923631 71.4145004,23.9940662 71.4179273,23.9957998 71.4211811,23.9975283 71.4245744,23.999221 71.4278896,24.0009597 71.4312327,24.0026473 71.4346428,24.0043604 71.4379022,24.0060836 71.441329,24.0077967 71.4446331,24.009474 71.4474801,24.0109435 71.4508387,24.0126832 71.4542258,24.0144073 71.4575217,24.0160845 71.4609544,24.0178241 71.4643415,24.0195638 71.4677914,24.0212669 71.4710245,24.0229961 71.4744516,24.0247148 71.4779071,24.0265012 71.4813056,24.0282095 71.4845445,24.0298813 71.4878575,24.0315739 71.4913187,24.0333498 71.494358,24.0348809 71.497882,24.0354746 71.5013945,24.0360006 71.5049242,24.036589 71.508471,24.037115 71.512052,24.0376931 71.5155645,24.0382555 71.5179652,24.0409687 71.5203259,24.0437235 71.5227094,24.0464834 71.5250131,24.0491027 71.5273681,24.0518 71.5297346,24.0545389 71.5296091,24.0581005 71.5295749,24.0617192 71.5316904,24.0639112 71.5341994,24.0665301 71.5366285,24.0691229 71.5391375,24.0717678 71.5407056,24.0744542 71.5422737,24.0771875 71.5439388,24.0799831 71.5450678,24.0819666 71.5468754,24.0851161 71.5487229,24.0883801 71.5515683,24.0904571 71.5546361,24.0927371 71.5569968,24.0953399 71.5595286,24.0980778 71.5618608,24.1007741 71.5650256,24.1020858 71.568082,24.1033611 71.5713721,24.1047248 71.5740408,24.105823 71.5760651,24.1082069 71.578038,24.1105386 71.5802163,24.1130837 71.5812427,24.1155299 71.5822805,24.1178771 71.5847837,24.1200838 71.5872756,24.1223112 71.5882678,24.1254077 71.5892543,24.128525 71.5912957,24.1308928 71.5917233,24.1335363 71.5934625,24.1366274 71.5948139,24.139786 71.5962281,24.1430694 71.5976536,24.1463579 71.5991077,24.1497296 71.6017535,24.1518212 71.6031677,24.1552136 71.6044849,24.1584758 71.607336,24.1606297 71.6102784,24.1628981 71.6132013,24.1651585 71.615676,24.1679106 71.6179797,24.1706106 71.6204431,24.1734094 71.6226156,24.1758909 71.6247882,24.1783826 71.6273485,24.181046 71.6295438,24.1834545 71.6298232,24.1861802 71.6301654,24.1892907 71.6304961,24.1922556 71.6307812,24.1953452 71.6322239,24.1987104 71.6336209,24.2020079 71.6350294,24.2053677 71.6364321,24.2087118 71.6378405,24.2120819 71.6392376,24.2154206 71.6406688,24.2187385 71.6420716,24.2220614 71.6434458,24.2253999 71.6448885,24.2287435 71.6462969,24.2321754 71.6477339,24.2354981 71.6508359,24.2375727 71.6528089,24.2388778 71.6562986,24.2396993 71.6597656,24.2405728 71.6628391,24.2426058 71.6657187,24.24454 71.6690374,24.246734 71.6707366,24.2495676 71.6725956,24.2525466 71.6756291,24.2548757 71.6786285,24.257262 71.6815081,24.2594922 71.6843649,24.2617588 71.6873871,24.2640566 71.6905518,24.2659592 71.6930494,24.2686883 71.6958264,24.2710743 71.6986775,24.2734863 71.7014944,24.2758462 71.7041288,24.2783984 71.7067632,24.2809973 71.7094205,24.2836742 71.7120321,24.286195 71.7142616,24.2883884 71.7170443,24.290405 71.719502,24.2922345 71.7221934,24.2941938 71.7250331,24.2962415 71.7276619,24.2981801 71.7305757,24.3002797 71.7333926,24.3023585 71.7357134,24.3040527 71.7379144,24.3056897 71.7395909,24.3083556 71.7422766,24.3098002 71.7447856,24.3113176 71.7477337,24.3130117 71.7503966,24.3144979 71.7532192,24.3164465 71.7563896,24.318551 71.7589727,24.3211024 71.7616414,24.3236796 71.7633292,24.3254931 71.765593,24.3278832 71.7675375,24.3300239 71.7691284,24.3316865 71.771107,24.3337128 71.7733309,24.3360872 71.773827,24.3379784 71.7747736,24.3417035 71.7779054,24.3438647 71.7805023,24.345667 71.7840967,24.3481748 71.7871987,24.350372 71.7893857,24.3530135 71.7917553,24.3557781 71.7947697,24.3574662 71.7981506,24.359299 71.8015791,24.3611372 71.8050315,24.3628073 71.8081564,24.364255 71.8106385,24.3670799 71.8128825,24.3695415 71.8161384,24.3713958 71.8192931,24.3732772 71.8219598,24.3758851 71.8244955,24.3784929 71.8267633,24.3808187 71.829412,24.3835945 71.8316144,24.3858823 71.8341917,24.3884573 71.8365846,24.3909565 71.8390131,24.393461 71.8415428,24.396063 71.8442273,24.3988005 71.8469356,24.4004755 71.849751,24.4022209 71.852656,24.4040069 71.855271,24.4056129 71.8579103,24.4072466 71.8605922,24.4088969 71.8635356,24.4109957 71.8661202,24.4128342 71.869319,24.4150936 71.8722381,24.4175522 71.8751754,24.4200219 71.8780641,24.4224472 71.8810622,24.4244296 71.8838536,24.4263177 71.8863591,24.4279678 71.8890045,24.429734 71.891206,24.4319709 71.8935656,24.4344237 71.8965333,24.4366716 71.8995314,24.4389582 71.9025782,24.4412669 71.9057466,24.443714 71.9082461,24.4461887 71.9106422,24.4486246 71.9130443,24.4509885 71.9151485,24.4530756 71.917873,24.455611 71.9208772,24.4587553 71.92303,24.4610083 71.9259795,24.4641524 71.9277796,24.4660566 71.929683,24.4690733 71.9316108,24.4721176 71.9335386,24.4750899 71.9349678,24.4774865 71.9365854,24.4803536 71.9380389,24.4827667 71.9398511,24.4859103 71.9416026,24.4889265 71.9430864,24.4914667 71.9450325,24.4945161 71.9470515,24.4975653 71.9486266,24.5000722 71.9521538,24.5009576 71.9557788,24.501849 71.9584668,24.5041441 71.9613638,24.5065768 71.9642896,24.5089636 71.9670785,24.5113044 71.9699466,24.5137174 71.9729084,24.5161499 71.9757117,24.51853 71.9784429,24.5208117 71.980785,24.5227392 71.9838405,24.5253027 71.9852818,24.5279777 71.9866402,24.5305345 71.988222,24.5335511 71.989829,24.5364553 71.9913063,24.539261 71.9927764,24.5420471 71.9943258,24.5449707 71.9966751,24.5456984 71.9991159,24.548116 72.0021277,24.5500811 72.0046914,24.551774 72.0072952,24.5535127 72.0098087,24.5551965 72.0124346,24.5569083 72.0145737,24.5590815 72.01683,24.5612884 72.018751,24.5644633 72.0201451,24.5668831 72.0217894,24.569119 72.0238115,24.5719695 72.0259028,24.5744763 72.0280154,24.5769927 72.0306813,24.579509 72.0333313,24.5819528 72.0354811,24.5842513 72.0381151,24.5870685 72.0401318,24.5892217 72.0425211,24.5917959 72.0442612,24.5948829 72.0459959,24.5979408 72.0475125,24.6009116 72.0488854,24.6035823 72.0507691,24.6072205 72.0536267,24.6095331 72.0540417,24.6122181 72.0545207,24.6156288 72.056078,24.6189085 72.0575432,24.622116 72.0588729,24.6248543 72.0601898,24.627707 72.0624969,24.6300413 72.0645615,24.6320729 72.0670998,24.6346075 72.0696859,24.6371517 72.0717879,24.6392316 72.0739749,24.6413791 72.0760981,24.6435169 72.0781575,24.6462254 72.0803605,24.6491708 72.082489,24.6520242 72.084465,24.6545795 72.0852364992117,24.6562164344475</coordinates></LineString>
  </Placemark>
  <Placemark>
	<Style><LineStyle><color>ff0000ff</color></LineStyle><PolyStyle><fill>0</fill></PolyStyle></Style>
	<ExtendedData><SchemaData schemaUrl="#500000_voltage_line">
		<SimpleData name="full_id">w1351229722</SimpleData>
		<SimpleData name="osm_id">1351229722</SimpleData>
		<SimpleData name="osm_type">way</SimpleData>
		<SimpleData name="power">line</SimpleData>
		<SimpleData name="cables">1</SimpleData>
		<SimpleData name="voltage">500000</SimpleData>
	</SchemaData></ExtendedData>
      <LineString><coordinates>69.5557967,22.8295545 69.5557987,22.8296095 69.5557906,22.8297092</coordinates></LineString>
  </Placemark>
  <Placemark>
	<Style><LineStyle><color>ff0000ff</color></LineStyle><PolyStyle><fill>0</fill></PolyStyle></Style>
	<ExtendedData><SchemaData schemaUrl="#500000_voltage_line">
		<SimpleData name="full_id">w1351229723</SimpleData>
		<SimpleData name="osm_id">1351229723</SimpleData>
		<SimpleData name="osm_type">way</SimpleData>
		<SimpleData name="power">line</SimpleData>
		<SimpleData name="cables">1</SimpleData>
		<SimpleData name="voltage">500000</SimpleData>
	</SchemaData></ExtendedData>
      <LineString><coordinates>69.5559512,22.8295569 69.55589,22.8296103 69.5557906,22.8297092</coordinates></LineString>
  </Placemark>
  <Placemark>
	<Style><LineStyle><color>ff0000ff</color></LineStyle><PolyStyle><fill>0</fill></PolyStyle></Style>
	<ExtendedData><SchemaData schemaUrl="#500000_voltage_line">
		<SimpleData name="full_id">w1351229728</SimpleData>
		<SimpleData name="osm_id">1351229728</SimpleData>
		<SimpleData name="osm_type">way</SimpleData>
		<SimpleData name="power">line</SimpleData>
		<SimpleData name="cables">1</SimpleData>
		<SimpleData name="voltage">500000</SimpleData>
	</SchemaData></ExtendedData>
      <LineString><coordinates>69.5565775,22.8297167 69.5564991,22.8296151 69.5564625,22.8295545</coordinates></LineString>
  </Placemark>
  <Placemark>
	<name>Mundra - Mahendragarh HVDC line</name>
	<Style><LineStyle><color>ff0000ff</color></LineStyle><PolyStyle><fill>0</fill></PolyStyle></Style>
	<ExtendedData><SchemaData schemaUrl="#500000_voltage_line">
		<SimpleData name="full_id">w1351229710</SimpleData>
		<SimpleData name="osm_id">1351229710</SimpleData>
		<SimpleData name="osm_type">way</SimpleData>
		<SimpleData name="power">line</SimpleData>
		<SimpleData name="wires">quad</SimpleData>
		<SimpleData name="operator">Adani</SimpleData>
		<SimpleData name="frequency">0</SimpleData>
		<SimpleData name="cables">1</SimpleData>
		<SimpleData name="voltage">500000</SimpleData>
	</SchemaData></ExtendedData>
      <LineString><coordinates>69.5557211,22.8310298 69.5559882,22.8308285 69.5565775,22.8303174 69.5565748,22.8301803 69.5565748,22.8298208 69.5565775,22.8297167</coordinates></LineString>
  </Placemark>
  <Placemark>
	<Style><LineStyle><color>ff0000ff</color></LineStyle><PolyStyle><fill>0</fill></PolyStyle></Style>
	<ExtendedData><SchemaData schemaUrl="#500000_voltage_line">
		<SimpleData name="full_id">w1351229729</SimpleData>
		<SimpleData name="osm_id">1351229729</SimpleData>
		<SimpleData name="osm_type">way</SimpleData>
		<SimpleData name="power">line</SimpleData>
		<SimpleData name="cables">1</SimpleData>
		<SimpleData name="voltage">500000</SimpleData>
	</SchemaData></ExtendedData>
      <LineString><coordinates>69.5565775,22.8297167 69.556664,22.8296165 69.5567182,22.8295545</coordinates></LineString>
  </Placemark>
  <Placemark>
	<name>Mundra - Mahendragarh HVDC line</name>
	<Style><LineStyle><color>ff0000ff</color></LineStyle><PolyStyle><fill>0</fill></PolyStyle></Style>
	<ExtendedData><SchemaData schemaUrl="#500000_voltage_line">
		<SimpleData name="full_id">w1351229711</SimpleData>
		<SimpleData name="osm_id">1351229711</SimpleData>
		<SimpleData name="osm_type">way</SimpleData>
		<SimpleData name="power">line</SimpleData>
		<SimpleData name="wires">quad</SimpleData>
		<SimpleData name="operator">Adani</SimpleData>
		<SimpleData name="frequency">0</SimpleData>
		<SimpleData name="cables">1</SimpleData>
		<SimpleData name="voltage">500000</SimpleData>
	</SchemaData></ExtendedData>
      <LineString><coordinates>69.5565748,22.8301803 69.5557771,22.8301828</coordinates></LineString>
  </Placemark>
</Folder>
</Document></kml>
