<?xml version="1.0" encoding="utf-8" ?>
<kml xmlns="http://www.opengis.net/kml/2.2">
<Document id="root_doc">
<Schema name="Generator_Polygon" id="Generator_Polygon">
	<SimpleField name="Description" type="string"></SimpleField>
	<SimpleField name="full_id" type="string"></SimpleField>
	<SimpleField name="osm_id" type="string"></SimpleField>
	<SimpleField name="osm_type" type="string"></SimpleField>
	<SimpleField name="power" type="string"></SimpleField>
	<SimpleField name="operator_w" type="string"></SimpleField>
	<SimpleField name="website" type="string"></SimpleField>
	<SimpleField name="operator_1" type="string"></SimpleField>
	<SimpleField name="wikipedia" type="string"></SimpleField>
	<SimpleField name="name_fr" type="string"></SimpleField>
	<SimpleField name="start_date" type="string"></SimpleField>
	<SimpleField name="ref" type="string"></SimpleField>
	<SimpleField name="name_en" type="string"></SimpleField>
	<SimpleField name="alt_name" type="string"></SimpleField>
	<SimpleField name="voltage" type="string"></SimpleField>
	<SimpleField name="roof_shape" type="string"></SimpleField>
	<SimpleField name="roof_mater" type="string"></SimpleField>
	<SimpleField name="location" type="string"></SimpleField>
	<SimpleField name="building_m" type="string"></SimpleField>
	<SimpleField name="building_l" type="string"></SimpleField>
	<SimpleField name="building_c" type="string"></SimpleField>
	<SimpleField name="building" type="string"></SimpleField>
	<SimpleField name="floating" type="string"></SimpleField>
	<SimpleField name="frequency" type="string"></SimpleField>
	<SimpleField name="generator_" type="string"></SimpleField>
	<SimpleField name="generato_1" type="string"></SimpleField>
	<SimpleField name="generato_2" type="string"></SimpleField>
	<SimpleField name="generato_3" type="string"></SimpleField>
	<SimpleField name="barrier" type="string"></SimpleField>
	<SimpleField name="addr_stree" type="string"></SimpleField>
	<SimpleField name="addr_postc" type="string"></SimpleField>
	<SimpleField name="addr_city" type="string"></SimpleField>
	<SimpleField name="plant_meth" type="string"></SimpleField>
	<SimpleField name="plant_type" type="string"></SimpleField>
	<SimpleField name="operator" type="string"></SimpleField>
	<SimpleField name="wikidata" type="string"></SimpleField>
	<SimpleField name="type" type="string"></SimpleField>
	<SimpleField name="plant_sour" type="string"></SimpleField>
	<SimpleField name="plant_outp" type="string"></SimpleField>
	<SimpleField name="landuse" type="string"></SimpleField>
</Schema>
<Folder><name>Generator_Polygon</name>
  <Placemark>
	<name>Block 4</name>
	<Style><LineStyle><color>ff0000ff</color></LineStyle><PolyStyle><fill>0</fill></PolyStyle></Style>
	<ExtendedData><SchemaData schemaUrl="#Generator_Polygon">
		<SimpleData name="full_id">w160962565</SimpleData>
		<SimpleData name="osm_id">160962565</SimpleData>
		<SimpleData name="osm_type">way</SimpleData>
		<SimpleData name="power">generator</SimpleData>
		<SimpleData name="building">yes</SimpleData>
		<SimpleData name="generato_1">coal</SimpleData>
		<SimpleData name="generato_2">330 MW</SimpleData>
		<SimpleData name="generato_3">combustion</SimpleData>
		<SimpleData name="operator">Adani</SimpleData>
	</SchemaData></ExtendedData>
      <Polygon><outerBoundaryIs><LinearRing><coordinates>69.5525447,22.8235838 69.5525444,22.8222511 69.5521114,22.8222512 69.5521117,22.8235839 69.5518469,22.823584 69.551847,22.8240371 69.5518471,22.8242085 69.5523774,22.8242084 69.5526331,22.8242084 69.552633,22.8240322 69.5526329,22.8235838 69.5525447,22.8235838</coordinates></LinearRing></outerBoundaryIs></Polygon>
  </Placemark>
  <Placemark>
	<name>Block 8</name>
	<Style><LineStyle><color>ff0000ff</color></LineStyle><PolyStyle><fill>0</fill></PolyStyle></Style>
	<ExtendedData><SchemaData schemaUrl="#Generator_Polygon">
		<SimpleData name="full_id">w160962566</SimpleData>
		<SimpleData name="osm_id">160962566</SimpleData>
		<SimpleData name="osm_type">way</SimpleData>
		<SimpleData name="power">generator</SimpleData>
		<SimpleData name="building">yes</SimpleData>
		<SimpleData name="generato_1">coal</SimpleData>
		<SimpleData name="generato_2">660 MW</SimpleData>
		<SimpleData name="generato_3">combustion</SimpleData>
		<SimpleData name="operator">Adani</SimpleData>
	</SchemaData></ExtendedData>
      <Polygon><outerBoundaryIs><LinearRing><coordinates>69.5574853,22.8236735 69.5574856,22.8224254 69.5568286,22.8224253 69.5568283,22.8236734 69.5566561,22.8236736 69.5566553,22.8240318 69.556655,22.8241925 69.5569157,22.8241916 69.5576025,22.8241893 69.5576025,22.8240318 69.5576026,22.8236736 69.5574853,22.8236735</coordinates></LinearRing></outerBoundaryIs></Polygon>
  </Placemark>
  <Placemark>
	<name>Block 2</name>
	<Style><LineStyle><color>ff0000ff</color></LineStyle><PolyStyle><fill>0</fill></PolyStyle></Style>
	<ExtendedData><SchemaData schemaUrl="#Generator_Polygon">
		<SimpleData name="full_id">w160962567</SimpleData>
		<SimpleData name="osm_id">160962567</SimpleData>
		<SimpleData name="osm_type">way</SimpleData>
		<SimpleData name="power">generator</SimpleData>
		<SimpleData name="building">yes</SimpleData>
		<SimpleData name="generato_1">coal</SimpleData>
		<SimpleData name="generato_2">330 MW</SimpleData>
		<SimpleData name="generato_3">combustion</SimpleData>
		<SimpleData name="operator">Adani</SimpleData>
	</SchemaData></ExtendedData>
      <Polygon><outerBoundaryIs><LinearRing><coordinates>69.550218,22.8235843 69.5499753,22.8235844 69.5499619,22.8240243 69.5499567,22.8241965 69.5505053,22.8242036 69.550725,22.8242065 69.550894,22.8242087 69.5508975,22.8240344 69.5509064,22.8235841 69.5508399,22.8235843 69.550649,22.8235842 69.5506487,22.8222311 69.5502177,22.8222312 69.550218,22.8235843</coordinates></LinearRing></outerBoundaryIs></Polygon>
  </Placemark>
  <Placemark>
	<name>Block 1</name>
	<Style><LineStyle><color>ff0000ff</color></LineStyle><PolyStyle><fill>0</fill></PolyStyle></Style>
	<ExtendedData><SchemaData schemaUrl="#Generator_Polygon">
		<SimpleData name="full_id">w160962559</SimpleData>
		<SimpleData name="osm_id">160962559</SimpleData>
		<SimpleData name="osm_type">way</SimpleData>
		<SimpleData name="power">generator</SimpleData>
		<SimpleData name="building">yes</SimpleData>
		<SimpleData name="generato_1">coal</SimpleData>
		<SimpleData name="generato_2">330 MW</SimpleData>
		<SimpleData name="generato_3">combustion</SimpleData>
		<SimpleData name="operator">Adani</SimpleData>
	</SchemaData></ExtendedData>
      <Polygon><outerBoundaryIs><LinearRing><coordinates>69.5492616,22.8235845 69.5490525,22.8235846 69.5490525,22.8237664 69.5490016,22.8237664 69.5490017,22.8240299 69.5490017,22.8242091 69.5495769,22.8242015 69.5498129,22.8241984 69.5499567,22.8241965 69.5499619,22.8240243 69.5499753,22.8235844 69.5497153,22.8235844 69.549715,22.8222211 69.5492613,22.8222212 69.5492616,22.8235845</coordinates></LinearRing></outerBoundaryIs></Polygon>
  </Placemark>
  <Placemark>
	<name>Block 7</name>
	<Style><LineStyle><color>ff0000ff</color></LineStyle><PolyStyle><fill>0</fill></PolyStyle></Style>
	<ExtendedData><SchemaData schemaUrl="#Generator_Polygon">
		<SimpleData name="full_id">w160962560</SimpleData>
		<SimpleData name="osm_id">160962560</SimpleData>
		<SimpleData name="osm_type">way</SimpleData>
		<SimpleData name="power">generator</SimpleData>
		<SimpleData name="building">yes</SimpleData>
		<SimpleData name="generato_1">coal</SimpleData>
		<SimpleData name="generato_2">660 MW</SimpleData>
		<SimpleData name="generato_3">combustion</SimpleData>
		<SimpleData name="operator">Adani</SimpleData>
	</SchemaData></ExtendedData>
      <Polygon><outerBoundaryIs><LinearRing><coordinates>69.55643,22.8236732 69.5564325,22.8224328 69.555817,22.8224318 69.5558144,22.8236759 69.5556594,22.8236757 69.5555687,22.8236755 69.555568,22.8240367 69.5555677,22.8241906 69.5558482,22.8241911 69.5560681,22.8241915 69.5563149,22.8241919 69.556655,22.8241925 69.5566553,22.8240318 69.5566561,22.8236736 69.55643,22.8236732</coordinates></LinearRing></outerBoundaryIs></Polygon>
  </Placemark>
  <Placemark>
	<name>Block 5</name>
	<Style><LineStyle><color>ff0000ff</color></LineStyle><PolyStyle><fill>0</fill></PolyStyle></Style>
	<ExtendedData><SchemaData schemaUrl="#Generator_Polygon">
		<SimpleData name="full_id">w160962561</SimpleData>
		<SimpleData name="osm_id">160962561</SimpleData>
		<SimpleData name="osm_type">way</SimpleData>
		<SimpleData name="power">generator</SimpleData>
		<SimpleData name="building">yes</SimpleData>
		<SimpleData name="generato_1">coal</SimpleData>
		<SimpleData name="generato_2">660 MW</SimpleData>
		<SimpleData name="generato_3">combustion</SimpleData>
		<SimpleData name="operator">Adani</SimpleData>
	</SchemaData></ExtendedData>
      <Polygon><outerBoundaryIs><LinearRing><coordinates>69.5533109,22.8236933 69.5531471,22.8236929 69.5530524,22.8236926 69.5530514,22.8240318 69.5530509,22.8242054 69.5534342,22.8242064 69.5537896,22.8242073 69.5539344,22.8242076 69.5541518,22.8242082 69.5541523,22.8240268 69.5541533,22.8236954 69.5539264,22.8236948 69.5539302,22.8224539 69.5533146,22.8224523 69.5533109,22.8236933</coordinates></LinearRing></outerBoundaryIs></Polygon>
  </Placemark>
  <Placemark>
	<name>Block 9</name>
	<Style><LineStyle><color>ff0000ff</color></LineStyle><PolyStyle><fill>0</fill></PolyStyle></Style>
	<ExtendedData><SchemaData schemaUrl="#Generator_Polygon">
		<SimpleData name="full_id">w160962562</SimpleData>
		<SimpleData name="osm_id">160962562</SimpleData>
		<SimpleData name="osm_type">way</SimpleData>
		<SimpleData name="power">generator</SimpleData>
		<SimpleData name="building">yes</SimpleData>
		<SimpleData name="generato_1">coal</SimpleData>
		<SimpleData name="generato_2">660 MW</SimpleData>
		<SimpleData name="generato_3">combustion</SimpleData>
		<SimpleData name="operator">Adani</SimpleData>
	</SchemaData></ExtendedData>
      <Polygon><outerBoundaryIs><LinearRing><coordinates>69.5583771,22.8236737 69.5583773,22.8224227 69.5577203,22.8224226 69.5577201,22.8236736 69.5576026,22.8236736 69.5576025,22.8240318 69.5576025,22.8241893 69.5578437,22.8241893 69.5585308,22.8241894 69.5585308,22.8240367 69.5585309,22.8236737 69.5583771,22.8236737</coordinates></LinearRing></outerBoundaryIs></Polygon>
  </Placemark>
  <Placemark>
	<name>Block 6</name>
	<Style><LineStyle><color>ff0000ff</color></LineStyle><PolyStyle><fill>0</fill></PolyStyle></Style>
	<ExtendedData><SchemaData schemaUrl="#Generator_Polygon">
		<SimpleData name="full_id">w160962563</SimpleData>
		<SimpleData name="osm_id">160962563</SimpleData>
		<SimpleData name="osm_type">way</SimpleData>
		<SimpleData name="power">generator</SimpleData>
		<SimpleData name="building">yes</SimpleData>
		<SimpleData name="generato_1">coal</SimpleData>
		<SimpleData name="generato_2">660 MW</SimpleData>
		<SimpleData name="generato_3">combustion</SimpleData>
		<SimpleData name="operator">Adani</SimpleData>
	</SchemaData></ExtendedData>
      <Polygon><outerBoundaryIs><LinearRing><coordinates>69.554325,22.8236953 69.5541533,22.8236954 69.5541523,22.8240268 69.5541518,22.8242082 69.5544534,22.8242086 69.555136,22.8242094 69.5551361,22.8240268 69.5551363,22.8236958 69.5549821,22.8236957 69.5549829,22.8224463 69.5543259,22.8224459 69.554325,22.8236953</coordinates></LinearRing></outerBoundaryIs></Polygon>
  </Placemark>
  <Placemark>
	<name>Block 3</name>
	<Style><LineStyle><color>ff0000ff</color></LineStyle><PolyStyle><fill>0</fill></PolyStyle></Style>
	<ExtendedData><SchemaData schemaUrl="#Generator_Polygon">
		<SimpleData name="full_id">w160962564</SimpleData>
		<SimpleData name="osm_id">160962564</SimpleData>
		<SimpleData name="osm_type">way</SimpleData>
		<SimpleData name="power">generator</SimpleData>
		<SimpleData name="building">yes</SimpleData>
		<SimpleData name="generato_1">coal</SimpleData>
		<SimpleData name="generato_2">330 MW</SimpleData>
		<SimpleData name="generato_3">combustion</SimpleData>
		<SimpleData name="operator">Adani</SimpleData>
	</SchemaData></ExtendedData>
      <Polygon><outerBoundaryIs><LinearRing><coordinates>69.5511592,22.8235841 69.5509064,22.8235841 69.5508975,22.8240344 69.550894,22.8242087 69.5509987,22.8242087 69.5514279,22.8242086 69.5518471,22.8242085 69.551847,22.8240371 69.5518469,22.823584 69.5515921,22.823584 69.5515917,22.8222412 69.5511589,22.8222413 69.5511592,22.8235841</coordinates></LinearRing></outerBoundaryIs></Polygon>
  </Placemark>
</Folder>
</Document></kml>
