<?xml version="1.0" encoding="utf-8" ?>
<kml xmlns="http://www.opengis.net/kml/2.2">
<Document id="root_doc">
<Schema name="Insulator" id="Insulator">
	<SimpleField name="Description" type="string"></SimpleField>
	<SimpleField name="full_id" type="string"></SimpleField>
	<SimpleField name="osm_id" type="string"></SimpleField>
	<SimpleField name="osm_type" type="string"></SimpleField>
	<SimpleField name="power" type="string"></SimpleField>
	<SimpleField name="website" type="string"></SimpleField>
	<SimpleField name="locked" type="string"></SimpleField>
	<SimpleField name="layer" type="string"></SimpleField>
	<SimpleField name="building" type="string"></SimpleField>
	<SimpleField name="line_manag" type="string"></SimpleField>
	<SimpleField name="transforme" type="string"></SimpleField>
	<SimpleField name="colour" type="string"></SimpleField>
	<SimpleField name="node" type="string"></SimpleField>
	<SimpleField name="type" type="string"></SimpleField>
	<SimpleField name="location" type="string"></SimpleField>
	<SimpleField name="motorcycle" type="string"></SimpleField>
	<SimpleField name="motorcar" type="string"></SimpleField>
	<SimpleField name="moped" type="string"></SimpleField>
	<SimpleField name="mofa" type="string"></SimpleField>
	<SimpleField name="foot" type="string"></SimpleField>
	<SimpleField name="bicycle" type="string"></SimpleField>
	<SimpleField name="substation" type="string"></SimpleField>
	<SimpleField name="start_date" type="string"></SimpleField>
	<SimpleField name="operator" type="string"></SimpleField>
	<SimpleField name="camera_dir" type="string"></SimpleField>
	<SimpleField name="generator_" type="string"></SimpleField>
	<SimpleField name="design" type="string"></SimpleField>
	<SimpleField name="surveillan" type="string"></SimpleField>
	<SimpleField name="surveill_1" type="string"></SimpleField>
	<SimpleField name="surveill_2" type="string"></SimpleField>
	<SimpleField name="man_made" type="string"></SimpleField>
	<SimpleField name="highway" type="string"></SimpleField>
	<SimpleField name="camera_typ" type="string"></SimpleField>
	<SimpleField name="camera_mou" type="string"></SimpleField>
	<SimpleField name="line_attac" type="string"></SimpleField>
	<SimpleField name="tower" type="string"></SimpleField>
	<SimpleField name="ref" type="string"></SimpleField>
	<SimpleField name="structure" type="string"></SimpleField>
	<SimpleField name="material" type="string"></SimpleField>
	<SimpleField name="barrier" type="string"></SimpleField>
	<SimpleField name="access" type="string"></SimpleField>
	<SimpleField name="cables" type="string"></SimpleField>
	<SimpleField name="generato_1" type="string"></SimpleField>
	<SimpleField name="generato_2" type="string"></SimpleField>
	<SimpleField name="generato_3" type="string"></SimpleField>
	<SimpleField name="frequency" type="string"></SimpleField>
</Schema>
<Folder><name>Insulator</name>
  <Placemark>
	<ExtendedData><SchemaData schemaUrl="#Insulator">
		<SimpleData name="full_id">n9115332474</SimpleData>
		<SimpleData name="osm_id">9115332474</SimpleData>
		<SimpleData name="osm_type">node</SimpleData>
		<SimpleData name="power">insulator</SimpleData>
	</SchemaData></ExtendedData>
      <MultiGeometry><Point><coordinates>73.290773,21.7888063</coordinates></Point></MultiGeometry>
  </Placemark>
  <Placemark>
	<ExtendedData><SchemaData schemaUrl="#Insulator">
		<SimpleData name="full_id">n9115332475</SimpleData>
		<SimpleData name="osm_id">9115332475</SimpleData>
		<SimpleData name="osm_type">node</SimpleData>
		<SimpleData name="power">insulator</SimpleData>
	</SchemaData></ExtendedData>
      <MultiGeometry><Point><coordinates>73.2906329,21.7887971</coordinates></Point></MultiGeometry>
  </Placemark>
  <Placemark>
	<ExtendedData><SchemaData schemaUrl="#Insulator">
		<SimpleData name="full_id">n9115332476</SimpleData>
		<SimpleData name="osm_id">9115332476</SimpleData>
		<SimpleData name="osm_type">node</SimpleData>
		<SimpleData name="power">insulator</SimpleData>
	</SchemaData></ExtendedData>
      <MultiGeometry><Point><coordinates>73.2904969,21.7887881</coordinates></Point></MultiGeometry>
  </Placemark>
  <Placemark>
	<ExtendedData><SchemaData schemaUrl="#Insulator">
		<SimpleData name="full_id">n9111596118</SimpleData>
		<SimpleData name="osm_id">9111596118</SimpleData>
		<SimpleData name="osm_type">node</SimpleData>
		<SimpleData name="power">insulator</SimpleData>
	</SchemaData></ExtendedData>
      <MultiGeometry><Point><coordinates>72.8391303,21.8460369</coordinates></Point></MultiGeometry>
  </Placemark>
  <Placemark>
	<ExtendedData><SchemaData schemaUrl="#Insulator">
		<SimpleData name="full_id">n9115332477</SimpleData>
		<SimpleData name="osm_id">9115332477</SimpleData>
		<SimpleData name="osm_type">node</SimpleData>
		<SimpleData name="power">insulator</SimpleData>
	</SchemaData></ExtendedData>
      <MultiGeometry><Point><coordinates>73.2908947,21.7888144</coordinates></Point></MultiGeometry>
  </Placemark>
  <Placemark>
	<ExtendedData><SchemaData schemaUrl="#Insulator">
		<SimpleData name="full_id">n9111596119</SimpleData>
		<SimpleData name="osm_id">9111596119</SimpleData>
		<SimpleData name="osm_type">node</SimpleData>
		<SimpleData name="power">insulator</SimpleData>
	</SchemaData></ExtendedData>
      <MultiGeometry><Point><coordinates>72.8389683,21.8460164</coordinates></Point></MultiGeometry>
  </Placemark>
  <Placemark>
	<ExtendedData><SchemaData schemaUrl="#Insulator">
		<SimpleData name="full_id">n9111596120</SimpleData>
		<SimpleData name="osm_id">9111596120</SimpleData>
		<SimpleData name="osm_type">node</SimpleData>
		<SimpleData name="power">insulator</SimpleData>
	</SchemaData></ExtendedData>
      <MultiGeometry><Point><coordinates>72.8387785,21.8459925</coordinates></Point></MultiGeometry>
  </Placemark>
  <Placemark>
	<ExtendedData><SchemaData schemaUrl="#Insulator">
		<SimpleData name="full_id">n9111596121</SimpleData>
		<SimpleData name="osm_id">9111596121</SimpleData>
		<SimpleData name="osm_type">node</SimpleData>
		<SimpleData name="power">insulator</SimpleData>
	</SchemaData></ExtendedData>
      <MultiGeometry><Point><coordinates>72.8385903,21.8459687</coordinates></Point></MultiGeometry>
  </Placemark>
  <Placemark>
	<ExtendedData><SchemaData schemaUrl="#Insulator">
		<SimpleData name="full_id">n9120602529</SimpleData>
		<SimpleData name="osm_id">9120602529</SimpleData>
		<SimpleData name="osm_type">node</SimpleData>
		<SimpleData name="power">insulator</SimpleData>
	</SchemaData></ExtendedData>
      <MultiGeometry><Point><coordinates>73.0101558,21.6313804</coordinates></Point></MultiGeometry>
  </Placemark>
  <Placemark>
	<ExtendedData><SchemaData schemaUrl="#Insulator">
		<SimpleData name="full_id">n9120602530</SimpleData>
		<SimpleData name="osm_id">9120602530</SimpleData>
		<SimpleData name="osm_type">node</SimpleData>
		<SimpleData name="power">insulator</SimpleData>
	</SchemaData></ExtendedData>
      <MultiGeometry><Point><coordinates>73.00992,21.6313689</coordinates></Point></MultiGeometry>
  </Placemark>
  <Placemark>
	<ExtendedData><SchemaData schemaUrl="#Insulator">
		<SimpleData name="full_id">n9056273694</SimpleData>
		<SimpleData name="osm_id">9056273694</SimpleData>
		<SimpleData name="osm_type">node</SimpleData>
		<SimpleData name="power">insulator</SimpleData>
	</SchemaData></ExtendedData>
      <MultiGeometry><Point><coordinates>74.0080093,22.3231979</coordinates></Point></MultiGeometry>
  </Placemark>
  <Placemark>
	<ExtendedData><SchemaData schemaUrl="#Insulator">
		<SimpleData name="full_id">n9103426737</SimpleData>
		<SimpleData name="osm_id">9103426737</SimpleData>
		<SimpleData name="osm_type">node</SimpleData>
		<SimpleData name="power">insulator</SimpleData>
	</SchemaData></ExtendedData>
      <MultiGeometry><Point><coordinates>73.7558609,21.8380671</coordinates></Point></MultiGeometry>
  </Placemark>
  <Placemark>
	<ExtendedData><SchemaData schemaUrl="#Insulator">
		<SimpleData name="full_id">n9103426738</SimpleData>
		<SimpleData name="osm_id">9103426738</SimpleData>
		<SimpleData name="osm_type">node</SimpleData>
		<SimpleData name="power">insulator</SimpleData>
	</SchemaData></ExtendedData>
      <MultiGeometry><Point><coordinates>73.7563102,21.8383972</coordinates></Point></MultiGeometry>
  </Placemark>
  <Placemark>
	<ExtendedData><SchemaData schemaUrl="#Insulator">
		<SimpleData name="full_id">n9056932377</SimpleData>
		<SimpleData name="osm_id">9056932377</SimpleData>
		<SimpleData name="osm_type">node</SimpleData>
		<SimpleData name="power">insulator</SimpleData>
	</SchemaData></ExtendedData>
      <MultiGeometry><Point><coordinates>73.7532951,21.8406544</coordinates></Point></MultiGeometry>
  </Placemark>
</Folder>
</Document></kml>
