<?xml version="1.0" encoding="utf-8" ?>
<kml xmlns="http://www.opengis.net/kml/2.2">
<Document id="root_doc">
<Schema name="Portal_Line" id="Portal_Line">
	<SimpleField name="Description" type="string"></SimpleField>
	<SimpleField name="full_id" type="string"></SimpleField>
	<SimpleField name="osm_id" type="string"></SimpleField>
	<SimpleField name="osm_type" type="string"></SimpleField>
	<SimpleField name="power" type="string"></SimpleField>
	<SimpleField name="floating" type="string"></SimpleField>
	<SimpleField name="site" type="string"></SimpleField>
	<SimpleField name="level" type="string"></SimpleField>
	<SimpleField name="generator_" type="string"></SimpleField>
	<SimpleField name="layer" type="string"></SimpleField>
	<SimpleField name="width" type="string"></SimpleField>
	<SimpleField name="colour" type="string"></SimpleField>
	<SimpleField name="operator_w" type="string"></SimpleField>
	<SimpleField name="operator_s" type="string"></SimpleField>
	<SimpleField name="ref" type="string"></SimpleField>
	<SimpleField name="plant_type" type="string"></SimpleField>
	<SimpleField name="wikipedia" type="string"></SimpleField>
	<SimpleField name="wikidata" type="string"></SimpleField>
	<SimpleField name="plant_sour" type="string"></SimpleField>
	<SimpleField name="plant_outp" type="string"></SimpleField>
	<SimpleField name="plant_meth" type="string"></SimpleField>
	<SimpleField name="wires" type="string"></SimpleField>
	<SimpleField name="line" type="string"></SimpleField>
	<SimpleField name="generato_1" type="string"></SimpleField>
	<SimpleField name="generato_2" type="string"></SimpleField>
	<SimpleField name="generato_3" type="string"></SimpleField>
	<SimpleField name="generato_4" type="string"></SimpleField>
	<SimpleField name="operator" type="string"></SimpleField>
	<SimpleField name="barrier" type="string"></SimpleField>
	<SimpleField name="location" type="string"></SimpleField>
	<SimpleField name="frequency" type="string"></SimpleField>
	<SimpleField name="circuits" type="string"></SimpleField>
	<SimpleField name="cables" type="string"></SimpleField>
	<SimpleField name="substation" type="string"></SimpleField>
	<SimpleField name="voltage" type="string"></SimpleField>
</Schema>
<Folder><name>Portal_Line</name>
  <Placemark>
	<Style><LineStyle><color>ff0000ff</color></LineStyle><PolyStyle><fill>0</fill></PolyStyle></Style>
	<ExtendedData><SchemaData schemaUrl="#Portal_Line">
		<SimpleData name="full_id">w986038214</SimpleData>
		<SimpleData name="osm_id">986038214</SimpleData>
		<SimpleData name="osm_type">way</SimpleData>
		<SimpleData name="power">portal</SimpleData>
	</SchemaData></ExtendedData>
      <LineString><coordinates>73.2905618,21.7887924 73.2906329,21.7887971 73.29069,21.7888008</coordinates></LineString>
  </Placemark>
  <Placemark>
	<Style><LineStyle><color>ff0000ff</color></LineStyle><PolyStyle><fill>0</fill></PolyStyle></Style>
	<ExtendedData><SchemaData schemaUrl="#Portal_Line">
		<SimpleData name="full_id">w1432697086</SimpleData>
		<SimpleData name="osm_id">1432697086</SimpleData>
		<SimpleData name="osm_type">way</SimpleData>
		<SimpleData name="power">portal</SimpleData>
	</SchemaData></ExtendedData>
      <LineString><coordinates>72.8691205,21.2405532 72.8693169,21.2405529 72.8700448,21.2405517 72.8700969,21.2396468 72.8691625,21.2396204 72.869205,21.2404913 72.8694583,21.2405095 72.8700448,21.2405517</coordinates></LineString>
  </Placemark>
  <Placemark>
	<Style><LineStyle><color>ff0000ff</color></LineStyle><PolyStyle><fill>0</fill></PolyStyle></Style>
	<ExtendedData><SchemaData schemaUrl="#Portal_Line">
		<SimpleData name="full_id">w978748853</SimpleData>
		<SimpleData name="osm_id">978748853</SimpleData>
		<SimpleData name="osm_type">way</SimpleData>
		<SimpleData name="power">portal</SimpleData>
	</SchemaData></ExtendedData>
      <LineString><coordinates>74.0078598,22.3233783 74.0080093,22.3231979 74.0081066,22.3230805</coordinates></LineString>
  </Placemark>
  <Placemark>
	<Style><LineStyle><color>ff0000ff</color></LineStyle><PolyStyle><fill>0</fill></PolyStyle></Style>
	<ExtendedData><SchemaData schemaUrl="#Portal_Line">
		<SimpleData name="full_id">w978823255</SimpleData>
		<SimpleData name="osm_id">978823255</SimpleData>
		<SimpleData name="osm_type">way</SimpleData>
		<SimpleData name="power">portal</SimpleData>
	</SchemaData></ExtendedData>
      <LineString><coordinates>73.7531465,21.8406093 73.7532951,21.8406544 73.7534335,21.8406964</coordinates></LineString>
  </Placemark>
  <Placemark>
	<Style><LineStyle><color>ff0000ff</color></LineStyle><PolyStyle><fill>0</fill></PolyStyle></Style>
	<ExtendedData><SchemaData schemaUrl="#Portal_Line">
		<SimpleData name="full_id">w1469929248</SimpleData>
		<SimpleData name="osm_id">1469929248</SimpleData>
		<SimpleData name="osm_type">way</SimpleData>
		<SimpleData name="power">portal</SimpleData>
	</SchemaData></ExtendedData>
      <LineString><coordinates>72.250806,22.959618 72.2509344,22.9596511 72.2512088,22.9597217 72.2514746,22.9597901 72.2516026,22.959823</coordinates></LineString>
  </Placemark>
  <Placemark>
	<Style><LineStyle><color>ff0000ff</color></LineStyle><PolyStyle><fill>0</fill></PolyStyle></Style>
	<ExtendedData><SchemaData schemaUrl="#Portal_Line">
		<SimpleData name="full_id">w1469929249</SimpleData>
		<SimpleData name="osm_id">1469929249</SimpleData>
		<SimpleData name="osm_type">way</SimpleData>
		<SimpleData name="power">portal</SimpleData>
	</SchemaData></ExtendedData>
      <LineString><coordinates>72.2491269,22.961048 72.2491508,22.9609706 72.2491996,22.9608131 72.2492529,22.9606408 72.2492942,22.960507 72.2493476,22.9603344 72.2493683,22.9602675</coordinates></LineString>
  </Placemark>
  <Placemark>
	<Style><LineStyle><color>ff0000ff</color></LineStyle><PolyStyle><fill>0</fill></PolyStyle></Style>
	<ExtendedData><SchemaData schemaUrl="#Portal_Line">
		<SimpleData name="full_id">w1469929251</SimpleData>
		<SimpleData name="osm_id">1469929251</SimpleData>
		<SimpleData name="osm_type">way</SimpleData>
		<SimpleData name="power">portal</SimpleData>
	</SchemaData></ExtendedData>
      <LineString><coordinates>72.2493281,22.9611171 72.2493562,22.9610223 72.249403,22.9608645 72.2494543,22.9606914 72.2494945,22.9605559 72.2495449,22.9603859 72.2495668,22.960312</coordinates></LineString>
  </Placemark>
  <Placemark>
	<Style><LineStyle><color>ff0000ff</color></LineStyle><PolyStyle><fill>0</fill></PolyStyle></Style>
	<ExtendedData><SchemaData schemaUrl="#Portal_Line">
		<SimpleData name="full_id">w986038215</SimpleData>
		<SimpleData name="osm_id">986038215</SimpleData>
		<SimpleData name="osm_type">way</SimpleData>
		<SimpleData name="power">portal</SimpleData>
	</SchemaData></ExtendedData>
      <LineString><coordinates>73.2904416,21.7887845 73.2904969,21.7887881 73.2905618,21.7887924</coordinates></LineString>
  </Placemark>
  <Placemark>
	<Style><LineStyle><color>ff0000ff</color></LineStyle><PolyStyle><fill>0</fill></PolyStyle></Style>
	<ExtendedData><SchemaData schemaUrl="#Portal_Line">
		<SimpleData name="full_id">w986715048</SimpleData>
		<SimpleData name="osm_id">986715048</SimpleData>
		<SimpleData name="osm_type">way</SimpleData>
		<SimpleData name="power">portal</SimpleData>
	</SchemaData></ExtendedData>
      <LineString><coordinates>73.0100339,21.6313745 73.00992,21.6313689 73.0098233,21.6313642</coordinates></LineString>
  </Placemark>
  <Placemark>
	<Style><LineStyle><color>ff0000ff</color></LineStyle><PolyStyle><fill>0</fill></PolyStyle></Style>
	<ExtendedData><SchemaData schemaUrl="#Portal_Line">
		<SimpleData name="full_id">w986715049</SimpleData>
		<SimpleData name="osm_id">986715049</SimpleData>
		<SimpleData name="osm_type">way</SimpleData>
		<SimpleData name="power">portal</SimpleData>
	</SchemaData></ExtendedData>
      <LineString><coordinates>73.0102578,21.6313854 73.0101558,21.6313804 73.0100339,21.6313745</coordinates></LineString>
  </Placemark>
  <Placemark>
	<Style><LineStyle><color>ff0000ff</color></LineStyle><PolyStyle><fill>0</fill></PolyStyle></Style>
	<ExtendedData><SchemaData schemaUrl="#Portal_Line">
		<SimpleData name="full_id">w1469940164</SimpleData>
		<SimpleData name="osm_id">1469940164</SimpleData>
		<SimpleData name="osm_type">way</SimpleData>
		<SimpleData name="power">portal</SimpleData>
	</SchemaData></ExtendedData>
      <LineString><coordinates>72.1996927,22.3995922 72.1996808,22.3997464 72.1996633,22.3999742 72.1996242,22.40048 72.1996049,22.400731 72.199585,22.4009881 72.1995747,22.4011222</coordinates></LineString>
  </Placemark>
  <Placemark>
	<Style><LineStyle><color>ff0000ff</color></LineStyle><PolyStyle><fill>0</fill></PolyStyle></Style>
	<ExtendedData><SchemaData schemaUrl="#Portal_Line">
		<SimpleData name="full_id">w1469940165</SimpleData>
		<SimpleData name="osm_id">1469940165</SimpleData>
		<SimpleData name="osm_type">way</SimpleData>
		<SimpleData name="power">portal</SimpleData>
	</SchemaData></ExtendedData>
      <LineString><coordinates>72.1973216,22.4003931 72.1973288,22.4002952 72.1973304,22.4002729 72.1973375,22.4001748 72.1973388,22.4001572 72.1973516,22.3999811 72.197353,22.3999616 72.1973628,22.3998265 72.1973645,22.3998033 72.1973699,22.3997286</coordinates></LineString>
  </Placemark>
  <Placemark>
	<Style><LineStyle><color>ff0000ff</color></LineStyle><PolyStyle><fill>0</fill></PolyStyle></Style>
	<ExtendedData><SchemaData schemaUrl="#Portal_Line">
		<SimpleData name="full_id">w985584291</SimpleData>
		<SimpleData name="osm_id">985584291</SimpleData>
		<SimpleData name="osm_type">way</SimpleData>
		<SimpleData name="power">portal</SimpleData>
	</SchemaData></ExtendedData>
      <LineString><coordinates>72.8390583,21.8460278 72.8391303,21.8460369 72.8391904,21.8460445</coordinates></LineString>
  </Placemark>
  <Placemark>
	<Style><LineStyle><color>ff0000ff</color></LineStyle><PolyStyle><fill>0</fill></PolyStyle></Style>
	<ExtendedData><SchemaData schemaUrl="#Portal_Line">
		<SimpleData name="full_id">w985584292</SimpleData>
		<SimpleData name="osm_id">985584292</SimpleData>
		<SimpleData name="osm_type">way</SimpleData>
		<SimpleData name="power">portal</SimpleData>
	</SchemaData></ExtendedData>
      <LineString><coordinates>72.8386942,21.8459818 72.8387785,21.8459925 72.8388694,21.846004</coordinates></LineString>
  </Placemark>
  <Placemark>
	<Style><LineStyle><color>ff0000ff</color></LineStyle><PolyStyle><fill>0</fill></PolyStyle></Style>
	<ExtendedData><SchemaData schemaUrl="#Portal_Line">
		<SimpleData name="full_id">w985584293</SimpleData>
		<SimpleData name="osm_id">985584293</SimpleData>
		<SimpleData name="osm_type">way</SimpleData>
		<SimpleData name="power">portal</SimpleData>
	</SchemaData></ExtendedData>
      <LineString><coordinates>72.8385362,21.8459619 72.8385903,21.8459687 72.8386942,21.8459818</coordinates></LineString>
  </Placemark>
  <Placemark>
	<Style><LineStyle><color>ff0000ff</color></LineStyle><PolyStyle><fill>0</fill></PolyStyle></Style>
	<ExtendedData><SchemaData schemaUrl="#Portal_Line">
		<SimpleData name="full_id">w985584294</SimpleData>
		<SimpleData name="osm_id">985584294</SimpleData>
		<SimpleData name="osm_type">way</SimpleData>
		<SimpleData name="power">portal</SimpleData>
	</SchemaData></ExtendedData>
      <LineString><coordinates>72.8388694,21.846004 72.8389683,21.8460164 72.8390583,21.8460278</coordinates></LineString>
  </Placemark>
  <Placemark>
	<Style><LineStyle><color>ff0000ff</color></LineStyle><PolyStyle><fill>0</fill></PolyStyle></Style>
	<ExtendedData><SchemaData schemaUrl="#Portal_Line">
		<SimpleData name="full_id">w986038212</SimpleData>
		<SimpleData name="osm_id">986038212</SimpleData>
		<SimpleData name="osm_type">way</SimpleData>
		<SimpleData name="power">portal</SimpleData>
	</SchemaData></ExtendedData>
      <LineString><coordinates>73.2908264,21.7888098 73.2908947,21.7888144 73.2909731,21.7888195</coordinates></LineString>
  </Placemark>
  <Placemark>
	<Style><LineStyle><color>ff0000ff</color></LineStyle><PolyStyle><fill>0</fill></PolyStyle></Style>
	<ExtendedData><SchemaData schemaUrl="#Portal_Line">
		<SimpleData name="full_id">w986038213</SimpleData>
		<SimpleData name="osm_id">986038213</SimpleData>
		<SimpleData name="osm_type">way</SimpleData>
		<SimpleData name="power">portal</SimpleData>
	</SchemaData></ExtendedData>
      <LineString><coordinates>73.29069,21.7888008 73.290773,21.7888063 73.2908264,21.7888098</coordinates></LineString>
  </Placemark>
</Folder>
</Document></kml>
