<?xml version="1.0" encoding="utf-8" ?>
<kml xmlns="http://www.opengis.net/kml/2.2">
<Document id="root_doc">
<Schema name="Portal" id="Portal">
	<SimpleField name="Description" type="string"></SimpleField>
	<SimpleField name="full_id" type="string"></SimpleField>
	<SimpleField name="osm_id" type="string"></SimpleField>
	<SimpleField name="osm_type" type="string"></SimpleField>
	<SimpleField name="power" type="string"></SimpleField>
	<SimpleField name="website" type="string"></SimpleField>
	<SimpleField name="locked" type="string"></SimpleField>
	<SimpleField name="layer" type="string"></SimpleField>
	<SimpleField name="building" type="string"></SimpleField>
	<SimpleField name="line_manag" type="string"></SimpleField>
	<SimpleField name="transforme" type="string"></SimpleField>
	<SimpleField name="colour" type="string"></SimpleField>
	<SimpleField name="node" type="string"></SimpleField>
	<SimpleField name="type" type="string"></SimpleField>
	<SimpleField name="location" type="string"></SimpleField>
	<SimpleField name="motorcycle" type="string"></SimpleField>
	<SimpleField name="motorcar" type="string"></SimpleField>
	<SimpleField name="moped" type="string"></SimpleField>
	<SimpleField name="mofa" type="string"></SimpleField>
	<SimpleField name="foot" type="string"></SimpleField>
	<SimpleField name="bicycle" type="string"></SimpleField>
	<SimpleField name="substation" type="string"></SimpleField>
	<SimpleField name="start_date" type="string"></SimpleField>
	<SimpleField name="operator" type="string"></SimpleField>
	<SimpleField name="camera_dir" type="string"></SimpleField>
	<SimpleField name="generator_" type="string"></SimpleField>
	<SimpleField name="design" type="string"></SimpleField>
	<SimpleField name="surveillan" type="string"></SimpleField>
	<SimpleField name="surveill_1" type="string"></SimpleField>
	<SimpleField name="surveill_2" type="string"></SimpleField>
	<SimpleField name="man_made" type="string"></SimpleField>
	<SimpleField name="highway" type="string"></SimpleField>
	<SimpleField name="camera_typ" type="string"></SimpleField>
	<SimpleField name="camera_mou" type="string"></SimpleField>
	<SimpleField name="line_attac" type="string"></SimpleField>
	<SimpleField name="tower" type="string"></SimpleField>
	<SimpleField name="ref" type="string"></SimpleField>
	<SimpleField name="structure" type="string"></SimpleField>
	<SimpleField name="material" type="string"></SimpleField>
	<SimpleField name="barrier" type="string"></SimpleField>
	<SimpleField name="access" type="string"></SimpleField>
	<SimpleField name="cables" type="string"></SimpleField>
	<SimpleField name="generato_1" type="string"></SimpleField>
	<SimpleField name="generato_2" type="string"></SimpleField>
	<SimpleField name="generato_3" type="string"></SimpleField>
	<SimpleField name="frequency" type="string"></SimpleField>
</Schema>
<Folder><name>Portal</name>
  <Placemark>
	<ExtendedData><SchemaData schemaUrl="#Portal">
		<SimpleData name="full_id">n8108482539</SimpleData>
		<SimpleData name="osm_id">8108482539</SimpleData>
		<SimpleData name="osm_type">node</SimpleData>
		<SimpleData name="power">portal</SimpleData>
	</SchemaData></ExtendedData>
      <MultiGeometry><Point><coordinates>73.7486257,21.8350796</coordinates></Point></MultiGeometry>
  </Placemark>
  <Placemark>
	<ExtendedData><SchemaData schemaUrl="#Portal">
		<SimpleData name="full_id">n8118909725</SimpleData>
		<SimpleData name="osm_id">8118909725</SimpleData>
		<SimpleData name="osm_type">node</SimpleData>
		<SimpleData name="power">portal</SimpleData>
	</SchemaData></ExtendedData>
      <MultiGeometry><Point><coordinates>72.441781,22.3173265</coordinates></Point></MultiGeometry>
  </Placemark>
  <Placemark>
	<ExtendedData><SchemaData schemaUrl="#Portal">
		<SimpleData name="full_id">n8118909726</SimpleData>
		<SimpleData name="osm_id">8118909726</SimpleData>
		<SimpleData name="osm_type">node</SimpleData>
		<SimpleData name="power">portal</SimpleData>
	</SchemaData></ExtendedData>
      <MultiGeometry><Point><coordinates>72.6813586,22.3308341</coordinates></Point></MultiGeometry>
  </Placemark>
  <Placemark>
	<ExtendedData><SchemaData schemaUrl="#Portal">
		<SimpleData name="full_id">n8118910047</SimpleData>
		<SimpleData name="osm_id">8118910047</SimpleData>
		<SimpleData name="osm_type">node</SimpleData>
		<SimpleData name="power">portal</SimpleData>
	</SchemaData></ExtendedData>
      <MultiGeometry><Point><coordinates>73.7544635,21.8403031</coordinates></Point></MultiGeometry>
  </Placemark>
  <Placemark>
	<ExtendedData><SchemaData schemaUrl="#Portal">
		<SimpleData name="full_id">n8118910048</SimpleData>
		<SimpleData name="osm_id">8118910048</SimpleData>
		<SimpleData name="osm_type">node</SimpleData>
		<SimpleData name="power">portal</SimpleData>
	</SchemaData></ExtendedData>
      <MultiGeometry><Point><coordinates>73.7539136,21.8401512</coordinates></Point></MultiGeometry>
  </Placemark>
  <Placemark>
	<ExtendedData><SchemaData schemaUrl="#Portal">
		<SimpleData name="full_id">n8118964267</SimpleData>
		<SimpleData name="osm_id">8118964267</SimpleData>
		<SimpleData name="osm_type">node</SimpleData>
		<SimpleData name="power">portal</SimpleData>
	</SchemaData></ExtendedData>
      <MultiGeometry><Point><coordinates>72.4148194,22.8953353</coordinates></Point></MultiGeometry>
  </Placemark>
  <Placemark>
	<ExtendedData><SchemaData schemaUrl="#Portal">
		<SimpleData name="full_id">n13460544708</SimpleData>
		<SimpleData name="osm_id">13460544708</SimpleData>
		<SimpleData name="osm_type">node</SimpleData>
		<SimpleData name="power">portal</SimpleData>
	</SchemaData></ExtendedData>
      <MultiGeometry><Point><coordinates>73.2005095,21.7980194</coordinates></Point></MultiGeometry>
  </Placemark>
  <Placemark>
	<ExtendedData><SchemaData schemaUrl="#Portal">
		<SimpleData name="full_id">n8118964268</SimpleData>
		<SimpleData name="osm_id">8118964268</SimpleData>
		<SimpleData name="osm_type">node</SimpleData>
		<SimpleData name="power">portal</SimpleData>
	</SchemaData></ExtendedData>
      <MultiGeometry><Point><coordinates>72.4149669,22.8953389</coordinates></Point></MultiGeometry>
  </Placemark>
  <Placemark>
	<ExtendedData><SchemaData schemaUrl="#Portal">
		<SimpleData name="full_id">n13474661753</SimpleData>
		<SimpleData name="osm_id">13474661753</SimpleData>
		<SimpleData name="osm_type">node</SimpleData>
		<SimpleData name="power">portal</SimpleData>
	</SchemaData></ExtendedData>
      <MultiGeometry><Point><coordinates>72.8513955,20.2822943</coordinates></Point></MultiGeometry>
  </Placemark>
  <Placemark>
	<ExtendedData><SchemaData schemaUrl="#Portal">
		<SimpleData name="full_id">n8108482536</SimpleData>
		<SimpleData name="osm_id">8108482536</SimpleData>
		<SimpleData name="osm_type">node</SimpleData>
		<SimpleData name="power">portal</SimpleData>
	</SchemaData></ExtendedData>
      <MultiGeometry><Point><coordinates>73.748289,21.8338795</coordinates></Point></MultiGeometry>
  </Placemark>
  <Placemark>
	<ExtendedData><SchemaData schemaUrl="#Portal">
		<SimpleData name="full_id">n8108482537</SimpleData>
		<SimpleData name="osm_id">8108482537</SimpleData>
		<SimpleData name="osm_type">node</SimpleData>
		<SimpleData name="power">portal</SimpleData>
	</SchemaData></ExtendedData>
      <MultiGeometry><Point><coordinates>73.7483829,21.834248</coordinates></Point></MultiGeometry>
  </Placemark>
  <Placemark>
	<ExtendedData><SchemaData schemaUrl="#Portal">
		<SimpleData name="full_id">n8108482538</SimpleData>
		<SimpleData name="osm_id">8108482538</SimpleData>
		<SimpleData name="osm_type">node</SimpleData>
		<SimpleData name="power">portal</SimpleData>
	</SchemaData></ExtendedData>
      <MultiGeometry><Point><coordinates>73.7484822,21.8346787</coordinates></Point></MultiGeometry>
  </Placemark>
  <Placemark>
	<ExtendedData><SchemaData schemaUrl="#Portal">
		<SimpleData name="full_id">n7058629876</SimpleData>
		<SimpleData name="osm_id">7058629876</SimpleData>
		<SimpleData name="osm_type">node</SimpleData>
		<SimpleData name="power">portal</SimpleData>
	</SchemaData></ExtendedData>
      <MultiGeometry><Point><coordinates>72.6887521,21.1772764</coordinates></Point></MultiGeometry>
  </Placemark>
  <Placemark>
	<ExtendedData><SchemaData schemaUrl="#Portal">
		<SimpleData name="full_id">n12539577021</SimpleData>
		<SimpleData name="osm_id">12539577021</SimpleData>
		<SimpleData name="osm_type">node</SimpleData>
		<SimpleData name="power">portal</SimpleData>
	</SchemaData></ExtendedData>
      <MultiGeometry><Point><coordinates>72.6748463,23.1080976</coordinates></Point></MultiGeometry>
  </Placemark>
  <Placemark>
	<ExtendedData><SchemaData schemaUrl="#Portal">
		<SimpleData name="full_id">n7058629877</SimpleData>
		<SimpleData name="osm_id">7058629877</SimpleData>
		<SimpleData name="osm_type">node</SimpleData>
		<SimpleData name="power">portal</SimpleData>
	</SchemaData></ExtendedData>
      <MultiGeometry><Point><coordinates>72.6884195,21.1772589</coordinates></Point></MultiGeometry>
  </Placemark>
  <Placemark>
	<ExtendedData><SchemaData schemaUrl="#Portal">
		<SimpleData name="full_id">n12539577022</SimpleData>
		<SimpleData name="osm_id">12539577022</SimpleData>
		<SimpleData name="osm_type">node</SimpleData>
		<SimpleData name="power">portal</SimpleData>
	</SchemaData></ExtendedData>
      <MultiGeometry><Point><coordinates>72.6753836,23.1093637</coordinates></Point></MultiGeometry>
  </Placemark>
  <Placemark>
	<ExtendedData><SchemaData schemaUrl="#Portal">
		<SimpleData name="full_id">n7058629878</SimpleData>
		<SimpleData name="osm_id">7058629878</SimpleData>
		<SimpleData name="osm_type">node</SimpleData>
		<SimpleData name="power">portal</SimpleData>
	</SchemaData></ExtendedData>
      <MultiGeometry><Point><coordinates>72.6861262,21.1772214</coordinates></Point></MultiGeometry>
  </Placemark>
  <Placemark>
	<ExtendedData><SchemaData schemaUrl="#Portal">
		<SimpleData name="full_id">n12539577023</SimpleData>
		<SimpleData name="osm_id">12539577023</SimpleData>
		<SimpleData name="osm_type">node</SimpleData>
		<SimpleData name="power">portal</SimpleData>
	</SchemaData></ExtendedData>
      <MultiGeometry><Point><coordinates>72.6755092,23.1096598</coordinates></Point></MultiGeometry>
  </Placemark>
  <Placemark>
	<ExtendedData><SchemaData schemaUrl="#Portal">
		<SimpleData name="full_id">n7058629879</SimpleData>
		<SimpleData name="osm_id">7058629879</SimpleData>
		<SimpleData name="osm_type">node</SimpleData>
		<SimpleData name="power">portal</SimpleData>
	</SchemaData></ExtendedData>
      <MultiGeometry><Point><coordinates>72.6864561,21.1772264</coordinates></Point></MultiGeometry>
  </Placemark>
  <Placemark>
	<ExtendedData><SchemaData schemaUrl="#Portal">
		<SimpleData name="full_id">n6555670238</SimpleData>
		<SimpleData name="osm_id">6555670238</SimpleData>
		<SimpleData name="osm_type">node</SimpleData>
		<SimpleData name="power">portal</SimpleData>
	</SchemaData></ExtendedData>
      <MultiGeometry><Point><coordinates>72.753396,22.239474</coordinates></Point></MultiGeometry>
  </Placemark>
  <Placemark>
	<ExtendedData><SchemaData schemaUrl="#Portal">
		<SimpleData name="full_id">n12586140509</SimpleData>
		<SimpleData name="osm_id">12586140509</SimpleData>
		<SimpleData name="osm_type">node</SimpleData>
		<SimpleData name="power">portal</SimpleData>
	</SchemaData></ExtendedData>
      <MultiGeometry><Point><coordinates>73.5720357,21.2010146</coordinates></Point></MultiGeometry>
  </Placemark>
  <Placemark>
	<ExtendedData><SchemaData schemaUrl="#Portal">
		<SimpleData name="full_id">n12586140510</SimpleData>
		<SimpleData name="osm_id">12586140510</SimpleData>
		<SimpleData name="osm_type">node</SimpleData>
		<SimpleData name="power">portal</SimpleData>
	</SchemaData></ExtendedData>
      <MultiGeometry><Point><coordinates>73.5718909,21.2010146</coordinates></Point></MultiGeometry>
  </Placemark>
  <Placemark>
	<ExtendedData><SchemaData schemaUrl="#Portal">
		<SimpleData name="full_id">n13198096375</SimpleData>
		<SimpleData name="osm_id">13198096375</SimpleData>
		<SimpleData name="osm_type">node</SimpleData>
		<SimpleData name="power">portal</SimpleData>
	</SchemaData></ExtendedData>
      <MultiGeometry><Point><coordinates>72.16307,24.1180851</coordinates></Point></MultiGeometry>
  </Placemark>
  <Placemark>
	<ExtendedData><SchemaData schemaUrl="#Portal">
		<SimpleData name="full_id">n13198096376</SimpleData>
		<SimpleData name="osm_id">13198096376</SimpleData>
		<SimpleData name="osm_type">node</SimpleData>
		<SimpleData name="power">portal</SimpleData>
	</SchemaData></ExtendedData>
      <MultiGeometry><Point><coordinates>72.1631625,24.118063</coordinates></Point></MultiGeometry>
  </Placemark>
  <Placemark>
	<ExtendedData><SchemaData schemaUrl="#Portal">
		<SimpleData name="full_id">n13198096377</SimpleData>
		<SimpleData name="osm_id">13198096377</SimpleData>
		<SimpleData name="osm_type">node</SimpleData>
		<SimpleData name="power">portal</SimpleData>
	</SchemaData></ExtendedData>
      <MultiGeometry><Point><coordinates>72.1633087,24.1180251</coordinates></Point></MultiGeometry>
  </Placemark>
  <Placemark>
	<ExtendedData><SchemaData schemaUrl="#Portal">
		<SimpleData name="full_id">n12535193126</SimpleData>
		<SimpleData name="osm_id">12535193126</SimpleData>
		<SimpleData name="osm_type">node</SimpleData>
		<SimpleData name="power">portal</SimpleData>
	</SchemaData></ExtendedData>
      <MultiGeometry><Point><coordinates>73.1915491,22.2159519</coordinates></Point></MultiGeometry>
  </Placemark>
  <Placemark>
	<ExtendedData><SchemaData schemaUrl="#Portal">
		<SimpleData name="full_id">n9103313588</SimpleData>
		<SimpleData name="osm_id">9103313588</SimpleData>
		<SimpleData name="osm_type">node</SimpleData>
		<SimpleData name="power">portal</SimpleData>
	</SchemaData></ExtendedData>
      <MultiGeometry><Point><coordinates>73.2997848,22.482872</coordinates></Point></MultiGeometry>
  </Placemark>
  <Placemark>
	<ExtendedData><SchemaData schemaUrl="#Portal">
		<SimpleData name="full_id">n12535193130</SimpleData>
		<SimpleData name="osm_id">12535193130</SimpleData>
		<SimpleData name="osm_type">node</SimpleData>
		<SimpleData name="power">portal</SimpleData>
	</SchemaData></ExtendedData>
      <MultiGeometry><Point><coordinates>73.1903761,22.2158372</coordinates></Point></MultiGeometry>
  </Placemark>
  <Placemark>
	<ExtendedData><SchemaData schemaUrl="#Portal">
		<SimpleData name="full_id">n12535193133</SimpleData>
		<SimpleData name="osm_id">12535193133</SimpleData>
		<SimpleData name="osm_type">node</SimpleData>
		<SimpleData name="power">portal</SimpleData>
	</SchemaData></ExtendedData>
      <MultiGeometry><Point><coordinates>73.1916151,22.2159587</coordinates></Point></MultiGeometry>
  </Placemark>
  <Placemark>
	<ExtendedData><SchemaData schemaUrl="#Portal">
		<SimpleData name="full_id">n12535193135</SimpleData>
		<SimpleData name="osm_id">12535193135</SimpleData>
		<SimpleData name="osm_type">node</SimpleData>
		<SimpleData name="power">portal</SimpleData>
	</SchemaData></ExtendedData>
      <MultiGeometry><Point><coordinates>73.1918906,22.2159869</coordinates></Point></MultiGeometry>
  </Placemark>
  <Placemark>
	<ExtendedData><SchemaData schemaUrl="#Portal">
		<SimpleData name="full_id">n12535193136</SimpleData>
		<SimpleData name="osm_id">12535193136</SimpleData>
		<SimpleData name="osm_type">node</SimpleData>
		<SimpleData name="power">portal</SimpleData>
	</SchemaData></ExtendedData>
      <MultiGeometry><Point><coordinates>73.1906416,22.2158626</coordinates></Point></MultiGeometry>
  </Placemark>
  <Placemark>
	<ExtendedData><SchemaData schemaUrl="#Portal">
		<SimpleData name="full_id">n12539714418</SimpleData>
		<SimpleData name="osm_id">12539714418</SimpleData>
		<SimpleData name="osm_type">node</SimpleData>
		<SimpleData name="power">portal</SimpleData>
	</SchemaData></ExtendedData>
      <MultiGeometry><Point><coordinates>73.2904114,21.7878344</coordinates></Point></MultiGeometry>
  </Placemark>
  <Placemark>
	<ExtendedData><SchemaData schemaUrl="#Portal">
		<SimpleData name="full_id">n5413106027</SimpleData>
		<SimpleData name="osm_id">5413106027</SimpleData>
		<SimpleData name="osm_type">node</SimpleData>
		<SimpleData name="power">portal</SimpleData>
	</SchemaData></ExtendedData>
      <MultiGeometry><Point><coordinates>69.818476,24.1245282</coordinates></Point></MultiGeometry>
  </Placemark>
  <Placemark>
	<ExtendedData><SchemaData schemaUrl="#Portal">
		<SimpleData name="full_id">n9048870552</SimpleData>
		<SimpleData name="osm_id">9048870552</SimpleData>
		<SimpleData name="osm_type">node</SimpleData>
		<SimpleData name="power">portal</SimpleData>
	</SchemaData></ExtendedData>
      <MultiGeometry><Point><coordinates>74.23811,22.848948</coordinates></Point></MultiGeometry>
  </Placemark>
  <Placemark>
	<ExtendedData><SchemaData schemaUrl="#Portal">
		<SimpleData name="full_id">n12618535582</SimpleData>
		<SimpleData name="osm_id">12618535582</SimpleData>
		<SimpleData name="osm_type">node</SimpleData>
		<SimpleData name="power">portal</SimpleData>
	</SchemaData></ExtendedData>
      <MultiGeometry><Point><coordinates>73.0835317,23.8236129</coordinates></Point></MultiGeometry>
  </Placemark>
  <Placemark>
	<ExtendedData><SchemaData schemaUrl="#Portal">
		<SimpleData name="full_id">n13014506325</SimpleData>
		<SimpleData name="osm_id">13014506325</SimpleData>
		<SimpleData name="osm_type">node</SimpleData>
		<SimpleData name="power">portal</SimpleData>
	</SchemaData></ExtendedData>
      <MultiGeometry><Point><coordinates>72.3961338,22.6148874</coordinates></Point></MultiGeometry>
  </Placemark>
  <Placemark>
	<ExtendedData><SchemaData schemaUrl="#Portal">
		<SimpleData name="full_id">n12539577039</SimpleData>
		<SimpleData name="osm_id">12539577039</SimpleData>
		<SimpleData name="osm_type">node</SimpleData>
		<SimpleData name="power">portal</SimpleData>
	</SchemaData></ExtendedData>
      <MultiGeometry><Point><coordinates>72.673787,23.1083452</coordinates></Point></MultiGeometry>
  </Placemark>
  <Placemark>
	<ExtendedData><SchemaData schemaUrl="#Portal">
		<SimpleData name="full_id">n10717934337</SimpleData>
		<SimpleData name="osm_id">10717934337</SimpleData>
		<SimpleData name="osm_type">node</SimpleData>
		<SimpleData name="power">portal</SimpleData>
	</SchemaData></ExtendedData>
      <MultiGeometry><Point><coordinates>71.1799599,21.614663</coordinates></Point></MultiGeometry>
  </Placemark>
  <Placemark>
	<ExtendedData><SchemaData schemaUrl="#Portal">
		<SimpleData name="full_id">n12539577041</SimpleData>
		<SimpleData name="osm_id">12539577041</SimpleData>
		<SimpleData name="osm_type">node</SimpleData>
		<SimpleData name="power">portal</SimpleData>
	</SchemaData></ExtendedData>
      <MultiGeometry><Point><coordinates>72.6737405,23.1082341</coordinates></Point></MultiGeometry>
  </Placemark>
  <Placemark>
	<ExtendedData><SchemaData schemaUrl="#Portal">
		<SimpleData name="full_id">n10717934338</SimpleData>
		<SimpleData name="osm_id">10717934338</SimpleData>
		<SimpleData name="osm_type">node</SimpleData>
		<SimpleData name="power">portal</SimpleData>
	</SchemaData></ExtendedData>
      <MultiGeometry><Point><coordinates>71.1798272,21.6147254</coordinates></Point></MultiGeometry>
  </Placemark>
  <Placemark>
	<ExtendedData><SchemaData schemaUrl="#Portal">
		<SimpleData name="full_id">n10717934339</SimpleData>
		<SimpleData name="osm_id">10717934339</SimpleData>
		<SimpleData name="osm_type">node</SimpleData>
		<SimpleData name="power">portal</SimpleData>
	</SchemaData></ExtendedData>
      <MultiGeometry><Point><coordinates>71.1797588,21.6147615</coordinates></Point></MultiGeometry>
  </Placemark>
  <Placemark>
	<ExtendedData><SchemaData schemaUrl="#Portal">
		<SimpleData name="full_id">n12539577045</SimpleData>
		<SimpleData name="osm_id">12539577045</SimpleData>
		<SimpleData name="osm_type">node</SimpleData>
		<SimpleData name="power">portal</SimpleData>
	</SchemaData></ExtendedData>
      <MultiGeometry><Point><coordinates>72.6741488,23.1092093</coordinates></Point></MultiGeometry>
  </Placemark>
  <Placemark>
	<ExtendedData><SchemaData schemaUrl="#Portal">
		<SimpleData name="full_id">n13009002286</SimpleData>
		<SimpleData name="osm_id">13009002286</SimpleData>
		<SimpleData name="osm_type">node</SimpleData>
		<SimpleData name="power">portal</SimpleData>
	</SchemaData></ExtendedData>
      <MultiGeometry><Point><coordinates>72.8008899,22.7607141</coordinates></Point></MultiGeometry>
  </Placemark>
  <Placemark>
	<ExtendedData><SchemaData schemaUrl="#Portal">
		<SimpleData name="full_id">n12616153426</SimpleData>
		<SimpleData name="osm_id">12616153426</SimpleData>
		<SimpleData name="osm_type">node</SimpleData>
		<SimpleData name="power">portal</SimpleData>
	</SchemaData></ExtendedData>
      <MultiGeometry><Point><coordinates>72.4164449,24.1748737</coordinates></Point></MultiGeometry>
  </Placemark>
  <Placemark>
	<ExtendedData><SchemaData schemaUrl="#Portal">
		<SimpleData name="full_id">n12539577024</SimpleData>
		<SimpleData name="osm_id">12539577024</SimpleData>
		<SimpleData name="osm_type">node</SimpleData>
		<SimpleData name="power">portal</SimpleData>
	</SchemaData></ExtendedData>
      <MultiGeometry><Point><coordinates>72.6752189,23.1089755</coordinates></Point></MultiGeometry>
  </Placemark>
  <Placemark>
	<ExtendedData><SchemaData schemaUrl="#Portal">
		<SimpleData name="full_id">n12539577025</SimpleData>
		<SimpleData name="osm_id">12539577025</SimpleData>
		<SimpleData name="osm_type">node</SimpleData>
		<SimpleData name="power">portal</SimpleData>
	</SchemaData></ExtendedData>
      <MultiGeometry><Point><coordinates>72.6751136,23.1087274</coordinates></Point></MultiGeometry>
  </Placemark>
  <Placemark>
	<ExtendedData><SchemaData schemaUrl="#Portal">
		<SimpleData name="full_id">n12539577030</SimpleData>
		<SimpleData name="osm_id">12539577030</SimpleData>
		<SimpleData name="osm_type">node</SimpleData>
		<SimpleData name="power">portal</SimpleData>
	</SchemaData></ExtendedData>
      <MultiGeometry><Point><coordinates>72.6749797,23.108412</coordinates></Point></MultiGeometry>
  </Placemark>
  <Placemark>
	<ExtendedData><SchemaData schemaUrl="#Portal">
		<SimpleData name="full_id">n13479260740</SimpleData>
		<SimpleData name="osm_id">13479260740</SimpleData>
		<SimpleData name="osm_type">node</SimpleData>
		<SimpleData name="power">portal</SimpleData>
	</SchemaData></ExtendedData>
      <MultiGeometry><Point><coordinates>74.0448193,22.0924423</coordinates></Point></MultiGeometry>
  </Placemark>
  <Placemark>
	<ExtendedData><SchemaData schemaUrl="#Portal">
		<SimpleData name="full_id">n12539577031</SimpleData>
		<SimpleData name="osm_id">12539577031</SimpleData>
		<SimpleData name="osm_type">node</SimpleData>
		<SimpleData name="power">portal</SimpleData>
	</SchemaData></ExtendedData>
      <MultiGeometry><Point><coordinates>72.6739661,23.1087729</coordinates></Point></MultiGeometry>
  </Placemark>
  <Placemark>
	<ExtendedData><SchemaData schemaUrl="#Portal">
		<SimpleData name="full_id">n12539577032</SimpleData>
		<SimpleData name="osm_id">12539577032</SimpleData>
		<SimpleData name="osm_type">node</SimpleData>
		<SimpleData name="power">portal</SimpleData>
	</SchemaData></ExtendedData>
      <MultiGeometry><Point><coordinates>72.6750872,23.1086652</coordinates></Point></MultiGeometry>
  </Placemark>
  <Placemark>
	<ExtendedData><SchemaData schemaUrl="#Portal">
		<SimpleData name="full_id">n13460737044</SimpleData>
		<SimpleData name="osm_id">13460737044</SimpleData>
		<SimpleData name="osm_type">node</SimpleData>
		<SimpleData name="power">portal</SimpleData>
	</SchemaData></ExtendedData>
      <MultiGeometry><Point><coordinates>72.0177117,24.275499</coordinates></Point></MultiGeometry>
  </Placemark>
  <Placemark>
	<ExtendedData><SchemaData schemaUrl="#Portal">
		<SimpleData name="full_id">n12539577033</SimpleData>
		<SimpleData name="osm_id">12539577033</SimpleData>
		<SimpleData name="osm_type">node</SimpleData>
		<SimpleData name="power">portal</SimpleData>
	</SchemaData></ExtendedData>
      <MultiGeometry><Point><coordinates>72.6740711,23.1090237</coordinates></Point></MultiGeometry>
  </Placemark>
  <Placemark>
	<ExtendedData><SchemaData schemaUrl="#Portal">
		<SimpleData name="full_id">n9104265717</SimpleData>
		<SimpleData name="osm_id">9104265717</SimpleData>
		<SimpleData name="osm_type">node</SimpleData>
		<SimpleData name="power">portal</SimpleData>
	</SchemaData></ExtendedData>
      <MultiGeometry><Point><coordinates>73.1922778,22.2146773</coordinates></Point></MultiGeometry>
  </Placemark>
  <Placemark>
	<ExtendedData><SchemaData schemaUrl="#Portal">
		<SimpleData name="full_id">n12539577035</SimpleData>
		<SimpleData name="osm_id">12539577035</SimpleData>
		<SimpleData name="osm_type">node</SimpleData>
		<SimpleData name="power">portal</SimpleData>
	</SchemaData></ExtendedData>
      <MultiGeometry><Point><coordinates>72.6742314,23.1094065</coordinates></Point></MultiGeometry>
  </Placemark>
  <Placemark>
	<ExtendedData><SchemaData schemaUrl="#Portal">
		<SimpleData name="full_id">n9104265718</SimpleData>
		<SimpleData name="osm_id">9104265718</SimpleData>
		<SimpleData name="osm_type">node</SimpleData>
		<SimpleData name="power">portal</SimpleData>
	</SchemaData></ExtendedData>
      <MultiGeometry><Point><coordinates>73.191592,22.2146168</coordinates></Point></MultiGeometry>
  </Placemark>
  <Placemark>
	<ExtendedData><SchemaData schemaUrl="#Portal">
		<SimpleData name="full_id">n12539777355</SimpleData>
		<SimpleData name="osm_id">12539777355</SimpleData>
		<SimpleData name="osm_type">node</SimpleData>
		<SimpleData name="power">portal</SimpleData>
	</SchemaData></ExtendedData>
      <MultiGeometry><Point><coordinates>72.969945,21.2316809</coordinates></Point></MultiGeometry>
  </Placemark>
  <Placemark>
	<ExtendedData><SchemaData schemaUrl="#Portal">
		<SimpleData name="full_id">n12539777356</SimpleData>
		<SimpleData name="osm_id">12539777356</SimpleData>
		<SimpleData name="osm_type">node</SimpleData>
		<SimpleData name="power">portal</SimpleData>
	</SchemaData></ExtendedData>
      <MultiGeometry><Point><coordinates>72.969957,21.2315139</coordinates></Point></MultiGeometry>
  </Placemark>
  <Placemark>
	<ExtendedData><SchemaData schemaUrl="#Portal">
		<SimpleData name="full_id">n12539777357</SimpleData>
		<SimpleData name="osm_id">12539777357</SimpleData>
		<SimpleData name="osm_type">node</SimpleData>
		<SimpleData name="power">portal</SimpleData>
	</SchemaData></ExtendedData>
      <MultiGeometry><Point><coordinates>72.9699664,21.2313834</coordinates></Point></MultiGeometry>
  </Placemark>
  <Placemark>
	<ExtendedData><SchemaData schemaUrl="#Portal">
		<SimpleData name="full_id">n9104264809</SimpleData>
		<SimpleData name="osm_id">9104264809</SimpleData>
		<SimpleData name="osm_type">node</SimpleData>
		<SimpleData name="power">portal</SimpleData>
	</SchemaData></ExtendedData>
      <MultiGeometry><Point><coordinates>73.1912747,22.216115</coordinates></Point></MultiGeometry>
  </Placemark>
  <Placemark>
	<ExtendedData><SchemaData schemaUrl="#Portal">
		<SimpleData name="full_id">n6555689985</SimpleData>
		<SimpleData name="osm_id">6555689985</SimpleData>
		<SimpleData name="osm_type">node</SimpleData>
		<SimpleData name="power">portal</SimpleData>
	</SchemaData></ExtendedData>
      <MultiGeometry><Point><coordinates>73.3797401,22.4110409</coordinates></Point></MultiGeometry>
  </Placemark>
  <Placemark>
	<ExtendedData><SchemaData schemaUrl="#Portal">
		<SimpleData name="full_id">n9104264810</SimpleData>
		<SimpleData name="osm_id">9104264810</SimpleData>
		<SimpleData name="osm_type">node</SimpleData>
		<SimpleData name="power">portal</SimpleData>
	</SchemaData></ExtendedData>
      <MultiGeometry><Point><coordinates>73.1915296,22.2161418</coordinates></Point></MultiGeometry>
  </Placemark>
  <Placemark>
	<ExtendedData><SchemaData schemaUrl="#Portal">
		<SimpleData name="full_id">n6555689986</SimpleData>
		<SimpleData name="osm_id">6555689986</SimpleData>
		<SimpleData name="osm_type">node</SimpleData>
		<SimpleData name="power">portal</SimpleData>
	</SchemaData></ExtendedData>
      <MultiGeometry><Point><coordinates>73.3799601,22.4117005</coordinates></Point></MultiGeometry>
  </Placemark>
  <Placemark>
	<ExtendedData><SchemaData schemaUrl="#Portal">
		<SimpleData name="full_id">n9104264811</SimpleData>
		<SimpleData name="osm_id">9104264811</SimpleData>
		<SimpleData name="osm_type">node</SimpleData>
		<SimpleData name="power">portal</SimpleData>
	</SchemaData></ExtendedData>
      <MultiGeometry><Point><coordinates>73.19168,22.2161577</coordinates></Point></MultiGeometry>
  </Placemark>
  <Placemark>
	<ExtendedData><SchemaData schemaUrl="#Portal">
		<SimpleData name="full_id">n9104264812</SimpleData>
		<SimpleData name="osm_id">9104264812</SimpleData>
		<SimpleData name="osm_type">node</SimpleData>
		<SimpleData name="power">portal</SimpleData>
	</SchemaData></ExtendedData>
      <MultiGeometry><Point><coordinates>73.1918968,22.2161806</coordinates></Point></MultiGeometry>
  </Placemark>
  <Placemark>
	<ExtendedData><SchemaData schemaUrl="#Portal">
		<SimpleData name="full_id">n9104264813</SimpleData>
		<SimpleData name="osm_id">9104264813</SimpleData>
		<SimpleData name="osm_type">node</SimpleData>
		<SimpleData name="power">portal</SimpleData>
	</SchemaData></ExtendedData>
      <MultiGeometry><Point><coordinates>73.1920284,22.2161944</coordinates></Point></MultiGeometry>
  </Placemark>
  <Placemark>
	<ExtendedData><SchemaData schemaUrl="#Portal">
		<SimpleData name="full_id">n12539777334</SimpleData>
		<SimpleData name="osm_id">12539777334</SimpleData>
		<SimpleData name="osm_type">node</SimpleData>
		<SimpleData name="power">portal</SimpleData>
	</SchemaData></ExtendedData>
      <MultiGeometry><Point><coordinates>72.9709199,21.2302219</coordinates></Point></MultiGeometry>
  </Placemark>
  <Placemark>
	<ExtendedData><SchemaData schemaUrl="#Portal">
		<SimpleData name="full_id">n9104264814</SimpleData>
		<SimpleData name="osm_id">9104264814</SimpleData>
		<SimpleData name="osm_type">node</SimpleData>
		<SimpleData name="power">portal</SimpleData>
	</SchemaData></ExtendedData>
      <MultiGeometry><Point><coordinates>73.1914561,22.2146049</coordinates></Point></MultiGeometry>
  </Placemark>
  <Placemark>
	<ExtendedData><SchemaData schemaUrl="#Portal">
		<SimpleData name="full_id">n9104264815</SimpleData>
		<SimpleData name="osm_id">9104264815</SimpleData>
		<SimpleData name="osm_type">node</SimpleData>
		<SimpleData name="power">portal</SimpleData>
	</SchemaData></ExtendedData>
      <MultiGeometry><Point><coordinates>73.1910308,22.2145674</coordinates></Point></MultiGeometry>
  </Placemark>
  <Placemark>
	<ExtendedData><SchemaData schemaUrl="#Portal">
		<SimpleData name="full_id">n12539777335</SimpleData>
		<SimpleData name="osm_id">12539777335</SimpleData>
		<SimpleData name="osm_type">node</SimpleData>
		<SimpleData name="power">portal</SimpleData>
	</SchemaData></ExtendedData>
      <MultiGeometry><Point><coordinates>72.9708448,21.2314258</coordinates></Point></MultiGeometry>
  </Placemark>
  <Placemark>
	<ExtendedData><SchemaData schemaUrl="#Portal">
		<SimpleData name="full_id">n13460456259</SimpleData>
		<SimpleData name="osm_id">13460456259</SimpleData>
		<SimpleData name="osm_type">node</SimpleData>
		<SimpleData name="power">portal</SimpleData>
	</SchemaData></ExtendedData>
      <MultiGeometry><Point><coordinates>72.7418464,21.4180352</coordinates></Point></MultiGeometry>
  </Placemark>
  <Placemark>
	<ExtendedData><SchemaData schemaUrl="#Portal">
		<SimpleData name="full_id">n9104264816</SimpleData>
		<SimpleData name="osm_id">9104264816</SimpleData>
		<SimpleData name="osm_type">node</SimpleData>
		<SimpleData name="power">portal</SimpleData>
	</SchemaData></ExtendedData>
      <MultiGeometry><Point><coordinates>73.1908965,22.2145556</coordinates></Point></MultiGeometry>
  </Placemark>
  <Placemark>
	<ExtendedData><SchemaData schemaUrl="#Portal">
		<SimpleData name="full_id">n12539777336</SimpleData>
		<SimpleData name="osm_id">12539777336</SimpleData>
		<SimpleData name="osm_type">node</SimpleData>
		<SimpleData name="power">portal</SimpleData>
	</SchemaData></ExtendedData>
      <MultiGeometry><Point><coordinates>72.9708647,21.2311061</coordinates></Point></MultiGeometry>
  </Placemark>
  <Placemark>
	<ExtendedData><SchemaData schemaUrl="#Portal">
		<SimpleData name="full_id">n12539777337</SimpleData>
		<SimpleData name="osm_id">12539777337</SimpleData>
		<SimpleData name="osm_type">node</SimpleData>
		<SimpleData name="power">portal</SimpleData>
	</SchemaData></ExtendedData>
      <MultiGeometry><Point><coordinates>72.9708943,21.230632</coordinates></Point></MultiGeometry>
  </Placemark>
  <Placemark>
	<ExtendedData><SchemaData schemaUrl="#Portal">
		<SimpleData name="full_id">n5412941803</SimpleData>
		<SimpleData name="osm_id">5412941803</SimpleData>
		<SimpleData name="osm_type">node</SimpleData>
		<SimpleData name="power">portal</SimpleData>
	</SchemaData></ExtendedData>
      <MultiGeometry><Point><coordinates>69.1958696,24.2154577</coordinates></Point></MultiGeometry>
  </Placemark>
  <Placemark>
	<ExtendedData><SchemaData schemaUrl="#Portal">
		<SimpleData name="full_id">n6555671284</SimpleData>
		<SimpleData name="osm_id">6555671284</SimpleData>
		<SimpleData name="osm_type">node</SimpleData>
		<SimpleData name="power">portal</SimpleData>
	</SchemaData></ExtendedData>
      <MultiGeometry><Point><coordinates>73.3796221,22.4107558</coordinates></Point></MultiGeometry>
  </Placemark>
  <Placemark>
	<ExtendedData><SchemaData schemaUrl="#Portal">
		<SimpleData name="full_id">n9104264808</SimpleData>
		<SimpleData name="osm_id">9104264808</SimpleData>
		<SimpleData name="osm_type">node</SimpleData>
		<SimpleData name="power">portal</SimpleData>
	</SchemaData></ExtendedData>
      <MultiGeometry><Point><coordinates>73.1914195,22.2161302</coordinates></Point></MultiGeometry>
  </Placemark>
  <Placemark>
	<ExtendedData><SchemaData schemaUrl="#Portal">
		<SimpleData name="full_id">n9104264793</SimpleData>
		<SimpleData name="osm_id">9104264793</SimpleData>
		<SimpleData name="osm_type">node</SimpleData>
		<SimpleData name="power">portal</SimpleData>
	</SchemaData></ExtendedData>
      <MultiGeometry><Point><coordinates>73.1931549,22.2157624</coordinates></Point></MultiGeometry>
  </Placemark>
  <Placemark>
	<ExtendedData><SchemaData schemaUrl="#Portal">
		<SimpleData name="full_id">n5412941808</SimpleData>
		<SimpleData name="osm_id">5412941808</SimpleData>
		<SimpleData name="osm_type">node</SimpleData>
		<SimpleData name="power">portal</SimpleData>
	</SchemaData></ExtendedData>
      <MultiGeometry><Point><coordinates>69.1957569,24.21473</coordinates></Point></MultiGeometry>
  </Placemark>
  <Placemark>
	<ExtendedData><SchemaData schemaUrl="#Portal">
		<SimpleData name="full_id">n12500865531</SimpleData>
		<SimpleData name="osm_id">12500865531</SimpleData>
		<SimpleData name="osm_type">node</SimpleData>
		<SimpleData name="power">portal</SimpleData>
	</SchemaData></ExtendedData>
      <MultiGeometry><Point><coordinates>73.3565581,22.876879</coordinates></Point></MultiGeometry>
  </Placemark>
  <Placemark>
	<ExtendedData><SchemaData schemaUrl="#Portal">
		<SimpleData name="full_id">n12500865534</SimpleData>
		<SimpleData name="osm_id">12500865534</SimpleData>
		<SimpleData name="osm_type">node</SimpleData>
		<SimpleData name="power">portal</SimpleData>
	</SchemaData></ExtendedData>
      <MultiGeometry><Point><coordinates>73.3563904,22.8766565</coordinates></Point></MultiGeometry>
  </Placemark>
  <Placemark>
	<ExtendedData><SchemaData schemaUrl="#Portal">
		<SimpleData name="full_id">n9104264795</SimpleData>
		<SimpleData name="osm_id">9104264795</SimpleData>
		<SimpleData name="osm_type">node</SimpleData>
		<SimpleData name="power">portal</SimpleData>
	</SchemaData></ExtendedData>
      <MultiGeometry><Point><coordinates>73.192412,22.2156928</coordinates></Point></MultiGeometry>
  </Placemark>
  <Placemark>
	<ExtendedData><SchemaData schemaUrl="#Portal">
		<SimpleData name="full_id">n12539746729</SimpleData>
		<SimpleData name="osm_id">12539746729</SimpleData>
		<SimpleData name="osm_type">node</SimpleData>
		<SimpleData name="power">portal</SimpleData>
	</SchemaData></ExtendedData>
      <MultiGeometry><Point><coordinates>73.5553708,21.2113975</coordinates></Point></MultiGeometry>
  </Placemark>
  <Placemark>
	<ExtendedData><SchemaData schemaUrl="#Portal">
		<SimpleData name="full_id">n13460501036</SimpleData>
		<SimpleData name="osm_id">13460501036</SimpleData>
		<SimpleData name="osm_type">node</SimpleData>
		<SimpleData name="power">portal</SimpleData>
	</SchemaData></ExtendedData>
      <MultiGeometry><Point><coordinates>72.7537809,21.5266845</coordinates></Point></MultiGeometry>
  </Placemark>
  <Placemark>
	<ExtendedData><SchemaData schemaUrl="#Portal">
		<SimpleData name="full_id">n12539746731</SimpleData>
		<SimpleData name="osm_id">12539746731</SimpleData>
		<SimpleData name="osm_type">node</SimpleData>
		<SimpleData name="power">portal</SimpleData>
	</SchemaData></ExtendedData>
      <MultiGeometry><Point><coordinates>73.5568578,21.2122074</coordinates></Point></MultiGeometry>
  </Placemark>
  <Placemark>
	<ExtendedData><SchemaData schemaUrl="#Portal">
		<SimpleData name="full_id">n13460501062</SimpleData>
		<SimpleData name="osm_id">13460501062</SimpleData>
		<SimpleData name="osm_type">node</SimpleData>
		<SimpleData name="power">portal</SimpleData>
	</SchemaData></ExtendedData>
      <MultiGeometry><Point><coordinates>73.0103973,22.241187</coordinates></Point></MultiGeometry>
  </Placemark>
  <Placemark>
	<ExtendedData><SchemaData schemaUrl="#Portal">
		<SimpleData name="full_id">n13460501022</SimpleData>
		<SimpleData name="osm_id">13460501022</SimpleData>
		<SimpleData name="osm_type">node</SimpleData>
		<SimpleData name="power">portal</SimpleData>
	</SchemaData></ExtendedData>
      <MultiGeometry><Point><coordinates>72.9911537,21.4699719</coordinates></Point></MultiGeometry>
  </Placemark>
  <Placemark>
	<ExtendedData><SchemaData schemaUrl="#Portal">
		<SimpleData name="full_id">n13416433436</SimpleData>
		<SimpleData name="osm_id">13416433436</SimpleData>
		<SimpleData name="osm_type">node</SimpleData>
		<SimpleData name="power">portal</SimpleData>
	</SchemaData></ExtendedData>
      <MultiGeometry><Point><coordinates>71.772413,23.9673621</coordinates></Point></MultiGeometry>
  </Placemark>
  <Placemark>
	<ExtendedData><SchemaData schemaUrl="#Portal">
		<SimpleData name="full_id">n13460456286</SimpleData>
		<SimpleData name="osm_id">13460456286</SimpleData>
		<SimpleData name="osm_type">node</SimpleData>
		<SimpleData name="power">portal</SimpleData>
	</SchemaData></ExtendedData>
      <MultiGeometry><Point><coordinates>72.7065204,21.3789273</coordinates></Point></MultiGeometry>
  </Placemark>
  <Placemark>
	<ExtendedData><SchemaData schemaUrl="#Portal">
		<SimpleData name="full_id">n13039850943</SimpleData>
		<SimpleData name="osm_id">13039850943</SimpleData>
		<SimpleData name="osm_type">node</SimpleData>
		<SimpleData name="power">portal</SimpleData>
	</SchemaData></ExtendedData>
      <MultiGeometry><Point><coordinates>69.5757964,23.1543685</coordinates></Point></MultiGeometry>
  </Placemark>
  <Placemark>
	<ExtendedData><SchemaData schemaUrl="#Portal">
		<SimpleData name="full_id">n12618583658</SimpleData>
		<SimpleData name="osm_id">12618583658</SimpleData>
		<SimpleData name="osm_type">node</SimpleData>
		<SimpleData name="power">portal</SimpleData>
	</SchemaData></ExtendedData>
      <MultiGeometry><Point><coordinates>73.0834714,23.8234817</coordinates></Point></MultiGeometry>
  </Placemark>
  <Placemark>
	<ExtendedData><SchemaData schemaUrl="#Portal">
		<SimpleData name="full_id">n13040750813</SimpleData>
		<SimpleData name="osm_id">13040750813</SimpleData>
		<SimpleData name="osm_type">node</SimpleData>
		<SimpleData name="power">portal</SimpleData>
	</SchemaData></ExtendedData>
      <MultiGeometry><Point><coordinates>70.9458071,22.4816849</coordinates></Point></MultiGeometry>
  </Placemark>
  <Placemark>
	<ExtendedData><SchemaData schemaUrl="#Portal">
		<SimpleData name="full_id">n12618583659</SimpleData>
		<SimpleData name="osm_id">12618583659</SimpleData>
		<SimpleData name="osm_type">node</SimpleData>
		<SimpleData name="power">portal</SimpleData>
	</SchemaData></ExtendedData>
      <MultiGeometry><Point><coordinates>73.0835102,23.8235516</coordinates></Point></MultiGeometry>
  </Placemark>
  <Placemark>
	<ExtendedData><SchemaData schemaUrl="#Portal">
		<SimpleData name="full_id">n13465111342</SimpleData>
		<SimpleData name="osm_id">13465111342</SimpleData>
		<SimpleData name="osm_type">node</SimpleData>
		<SimpleData name="power">portal</SimpleData>
	</SchemaData></ExtendedData>
      <MultiGeometry><Point><coordinates>72.9982227,20.8183139</coordinates></Point></MultiGeometry>
  </Placemark>
  <Placemark>
	<ExtendedData><SchemaData schemaUrl="#Portal">
		<SimpleData name="full_id">n13016314576</SimpleData>
		<SimpleData name="osm_id">13016314576</SimpleData>
		<SimpleData name="osm_type">node</SimpleData>
		<SimpleData name="power">portal</SimpleData>
	</SchemaData></ExtendedData>
      <MultiGeometry><Point><coordinates>72.2493476,22.9603344</coordinates></Point></MultiGeometry>
  </Placemark>
  <Placemark>
	<ExtendedData><SchemaData schemaUrl="#Portal">
		<SimpleData name="full_id">n12539777366</SimpleData>
		<SimpleData name="osm_id">12539777366</SimpleData>
		<SimpleData name="osm_type">node</SimpleData>
		<SimpleData name="power">portal</SimpleData>
	</SchemaData></ExtendedData>
      <MultiGeometry><Point><coordinates>72.9708811,21.2308433</coordinates></Point></MultiGeometry>
  </Placemark>
  <Placemark>
	<ExtendedData><SchemaData schemaUrl="#Portal">
		<SimpleData name="full_id">n12539777367</SimpleData>
		<SimpleData name="osm_id">12539777367</SimpleData>
		<SimpleData name="osm_type">node</SimpleData>
		<SimpleData name="power">portal</SimpleData>
	</SchemaData></ExtendedData>
      <MultiGeometry><Point><coordinates>72.9709064,21.2304383</coordinates></Point></MultiGeometry>
  </Placemark>
  <Placemark>
	<ExtendedData><SchemaData schemaUrl="#Portal">
		<SimpleData name="full_id">n13465110539</SimpleData>
		<SimpleData name="osm_id">13465110539</SimpleData>
		<SimpleData name="osm_type">node</SimpleData>
		<SimpleData name="power">portal</SimpleData>
	</SchemaData></ExtendedData>
      <MultiGeometry><Point><coordinates>72.947997,20.8185834</coordinates></Point></MultiGeometry>
  </Placemark>
  <Placemark>
	<ExtendedData><SchemaData schemaUrl="#Portal">
		<SimpleData name="full_id">n12539821565</SimpleData>
		<SimpleData name="osm_id">12539821565</SimpleData>
		<SimpleData name="osm_type">node</SimpleData>
		<SimpleData name="power">portal</SimpleData>
	</SchemaData></ExtendedData>
      <MultiGeometry><Point><coordinates>72.5544797,22.9668661</coordinates></Point></MultiGeometry>
  </Placemark>
  <Placemark>
	<ExtendedData><SchemaData schemaUrl="#Portal">
		<SimpleData name="full_id">n13465110540</SimpleData>
		<SimpleData name="osm_id">13465110540</SimpleData>
		<SimpleData name="osm_type">node</SimpleData>
		<SimpleData name="power">portal</SimpleData>
	</SchemaData></ExtendedData>
      <MultiGeometry><Point><coordinates>72.9479273,20.8185809</coordinates></Point></MultiGeometry>
  </Placemark>
  <Placemark>
	<ExtendedData><SchemaData schemaUrl="#Portal">
		<SimpleData name="full_id">n12539821568</SimpleData>
		<SimpleData name="osm_id">12539821568</SimpleData>
		<SimpleData name="osm_type">node</SimpleData>
		<SimpleData name="power">portal</SimpleData>
	</SchemaData></ExtendedData>
      <MultiGeometry><Point><coordinates>72.5542763,22.9669554</coordinates></Point></MultiGeometry>
  </Placemark>
  <Placemark>
	<ExtendedData><SchemaData schemaUrl="#Portal">
		<SimpleData name="full_id">n12539821569</SimpleData>
		<SimpleData name="osm_id">12539821569</SimpleData>
		<SimpleData name="osm_type">node</SimpleData>
		<SimpleData name="power">portal</SimpleData>
	</SchemaData></ExtendedData>
      <MultiGeometry><Point><coordinates>72.5530438,22.9674967</coordinates></Point></MultiGeometry>
  </Placemark>
  <Placemark>
	<ExtendedData><SchemaData schemaUrl="#Portal">
		<SimpleData name="full_id">n12539821573</SimpleData>
		<SimpleData name="osm_id">12539821573</SimpleData>
		<SimpleData name="osm_type">node</SimpleData>
		<SimpleData name="power">portal</SimpleData>
	</SchemaData></ExtendedData>
      <MultiGeometry><Point><coordinates>72.5532794,22.9673932</coordinates></Point></MultiGeometry>
  </Placemark>
  <Placemark>
	<ExtendedData><SchemaData schemaUrl="#Portal">
		<SimpleData name="full_id">n13006501645</SimpleData>
		<SimpleData name="osm_id">13006501645</SimpleData>
		<SimpleData name="osm_type">node</SimpleData>
		<SimpleData name="power">portal</SimpleData>
	</SchemaData></ExtendedData>
      <MultiGeometry><Point><coordinates>73.342216,22.8185793</coordinates></Point></MultiGeometry>
  </Placemark>
  <Placemark>
	<ExtendedData><SchemaData schemaUrl="#Portal">
		<SimpleData name="full_id">n5413146079</SimpleData>
		<SimpleData name="osm_id">5413146079</SimpleData>
		<SimpleData name="osm_type">node</SimpleData>
		<SimpleData name="power">portal</SimpleData>
	</SchemaData></ExtendedData>
      <MultiGeometry><Point><coordinates>69.6813963,23.4257809</coordinates></Point></MultiGeometry>
  </Placemark>
  <Placemark>
	<ExtendedData><SchemaData schemaUrl="#Portal">
		<SimpleData name="full_id">n13006501646</SimpleData>
		<SimpleData name="osm_id">13006501646</SimpleData>
		<SimpleData name="osm_type">node</SimpleData>
		<SimpleData name="power">portal</SimpleData>
	</SchemaData></ExtendedData>
      <MultiGeometry><Point><coordinates>73.341874,22.8185286</coordinates></Point></MultiGeometry>
  </Placemark>
  <Placemark>
	<ExtendedData><SchemaData schemaUrl="#Portal">
		<SimpleData name="full_id">n5413146080</SimpleData>
		<SimpleData name="osm_id">5413146080</SimpleData>
		<SimpleData name="osm_type">node</SimpleData>
		<SimpleData name="power">portal</SimpleData>
	</SchemaData></ExtendedData>
      <MultiGeometry><Point><coordinates>69.7046243,23.8360389</coordinates></Point></MultiGeometry>
  </Placemark>
  <Placemark>
	<ExtendedData><SchemaData schemaUrl="#Portal">
		<SimpleData name="full_id">n12539821552</SimpleData>
		<SimpleData name="osm_id">12539821552</SimpleData>
		<SimpleData name="osm_type">node</SimpleData>
		<SimpleData name="power">portal</SimpleData>
	</SchemaData></ExtendedData>
      <MultiGeometry><Point><coordinates>72.5529224,22.9675499</coordinates></Point></MultiGeometry>
  </Placemark>
  <Placemark>
	<ExtendedData><SchemaData schemaUrl="#Portal">
		<SimpleData name="full_id">n5413146081</SimpleData>
		<SimpleData name="osm_id">5413146081</SimpleData>
		<SimpleData name="osm_type">node</SimpleData>
		<SimpleData name="power">portal</SimpleData>
	</SchemaData></ExtendedData>
      <MultiGeometry><Point><coordinates>69.7312633,23.8241398</coordinates></Point></MultiGeometry>
  </Placemark>
  <Placemark>
	<ExtendedData><SchemaData schemaUrl="#Portal">
		<SimpleData name="full_id">n3383766127</SimpleData>
		<SimpleData name="osm_id">3383766127</SimpleData>
		<SimpleData name="osm_type">node</SimpleData>
		<SimpleData name="power">portal</SimpleData>
	</SchemaData></ExtendedData>
      <MultiGeometry><Point><coordinates>72.9288742,20.5487733</coordinates></Point></MultiGeometry>
  </Placemark>
  <Placemark>
	<ExtendedData><SchemaData schemaUrl="#Portal">
		<SimpleData name="full_id">n12539821553</SimpleData>
		<SimpleData name="osm_id">12539821553</SimpleData>
		<SimpleData name="osm_type">node</SimpleData>
		<SimpleData name="power">portal</SimpleData>
	</SchemaData></ExtendedData>
      <MultiGeometry><Point><coordinates>72.554003,22.9670754</coordinates></Point></MultiGeometry>
  </Placemark>
  <Placemark>
	<ExtendedData><SchemaData schemaUrl="#Portal">
		<SimpleData name="full_id">n5413146082</SimpleData>
		<SimpleData name="osm_id">5413146082</SimpleData>
		<SimpleData name="osm_type">node</SimpleData>
		<SimpleData name="power">portal</SimpleData>
	</SchemaData></ExtendedData>
      <MultiGeometry><Point><coordinates>69.7311667,23.8241374</coordinates></Point></MultiGeometry>
  </Placemark>
  <Placemark>
	<ExtendedData><SchemaData schemaUrl="#Portal">
		<SimpleData name="full_id">n12539821554</SimpleData>
		<SimpleData name="osm_id">12539821554</SimpleData>
		<SimpleData name="osm_type">node</SimpleData>
		<SimpleData name="power">portal</SimpleData>
	</SchemaData></ExtendedData>
      <MultiGeometry><Point><coordinates>72.5537238,22.967198</coordinates></Point></MultiGeometry>
  </Placemark>
  <Placemark>
	<ExtendedData><SchemaData schemaUrl="#Portal">
		<SimpleData name="full_id">n5413146083</SimpleData>
		<SimpleData name="osm_id">5413146083</SimpleData>
		<SimpleData name="osm_type">node</SimpleData>
		<SimpleData name="power">portal</SimpleData>
	</SchemaData></ExtendedData>
      <MultiGeometry><Point><coordinates>69.7310112,23.8241398</coordinates></Point></MultiGeometry>
  </Placemark>
  <Placemark>
	<ExtendedData><SchemaData schemaUrl="#Portal">
		<SimpleData name="full_id">n12539821555</SimpleData>
		<SimpleData name="osm_id">12539821555</SimpleData>
		<SimpleData name="osm_type">node</SimpleData>
		<SimpleData name="power">portal</SimpleData>
	</SchemaData></ExtendedData>
      <MultiGeometry><Point><coordinates>72.5533339,22.9673692</coordinates></Point></MultiGeometry>
  </Placemark>
  <Placemark>
	<ExtendedData><SchemaData schemaUrl="#Portal">
		<SimpleData name="full_id">n12539821556</SimpleData>
		<SimpleData name="osm_id">12539821556</SimpleData>
		<SimpleData name="osm_type">node</SimpleData>
		<SimpleData name="power">portal</SimpleData>
	</SchemaData></ExtendedData>
      <MultiGeometry><Point><coordinates>72.5531173,22.9674644</coordinates></Point></MultiGeometry>
  </Placemark>
  <Placemark>
	<ExtendedData><SchemaData schemaUrl="#Portal">
		<SimpleData name="full_id">n13460320034</SimpleData>
		<SimpleData name="osm_id">13460320034</SimpleData>
		<SimpleData name="osm_type">node</SimpleData>
		<SimpleData name="power">portal</SimpleData>
	</SchemaData></ExtendedData>
      <MultiGeometry><Point><coordinates>72.947871,20.8185834</coordinates></Point></MultiGeometry>
  </Placemark>
  <Placemark>
	<ExtendedData><SchemaData schemaUrl="#Portal">
		<SimpleData name="full_id">n12623381101</SimpleData>
		<SimpleData name="osm_id">12623381101</SimpleData>
		<SimpleData name="osm_type">node</SimpleData>
		<SimpleData name="power">portal</SimpleData>
	</SchemaData></ExtendedData>
      <MultiGeometry><Point><coordinates>73.3409943,23.6999273</coordinates></Point></MultiGeometry>
  </Placemark>
  <Placemark>
	<ExtendedData><SchemaData schemaUrl="#Portal">
		<SimpleData name="full_id">n9111515161</SimpleData>
		<SimpleData name="osm_id">9111515161</SimpleData>
		<SimpleData name="osm_type">node</SimpleData>
		<SimpleData name="power">portal</SimpleData>
	</SchemaData></ExtendedData>
      <MultiGeometry><Point><coordinates>72.8473628,21.8507133</coordinates></Point></MultiGeometry>
  </Placemark>
  <Placemark>
	<ExtendedData><SchemaData schemaUrl="#Portal">
		<SimpleData name="full_id">n5423570242</SimpleData>
		<SimpleData name="osm_id">5423570242</SimpleData>
		<SimpleData name="osm_type">node</SimpleData>
		<SimpleData name="power">portal</SimpleData>
	</SchemaData></ExtendedData>
      <MultiGeometry><Point><coordinates>71.2948523,24.154025</coordinates></Point></MultiGeometry>
  </Placemark>
  <Placemark>
	<ExtendedData><SchemaData schemaUrl="#Portal">
		<SimpleData name="full_id">n12362993168</SimpleData>
		<SimpleData name="osm_id">12362993168</SimpleData>
		<SimpleData name="osm_type">node</SimpleData>
		<SimpleData name="power">portal</SimpleData>
	</SchemaData></ExtendedData>
      <MultiGeometry><Point><coordinates>69.3861924,24.0942472</coordinates></Point></MultiGeometry>
  </Placemark>
  <Placemark>
	<ExtendedData><SchemaData schemaUrl="#Portal">
		<SimpleData name="full_id">n12362993169</SimpleData>
		<SimpleData name="osm_id">12362993169</SimpleData>
		<SimpleData name="osm_type">node</SimpleData>
		<SimpleData name="power">portal</SimpleData>
	</SchemaData></ExtendedData>
      <MultiGeometry><Point><coordinates>69.3454188,24.1406738</coordinates></Point></MultiGeometry>
  </Placemark>
  <Placemark>
	<ExtendedData><SchemaData schemaUrl="#Portal">
		<SimpleData name="full_id">n12362993170</SimpleData>
		<SimpleData name="osm_id">12362993170</SimpleData>
		<SimpleData name="osm_type">node</SimpleData>
		<SimpleData name="power">portal</SimpleData>
	</SchemaData></ExtendedData>
      <MultiGeometry><Point><coordinates>69.3453839,24.1194584</coordinates></Point></MultiGeometry>
  </Placemark>
  <Placemark>
	<ExtendedData><SchemaData schemaUrl="#Portal">
		<SimpleData name="full_id">n12539821550</SimpleData>
		<SimpleData name="osm_id">12539821550</SimpleData>
		<SimpleData name="osm_type">node</SimpleData>
		<SimpleData name="power">portal</SimpleData>
	</SchemaData></ExtendedData>
      <MultiGeometry><Point><coordinates>72.5526062,22.9676888</coordinates></Point></MultiGeometry>
  </Placemark>
  <Placemark>
	<ExtendedData><SchemaData schemaUrl="#Portal">
		<SimpleData name="full_id">n13460501100</SimpleData>
		<SimpleData name="osm_id">13460501100</SimpleData>
		<SimpleData name="osm_type">node</SimpleData>
		<SimpleData name="power">portal</SimpleData>
	</SchemaData></ExtendedData>
      <MultiGeometry><Point><coordinates>73.9967394,22.6539527</coordinates></Point></MultiGeometry>
  </Placemark>
  <Placemark>
	<ExtendedData><SchemaData schemaUrl="#Portal">
		<SimpleData name="full_id">n9111466925</SimpleData>
		<SimpleData name="osm_id">9111466925</SimpleData>
		<SimpleData name="osm_type">node</SimpleData>
		<SimpleData name="power">portal</SimpleData>
	</SchemaData></ExtendedData>
      <MultiGeometry><Point><coordinates>72.9980132,21.7137777</coordinates></Point></MultiGeometry>
  </Placemark>
  <Placemark>
	<ExtendedData><SchemaData schemaUrl="#Portal">
		<SimpleData name="full_id">n9111466926</SimpleData>
		<SimpleData name="osm_id">9111466926</SimpleData>
		<SimpleData name="osm_type">node</SimpleData>
		<SimpleData name="power">portal</SimpleData>
	</SchemaData></ExtendedData>
      <MultiGeometry><Point><coordinates>72.9980121,21.7138674</coordinates></Point></MultiGeometry>
  </Placemark>
  <Placemark>
	<ExtendedData><SchemaData schemaUrl="#Portal">
		<SimpleData name="full_id">n9111515158</SimpleData>
		<SimpleData name="osm_id">9111515158</SimpleData>
		<SimpleData name="osm_type">node</SimpleData>
		<SimpleData name="power">portal</SimpleData>
	</SchemaData></ExtendedData>
      <MultiGeometry><Point><coordinates>72.8474111,21.8506521</coordinates></Point></MultiGeometry>
  </Placemark>
  <Placemark>
	<ExtendedData><SchemaData schemaUrl="#Portal">
		<SimpleData name="full_id">n8543503120</SimpleData>
		<SimpleData name="osm_id">8543503120</SimpleData>
		<SimpleData name="osm_type">node</SimpleData>
		<SimpleData name="power">portal</SimpleData>
	</SchemaData></ExtendedData>
      <MultiGeometry><Point><coordinates>72.2491508,22.9609706</coordinates></Point></MultiGeometry>
  </Placemark>
  <Placemark>
	<ExtendedData><SchemaData schemaUrl="#Portal">
		<SimpleData name="full_id">n8543503121</SimpleData>
		<SimpleData name="osm_id">8543503121</SimpleData>
		<SimpleData name="osm_type">node</SimpleData>
		<SimpleData name="power">portal</SimpleData>
	</SchemaData></ExtendedData>
      <MultiGeometry><Point><coordinates>72.2492529,22.9606408</coordinates></Point></MultiGeometry>
  </Placemark>
  <Placemark>
	<ExtendedData><SchemaData schemaUrl="#Portal">
		<SimpleData name="full_id">n13465111343</SimpleData>
		<SimpleData name="osm_id">13465111343</SimpleData>
		<SimpleData name="osm_type">node</SimpleData>
		<SimpleData name="power">portal</SimpleData>
	</SchemaData></ExtendedData>
      <MultiGeometry><Point><coordinates>72.9984105,20.8183339</coordinates></Point></MultiGeometry>
  </Placemark>
  <Placemark>
	<ExtendedData><SchemaData schemaUrl="#Portal">
		<SimpleData name="full_id">n8543503122</SimpleData>
		<SimpleData name="osm_id">8543503122</SimpleData>
		<SimpleData name="osm_type">node</SimpleData>
		<SimpleData name="power">portal</SimpleData>
	</SchemaData></ExtendedData>
      <MultiGeometry><Point><coordinates>72.2512088,22.9597217</coordinates></Point></MultiGeometry>
  </Placemark>
  <Placemark>
	<ExtendedData><SchemaData schemaUrl="#Portal">
		<SimpleData name="full_id">n13007484372</SimpleData>
		<SimpleData name="osm_id">13007484372</SimpleData>
		<SimpleData name="osm_type">node</SimpleData>
		<SimpleData name="power">portal</SimpleData>
	</SchemaData></ExtendedData>
      <MultiGeometry><Point><coordinates>72.8323361,22.7065768</coordinates></Point></MultiGeometry>
  </Placemark>
  <Placemark>
	<ExtendedData><SchemaData schemaUrl="#Portal">
		<SimpleData name="full_id">n13460544590</SimpleData>
		<SimpleData name="osm_id">13460544590</SimpleData>
		<SimpleData name="osm_type">node</SimpleData>
		<SimpleData name="power">portal</SimpleData>
	</SchemaData></ExtendedData>
      <MultiGeometry><Point><coordinates>74.0322009,22.3637588</coordinates></Point></MultiGeometry>
  </Placemark>
  <Placemark>
	<ExtendedData><SchemaData schemaUrl="#Portal">
		<SimpleData name="full_id">n13015734553</SimpleData>
		<SimpleData name="osm_id">13015734553</SimpleData>
		<SimpleData name="osm_type">node</SimpleData>
		<SimpleData name="power">portal</SimpleData>
	</SchemaData></ExtendedData>
      <MultiGeometry><Point><coordinates>72.4325488,22.8975757</coordinates></Point></MultiGeometry>
  </Placemark>
  <Placemark>
	<ExtendedData><SchemaData schemaUrl="#Portal">
		<SimpleData name="full_id">n13007484374</SimpleData>
		<SimpleData name="osm_id">13007484374</SimpleData>
		<SimpleData name="osm_type">node</SimpleData>
		<SimpleData name="power">portal</SimpleData>
	</SchemaData></ExtendedData>
      <MultiGeometry><Point><coordinates>72.8326875,22.7060448</coordinates></Point></MultiGeometry>
  </Placemark>
  <Placemark>
	<ExtendedData><SchemaData schemaUrl="#Portal">
		<SimpleData name="full_id">n13015734554</SimpleData>
		<SimpleData name="osm_id">13015734554</SimpleData>
		<SimpleData name="osm_type">node</SimpleData>
		<SimpleData name="power">portal</SimpleData>
	</SchemaData></ExtendedData>
      <MultiGeometry><Point><coordinates>72.4325314,22.8977252</coordinates></Point></MultiGeometry>
  </Placemark>
  <Placemark>
	<ExtendedData><SchemaData schemaUrl="#Portal">
		<SimpleData name="full_id">n5423570280</SimpleData>
		<SimpleData name="osm_id">5423570280</SimpleData>
		<SimpleData name="osm_type">node</SimpleData>
		<SimpleData name="power">portal</SimpleData>
	</SchemaData></ExtendedData>
      <MultiGeometry><Point><coordinates>71.2949985,24.1538585</coordinates></Point></MultiGeometry>
  </Placemark>
  <Placemark>
	<ExtendedData><SchemaData schemaUrl="#Portal">
		<SimpleData name="full_id">n13460544516</SimpleData>
		<SimpleData name="osm_id">13460544516</SimpleData>
		<SimpleData name="osm_type">node</SimpleData>
		<SimpleData name="power">portal</SimpleData>
	</SchemaData></ExtendedData>
      <MultiGeometry><Point><coordinates>73.2554144,21.4369311</coordinates></Point></MultiGeometry>
  </Placemark>
  <Placemark>
	<ExtendedData><SchemaData schemaUrl="#Portal">
		<SimpleData name="full_id">n13015734555</SimpleData>
		<SimpleData name="osm_id">13015734555</SimpleData>
		<SimpleData name="osm_type">node</SimpleData>
		<SimpleData name="power">portal</SimpleData>
	</SchemaData></ExtendedData>
      <MultiGeometry><Point><coordinates>72.4325328,22.8977771</coordinates></Point></MultiGeometry>
  </Placemark>
  <Placemark>
	<ExtendedData><SchemaData schemaUrl="#Portal">
		<SimpleData name="full_id">n5423570281</SimpleData>
		<SimpleData name="osm_id">5423570281</SimpleData>
		<SimpleData name="osm_type">node</SimpleData>
		<SimpleData name="power">portal</SimpleData>
	</SchemaData></ExtendedData>
      <MultiGeometry><Point><coordinates>71.2951648,24.153883</coordinates></Point></MultiGeometry>
  </Placemark>
  <Placemark>
	<ExtendedData><SchemaData schemaUrl="#Portal">
		<SimpleData name="full_id">n13015734556</SimpleData>
		<SimpleData name="osm_id">13015734556</SimpleData>
		<SimpleData name="osm_type">node</SimpleData>
		<SimpleData name="power">portal</SimpleData>
	</SchemaData></ExtendedData>
      <MultiGeometry><Point><coordinates>72.4325193,22.8979247</coordinates></Point></MultiGeometry>
  </Placemark>
  <Placemark>
	<ExtendedData><SchemaData schemaUrl="#Portal">
		<SimpleData name="full_id">n13015734557</SimpleData>
		<SimpleData name="osm_id">13015734557</SimpleData>
		<SimpleData name="osm_type">node</SimpleData>
		<SimpleData name="power">portal</SimpleData>
	</SchemaData></ExtendedData>
      <MultiGeometry><Point><coordinates>72.4325046,22.8980057</coordinates></Point></MultiGeometry>
  </Placemark>
  <Placemark>
	<ExtendedData><SchemaData schemaUrl="#Portal">
		<SimpleData name="full_id">n13015734558</SimpleData>
		<SimpleData name="osm_id">13015734558</SimpleData>
		<SimpleData name="osm_type">node</SimpleData>
		<SimpleData name="power">portal</SimpleData>
	</SchemaData></ExtendedData>
      <MultiGeometry><Point><coordinates>72.4325019,22.8982083</coordinates></Point></MultiGeometry>
  </Placemark>
  <Placemark>
	<ExtendedData><SchemaData schemaUrl="#Portal">
		<SimpleData name="full_id">n12540041067</SimpleData>
		<SimpleData name="osm_id">12540041067</SimpleData>
		<SimpleData name="osm_type">node</SimpleData>
		<SimpleData name="power">portal</SimpleData>
	</SchemaData></ExtendedData>
      <MultiGeometry><Point><coordinates>72.6739217,23.1096334</coordinates></Point></MultiGeometry>
  </Placemark>
  <Placemark>
	<ExtendedData><SchemaData schemaUrl="#Portal">
		<SimpleData name="full_id">n13015734559</SimpleData>
		<SimpleData name="osm_id">13015734559</SimpleData>
		<SimpleData name="osm_type">node</SimpleData>
		<SimpleData name="power">portal</SimpleData>
	</SchemaData></ExtendedData>
      <MultiGeometry><Point><coordinates>72.4324885,22.8983503</coordinates></Point></MultiGeometry>
  </Placemark>
  <Placemark>
	<ExtendedData><SchemaData schemaUrl="#Portal">
		<SimpleData name="full_id">n12608686253</SimpleData>
		<SimpleData name="osm_id">12608686253</SimpleData>
		<SimpleData name="osm_type">node</SimpleData>
		<SimpleData name="power">portal</SimpleData>
	</SchemaData></ExtendedData>
      <MultiGeometry><Point><coordinates>72.5181945,23.9702959</coordinates></Point></MultiGeometry>
  </Placemark>
  <Placemark>
	<ExtendedData><SchemaData schemaUrl="#Portal">
		<SimpleData name="full_id">n12540058684</SimpleData>
		<SimpleData name="osm_id">12540058684</SimpleData>
		<SimpleData name="osm_type">node</SimpleData>
		<SimpleData name="power">portal</SimpleData>
	</SchemaData></ExtendedData>
      <MultiGeometry><Point><coordinates>72.8759718,23.2204442</coordinates></Point></MultiGeometry>
  </Placemark>
  <Placemark>
	<ExtendedData><SchemaData schemaUrl="#Portal">
		<SimpleData name="full_id">n12608686254</SimpleData>
		<SimpleData name="osm_id">12608686254</SimpleData>
		<SimpleData name="osm_type">node</SimpleData>
		<SimpleData name="power">portal</SimpleData>
	</SchemaData></ExtendedData>
      <MultiGeometry><Point><coordinates>72.5182696,23.9701709</coordinates></Point></MultiGeometry>
  </Placemark>
  <Placemark>
	<ExtendedData><SchemaData schemaUrl="#Portal">
		<SimpleData name="full_id">n12540058685</SimpleData>
		<SimpleData name="osm_id">12540058685</SimpleData>
		<SimpleData name="osm_type">node</SimpleData>
		<SimpleData name="power">portal</SimpleData>
	</SchemaData></ExtendedData>
      <MultiGeometry><Point><coordinates>72.8760826,23.2200943</coordinates></Point></MultiGeometry>
  </Placemark>
  <Placemark>
	<ExtendedData><SchemaData schemaUrl="#Portal">
		<SimpleData name="full_id">n12768426063</SimpleData>
		<SimpleData name="osm_id">12768426063</SimpleData>
		<SimpleData name="osm_type">node</SimpleData>
		<SimpleData name="power">portal</SimpleData>
	</SchemaData></ExtendedData>
      <MultiGeometry><Point><coordinates>72.977904,21.7829367</coordinates></Point></MultiGeometry>
  </Placemark>
  <Placemark>
	<ExtendedData><SchemaData schemaUrl="#Portal">
		<SimpleData name="full_id">n12540058686</SimpleData>
		<SimpleData name="osm_id">12540058686</SimpleData>
		<SimpleData name="osm_type">node</SimpleData>
		<SimpleData name="power">portal</SimpleData>
	</SchemaData></ExtendedData>
      <MultiGeometry><Point><coordinates>72.8761661,23.2198303</coordinates></Point></MultiGeometry>
  </Placemark>
  <Placemark>
	<ExtendedData><SchemaData schemaUrl="#Portal">
		<SimpleData name="full_id">n12768426065</SimpleData>
		<SimpleData name="osm_id">12768426065</SimpleData>
		<SimpleData name="osm_type">node</SimpleData>
		<SimpleData name="power">portal</SimpleData>
	</SchemaData></ExtendedData>
      <MultiGeometry><Point><coordinates>72.9778923,21.7831003</coordinates></Point></MultiGeometry>
  </Placemark>
  <Placemark>
	<ExtendedData><SchemaData schemaUrl="#Portal">
		<SimpleData name="full_id">n12540006588</SimpleData>
		<SimpleData name="osm_id">12540006588</SimpleData>
		<SimpleData name="osm_type">node</SimpleData>
		<SimpleData name="power">portal</SimpleData>
	</SchemaData></ExtendedData>
      <MultiGeometry><Point><coordinates>72.5880675,22.9507418</coordinates></Point></MultiGeometry>
  </Placemark>
  <Placemark>
	<ExtendedData><SchemaData schemaUrl="#Portal">
		<SimpleData name="full_id">n13460320059</SimpleData>
		<SimpleData name="osm_id">13460320059</SimpleData>
		<SimpleData name="osm_type">node</SimpleData>
		<SimpleData name="power">portal</SimpleData>
	</SchemaData></ExtendedData>
      <MultiGeometry><Point><coordinates>72.9334608,20.7926579</coordinates></Point></MultiGeometry>
  </Placemark>
  <Placemark>
	<ExtendedData><SchemaData schemaUrl="#Portal">
		<SimpleData name="full_id">n1518075343</SimpleData>
		<SimpleData name="osm_id">1518075343</SimpleData>
		<SimpleData name="osm_type">node</SimpleData>
		<SimpleData name="power">portal</SimpleData>
	</SchemaData></ExtendedData>
      <MultiGeometry><Point><coordinates>72.7268049,23.230136</coordinates></Point></MultiGeometry>
  </Placemark>
  <Placemark>
	<ExtendedData><SchemaData schemaUrl="#Portal">
		<SimpleData name="full_id">n1512989916</SimpleData>
		<SimpleData name="osm_id">1512989916</SimpleData>
		<SimpleData name="osm_type">node</SimpleData>
		<SimpleData name="power">portal</SimpleData>
	</SchemaData></ExtendedData>
      <MultiGeometry><Point><coordinates>72.7439542,22.8083176</coordinates></Point></MultiGeometry>
  </Placemark>
  <Placemark>
	<ExtendedData><SchemaData schemaUrl="#Portal">
		<SimpleData name="full_id">n12540000713</SimpleData>
		<SimpleData name="osm_id">12540000713</SimpleData>
		<SimpleData name="osm_type">node</SimpleData>
		<SimpleData name="power">portal</SimpleData>
	</SchemaData></ExtendedData>
      <MultiGeometry><Point><coordinates>72.586671,22.9505752</coordinates></Point></MultiGeometry>
  </Placemark>
  <Placemark>
	<ExtendedData><SchemaData schemaUrl="#Portal">
		<SimpleData name="full_id">n12540000714</SimpleData>
		<SimpleData name="osm_id">12540000714</SimpleData>
		<SimpleData name="osm_type">node</SimpleData>
		<SimpleData name="power">portal</SimpleData>
	</SchemaData></ExtendedData>
      <MultiGeometry><Point><coordinates>72.5871876,22.9508514</coordinates></Point></MultiGeometry>
  </Placemark>
  <Placemark>
	<ExtendedData><SchemaData schemaUrl="#Portal">
		<SimpleData name="full_id">n12540000715</SimpleData>
		<SimpleData name="osm_id">12540000715</SimpleData>
		<SimpleData name="osm_type">node</SimpleData>
		<SimpleData name="power">portal</SimpleData>
	</SchemaData></ExtendedData>
      <MultiGeometry><Point><coordinates>72.5873833,22.950956</coordinates></Point></MultiGeometry>
  </Placemark>
  <Placemark>
	<ExtendedData><SchemaData schemaUrl="#Portal">
		<SimpleData name="full_id">n12540006585</SimpleData>
		<SimpleData name="osm_id">12540006585</SimpleData>
		<SimpleData name="osm_type">node</SimpleData>
		<SimpleData name="power">portal</SimpleData>
	</SchemaData></ExtendedData>
      <MultiGeometry><Point><coordinates>72.5878912,22.9506468</coordinates></Point></MultiGeometry>
  </Placemark>
  <Placemark>
	<ExtendedData><SchemaData schemaUrl="#Portal">
		<SimpleData name="full_id">n12540006586</SimpleData>
		<SimpleData name="osm_id">12540006586</SimpleData>
		<SimpleData name="osm_type">node</SimpleData>
		<SimpleData name="power">portal</SimpleData>
	</SchemaData></ExtendedData>
      <MultiGeometry><Point><coordinates>72.5875783,22.9504782</coordinates></Point></MultiGeometry>
  </Placemark>
  <Placemark>
	<ExtendedData><SchemaData schemaUrl="#Portal">
		<SimpleData name="full_id">n12540006587</SimpleData>
		<SimpleData name="osm_id">12540006587</SimpleData>
		<SimpleData name="osm_type">node</SimpleData>
		<SimpleData name="power">portal</SimpleData>
	</SchemaData></ExtendedData>
      <MultiGeometry><Point><coordinates>72.5877321,22.950561</coordinates></Point></MultiGeometry>
  </Placemark>
  <Placemark>
	<ExtendedData><SchemaData schemaUrl="#Portal">
		<SimpleData name="full_id">n12539858404</SimpleData>
		<SimpleData name="osm_id">12539858404</SimpleData>
		<SimpleData name="osm_type">node</SimpleData>
		<SimpleData name="power">portal</SimpleData>
	</SchemaData></ExtendedData>
      <MultiGeometry><Point><coordinates>72.5594496,22.972308</coordinates></Point></MultiGeometry>
  </Placemark>
  <Placemark>
	<ExtendedData><SchemaData schemaUrl="#Portal">
		<SimpleData name="full_id">n12539858405</SimpleData>
		<SimpleData name="osm_id">12539858405</SimpleData>
		<SimpleData name="osm_type">node</SimpleData>
		<SimpleData name="power">portal</SimpleData>
	</SchemaData></ExtendedData>
      <MultiGeometry><Point><coordinates>72.55966,22.9722265</coordinates></Point></MultiGeometry>
  </Placemark>
  <Placemark>
	<ExtendedData><SchemaData schemaUrl="#Portal">
		<SimpleData name="full_id">n12539858406</SimpleData>
		<SimpleData name="osm_id">12539858406</SimpleData>
		<SimpleData name="osm_type">node</SimpleData>
		<SimpleData name="power">portal</SimpleData>
	</SchemaData></ExtendedData>
      <MultiGeometry><Point><coordinates>72.5585941,22.9726393</coordinates></Point></MultiGeometry>
  </Placemark>
  <Placemark>
	<ExtendedData><SchemaData schemaUrl="#Portal">
		<SimpleData name="full_id">n13416394057</SimpleData>
		<SimpleData name="osm_id">13416394057</SimpleData>
		<SimpleData name="osm_type">node</SimpleData>
		<SimpleData name="power">portal</SimpleData>
	</SchemaData></ExtendedData>
      <MultiGeometry><Point><coordinates>69.4025311,21.9892134</coordinates></Point></MultiGeometry>
  </Placemark>
  <Placemark>
	<ExtendedData><SchemaData schemaUrl="#Portal">
		<SimpleData name="full_id">n13040762212</SimpleData>
		<SimpleData name="osm_id">13040762212</SimpleData>
		<SimpleData name="osm_type">node</SimpleData>
		<SimpleData name="power">portal</SimpleData>
	</SchemaData></ExtendedData>
      <MultiGeometry><Point><coordinates>71.486645,24.3427346</coordinates></Point></MultiGeometry>
  </Placemark>
  <Placemark>
	<ExtendedData><SchemaData schemaUrl="#Portal">
		<SimpleData name="full_id">n13040762213</SimpleData>
		<SimpleData name="osm_id">13040762213</SimpleData>
		<SimpleData name="osm_type">node</SimpleData>
		<SimpleData name="power">portal</SimpleData>
	</SchemaData></ExtendedData>
      <MultiGeometry><Point><coordinates>71.4875302,24.3440151</coordinates></Point></MultiGeometry>
  </Placemark>
  <Placemark>
	<ExtendedData><SchemaData schemaUrl="#Portal">
		<SimpleData name="full_id">n13467881843</SimpleData>
		<SimpleData name="osm_id">13467881843</SimpleData>
		<SimpleData name="osm_type">node</SimpleData>
		<SimpleData name="power">portal</SimpleData>
	</SchemaData></ExtendedData>
      <MultiGeometry><Point><coordinates>72.845192,21.1742488</coordinates></Point></MultiGeometry>
  </Placemark>
  <Placemark>
	<ExtendedData><SchemaData schemaUrl="#Portal">
		<SimpleData name="full_id">n13467881844</SimpleData>
		<SimpleData name="osm_id">13467881844</SimpleData>
		<SimpleData name="osm_type">node</SimpleData>
		<SimpleData name="power">portal</SimpleData>
	</SchemaData></ExtendedData>
      <MultiGeometry><Point><coordinates>72.8453448,21.1742901</coordinates></Point></MultiGeometry>
  </Placemark>
  <Placemark>
	<ExtendedData><SchemaData schemaUrl="#Portal">
		<SimpleData name="full_id">n13480726397</SimpleData>
		<SimpleData name="osm_id">13480726397</SimpleData>
		<SimpleData name="osm_type">node</SimpleData>
		<SimpleData name="power">portal</SimpleData>
	</SchemaData></ExtendedData>
      <MultiGeometry><Point><coordinates>72.2509344,22.9596511</coordinates></Point></MultiGeometry>
  </Placemark>
  <Placemark>
	<ExtendedData><SchemaData schemaUrl="#Portal">
		<SimpleData name="full_id">n13480726398</SimpleData>
		<SimpleData name="osm_id">13480726398</SimpleData>
		<SimpleData name="osm_type">node</SimpleData>
		<SimpleData name="power">portal</SimpleData>
	</SchemaData></ExtendedData>
      <MultiGeometry><Point><coordinates>72.2491996,22.9608131</coordinates></Point></MultiGeometry>
  </Placemark>
  <Placemark>
	<ExtendedData><SchemaData schemaUrl="#Portal">
		<SimpleData name="full_id">n13040750888</SimpleData>
		<SimpleData name="osm_id">13040750888</SimpleData>
		<SimpleData name="osm_type">node</SimpleData>
		<SimpleData name="power">portal</SimpleData>
	</SchemaData></ExtendedData>
      <MultiGeometry><Point><coordinates>72.9255617,22.9169718</coordinates></Point></MultiGeometry>
  </Placemark>
  <Placemark>
	<ExtendedData><SchemaData schemaUrl="#Portal">
		<SimpleData name="full_id">n13480726399</SimpleData>
		<SimpleData name="osm_id">13480726399</SimpleData>
		<SimpleData name="osm_type">node</SimpleData>
		<SimpleData name="power">portal</SimpleData>
	</SchemaData></ExtendedData>
      <MultiGeometry><Point><coordinates>72.2492942,22.960507</coordinates></Point></MultiGeometry>
  </Placemark>
  <Placemark>
	<ExtendedData><SchemaData schemaUrl="#Portal">
		<SimpleData name="full_id">n1516714954</SimpleData>
		<SimpleData name="osm_id">1516714954</SimpleData>
		<SimpleData name="osm_type">node</SimpleData>
		<SimpleData name="power">portal</SimpleData>
	</SchemaData></ExtendedData>
      <MultiGeometry><Point><coordinates>72.7534516,22.2391586</coordinates></Point></MultiGeometry>
  </Placemark>
  <Placemark>
	<ExtendedData><SchemaData schemaUrl="#Portal">
		<SimpleData name="full_id">n1516714999</SimpleData>
		<SimpleData name="osm_id">1516714999</SimpleData>
		<SimpleData name="osm_type">node</SimpleData>
		<SimpleData name="power">portal</SimpleData>
	</SchemaData></ExtendedData>
      <MultiGeometry><Point><coordinates>72.7532662,22.239928</coordinates></Point></MultiGeometry>
  </Placemark>
  <Placemark>
	<ExtendedData><SchemaData schemaUrl="#Portal">
		<SimpleData name="full_id">n12608686255</SimpleData>
		<SimpleData name="osm_id">12608686255</SimpleData>
		<SimpleData name="osm_type">node</SimpleData>
		<SimpleData name="power">portal</SimpleData>
	</SchemaData></ExtendedData>
      <MultiGeometry><Point><coordinates>72.5183433,23.970063</coordinates></Point></MultiGeometry>
  </Placemark>
  <Placemark>
	<ExtendedData><SchemaData schemaUrl="#Portal">
		<SimpleData name="full_id">n1516715037</SimpleData>
		<SimpleData name="osm_id">1516715037</SimpleData>
		<SimpleData name="osm_type">node</SimpleData>
		<SimpleData name="power">portal</SimpleData>
	</SchemaData></ExtendedData>
      <MultiGeometry><Point><coordinates>72.753154,22.2403013</coordinates></Point></MultiGeometry>
  </Placemark>
  <Placemark>
	<ExtendedData><SchemaData schemaUrl="#Portal">
		<SimpleData name="full_id">n12540058689</SimpleData>
		<SimpleData name="osm_id">12540058689</SimpleData>
		<SimpleData name="osm_type">node</SimpleData>
		<SimpleData name="power">portal</SimpleData>
	</SchemaData></ExtendedData>
      <MultiGeometry><Point><coordinates>72.8759266,23.2205871</coordinates></Point></MultiGeometry>
  </Placemark>
  <Placemark>
	<ExtendedData><SchemaData schemaUrl="#Portal">
		<SimpleData name="full_id">n12616858045</SimpleData>
		<SimpleData name="osm_id">12616858045</SimpleData>
		<SimpleData name="osm_type">node</SimpleData>
		<SimpleData name="power">portal</SimpleData>
	</SchemaData></ExtendedData>
      <MultiGeometry><Point><coordinates>72.4006896,23.6880459</coordinates></Point></MultiGeometry>
  </Placemark>
  <Placemark>
	<ExtendedData><SchemaData schemaUrl="#Portal">
		<SimpleData name="full_id">n12540058692</SimpleData>
		<SimpleData name="osm_id">12540058692</SimpleData>
		<SimpleData name="osm_type">node</SimpleData>
		<SimpleData name="power">portal</SimpleData>
	</SchemaData></ExtendedData>
      <MultiGeometry><Point><coordinates>72.8757484,23.2211503</coordinates></Point></MultiGeometry>
  </Placemark>
  <Placemark>
	<ExtendedData><SchemaData schemaUrl="#Portal">
		<SimpleData name="full_id">n12535193119</SimpleData>
		<SimpleData name="osm_id">12535193119</SimpleData>
		<SimpleData name="osm_type">node</SimpleData>
		<SimpleData name="power">portal</SimpleData>
	</SchemaData></ExtendedData>
      <MultiGeometry><Point><coordinates>73.1911808,22.2159142</coordinates></Point></MultiGeometry>
  </Placemark>
  <Placemark>
	<ExtendedData><SchemaData schemaUrl="#Portal">
		<SimpleData name="full_id">n12535193120</SimpleData>
		<SimpleData name="osm_id">12535193120</SimpleData>
		<SimpleData name="osm_type">node</SimpleData>
		<SimpleData name="power">portal</SimpleData>
	</SchemaData></ExtendedData>
      <MultiGeometry><Point><coordinates>73.1922001,22.2160185</coordinates></Point></MultiGeometry>
  </Placemark>
  <Placemark>
	<ExtendedData><SchemaData schemaUrl="#Portal">
		<SimpleData name="full_id">n12535193121</SimpleData>
		<SimpleData name="osm_id">12535193121</SimpleData>
		<SimpleData name="osm_type">node</SimpleData>
		<SimpleData name="power">portal</SimpleData>
	</SchemaData></ExtendedData>
      <MultiGeometry><Point><coordinates>73.1920652,22.2160047</coordinates></Point></MultiGeometry>
  </Placemark>
  <Placemark>
	<ExtendedData><SchemaData schemaUrl="#Portal">
		<SimpleData name="full_id">n12608710224</SimpleData>
		<SimpleData name="osm_id">12608710224</SimpleData>
		<SimpleData name="osm_type">node</SimpleData>
		<SimpleData name="power">portal</SimpleData>
	</SchemaData></ExtendedData>
      <MultiGeometry><Point><coordinates>72.9025168,20.2699353</coordinates></Point></MultiGeometry>
  </Placemark>
  <Placemark>
	<ExtendedData><SchemaData schemaUrl="#Portal">
		<SimpleData name="full_id">n12535193122</SimpleData>
		<SimpleData name="osm_id">12535193122</SimpleData>
		<SimpleData name="osm_type">node</SimpleData>
		<SimpleData name="power">portal</SimpleData>
	</SchemaData></ExtendedData>
      <MultiGeometry><Point><coordinates>73.1919274,22.2159906</coordinates></Point></MultiGeometry>
  </Placemark>
  <Placemark>
	<ExtendedData><SchemaData schemaUrl="#Portal">
		<SimpleData name="full_id">n12608710225</SimpleData>
		<SimpleData name="osm_id">12608710225</SimpleData>
		<SimpleData name="osm_type">node</SimpleData>
		<SimpleData name="power">portal</SimpleData>
	</SchemaData></ExtendedData>
      <MultiGeometry><Point><coordinates>72.9022327,20.2700712</coordinates></Point></MultiGeometry>
  </Placemark>
  <Placemark>
	<ExtendedData><SchemaData schemaUrl="#Portal">
		<SimpleData name="full_id">n13416563140</SimpleData>
		<SimpleData name="osm_id">13416563140</SimpleData>
		<SimpleData name="osm_type">node</SimpleData>
		<SimpleData name="power">portal</SimpleData>
	</SchemaData></ExtendedData>
      <MultiGeometry><Point><coordinates>74.0435761,22.092825</coordinates></Point></MultiGeometry>
  </Placemark>
  <Placemark>
	<ExtendedData><SchemaData schemaUrl="#Portal">
		<SimpleData name="full_id">n12535193123</SimpleData>
		<SimpleData name="osm_id">12535193123</SimpleData>
		<SimpleData name="osm_type">node</SimpleData>
		<SimpleData name="power">portal</SimpleData>
	</SchemaData></ExtendedData>
      <MultiGeometry><Point><coordinates>73.1916969,22.215967</coordinates></Point></MultiGeometry>
  </Placemark>
  <Placemark>
	<ExtendedData><SchemaData schemaUrl="#Portal">
		<SimpleData name="full_id">n12608710226</SimpleData>
		<SimpleData name="osm_id">12608710226</SimpleData>
		<SimpleData name="osm_type">node</SimpleData>
		<SimpleData name="power">portal</SimpleData>
	</SchemaData></ExtendedData>
      <MultiGeometry><Point><coordinates>72.9017196,20.2703167</coordinates></Point></MultiGeometry>
  </Placemark>
  <Placemark>
	<ExtendedData><SchemaData schemaUrl="#Portal">
		<SimpleData name="full_id">n12535193124</SimpleData>
		<SimpleData name="osm_id">12535193124</SimpleData>
		<SimpleData name="osm_type">node</SimpleData>
		<SimpleData name="power">portal</SimpleData>
	</SchemaData></ExtendedData>
      <MultiGeometry><Point><coordinates>73.1912939,22.2159258</coordinates></Point></MultiGeometry>
  </Placemark>
  <Placemark>
	<ExtendedData><SchemaData schemaUrl="#Portal">
		<SimpleData name="full_id">n12608710227</SimpleData>
		<SimpleData name="osm_id">12608710227</SimpleData>
		<SimpleData name="osm_type">node</SimpleData>
		<SimpleData name="power">portal</SimpleData>
	</SchemaData></ExtendedData>
      <MultiGeometry><Point><coordinates>72.901179,20.2705753</coordinates></Point></MultiGeometry>
  </Placemark>
  <Placemark>
	<ExtendedData><SchemaData schemaUrl="#Portal">
		<SimpleData name="full_id">n12616151839</SimpleData>
		<SimpleData name="osm_id">12616151839</SimpleData>
		<SimpleData name="osm_type">node</SimpleData>
		<SimpleData name="power">portal</SimpleData>
	</SchemaData></ExtendedData>
      <MultiGeometry><Point><coordinates>72.3722662,23.9561486</coordinates></Point></MultiGeometry>
  </Placemark>
  <Placemark>
	<ExtendedData><SchemaData schemaUrl="#Portal">
		<SimpleData name="full_id">n12535193125</SimpleData>
		<SimpleData name="osm_id">12535193125</SimpleData>
		<SimpleData name="osm_type">node</SimpleData>
		<SimpleData name="power">portal</SimpleData>
	</SchemaData></ExtendedData>
      <MultiGeometry><Point><coordinates>73.1914364,22.2159404</coordinates></Point></MultiGeometry>
  </Placemark>
  <Placemark>
	<ExtendedData><SchemaData schemaUrl="#Portal">
		<SimpleData name="full_id">n12616151840</SimpleData>
		<SimpleData name="osm_id">12616151840</SimpleData>
		<SimpleData name="osm_type">node</SimpleData>
		<SimpleData name="power">portal</SimpleData>
	</SchemaData></ExtendedData>
      <MultiGeometry><Point><coordinates>72.3722863,23.9560138</coordinates></Point></MultiGeometry>
  </Placemark>
  <Placemark>
	<ExtendedData><SchemaData schemaUrl="#Portal">
		<SimpleData name="full_id">n12623333299</SimpleData>
		<SimpleData name="osm_id">12623333299</SimpleData>
		<SimpleData name="osm_type">node</SimpleData>
		<SimpleData name="power">portal</SimpleData>
	</SchemaData></ExtendedData>
      <MultiGeometry><Point><coordinates>73.3409165,23.6997984</coordinates></Point></MultiGeometry>
  </Placemark>
  <Placemark>
	<ExtendedData><SchemaData schemaUrl="#Portal">
		<SimpleData name="full_id">n13007481889</SimpleData>
		<SimpleData name="osm_id">13007481889</SimpleData>
		<SimpleData name="osm_type">node</SimpleData>
		<SimpleData name="power">portal</SimpleData>
	</SchemaData></ExtendedData>
      <MultiGeometry><Point><coordinates>72.7788824,22.5373688</coordinates></Point></MultiGeometry>
  </Placemark>
  <Placemark>
	<ExtendedData><SchemaData schemaUrl="#Portal">
		<SimpleData name="full_id">n12623333300</SimpleData>
		<SimpleData name="osm_id">12623333300</SimpleData>
		<SimpleData name="osm_type">node</SimpleData>
		<SimpleData name="power">portal</SimpleData>
	</SchemaData></ExtendedData>
      <MultiGeometry><Point><coordinates>73.3409578,23.6998669</coordinates></Point></MultiGeometry>
  </Placemark>
</Folder>
</Document></kml>
